name,city,region_code,country_code,phone,website,services,additional_cities,additional_regions
"Lead/ Chase/ Height Pole/ Steering","Wa & Ny Cert. / Tx Flagging Cert.",AL,US,,,"","",""
"Pilots For The Ny Metro Area;","Pilot Cars",AL,US,631-669-3742,,"","","AK, AZ, AR, CA, CO, CT, DE, FL, GA, ID, IL, IN, IA, KS, KY, LA, ME, MD, MA, MI, MN, MS, MO, MT, NE, NV, NH, NJ, NM, NY, NC, ND, OH, OK, OR, PA, RI, SC, SD, TN, TX, UT, VT, VA, WA, WV, WI, WY, AB, BC, NS, ON, QC, SK"
"Related To Your Account (2/Mo. Max).","Pilot Cars",AL,US,,,"","",""
"Mobile, Al | Graham’S Pilot Car | 251-957-2841","(La,Ms,Ar Only)",AL,US,,,"","",""
"Lake City, Fl | 386-243-1420","Black Beard",AL,US,,,"","",""
"256-466-5265 | Easy Pilot Car | Proud Veteran","Cash, Money Order, Comcheck, Business Check",AL,US,,,"","",""
"Jackson, Ms |Tcb Escorts LLC | 601-612-0106","Decatur / Huntsville / Birmingham, Al",AL,US,,,"","",""
"Height Pole * Route Survey * Traffic Control * Ny , Fl Certs * La","Our Family. Helping Yours!",AL,US,,,"","",""
"E & E Pilot Car Service","Mobile, Al",AL,US,,,"height_pole, multiple_cars, steering","",""
"205-258-8059/205-245-4143","Birmingham / Montgomery, Al",AL,US,,,"","",""
"Spartan Pilot Car Services 1 2 3 4 Twic/","Jacksonville / Green Cove Springs, Fl",AL,US,,,"WITPAC","",""
"Tcb Escorts LLC","Gonzales / Baton Rouge, La",AL,US,,,"multiple_cars, height_pole, steering","",""
"First Response Pilot Cars","Jackson, Ms",AL,US,,https://firstresponsepilotcars.godaddysites.com/,"height_pole, route_survey, multiple_cars","",""
"Vincent Pilot Car Service","Chattanooga, Tn",AL,US,,,"height_pole","",""
"Easy Pilot Car","Birmingham, Al",AL,US,,,"height_pole, route_survey, multiple_cars","",""
"Pratt’S Pilots","Decatur / Huntsville / Birmingham, Al",AL,US,,,"height_pole, route_survey, multiple_cars","",""
"Cars , 4 Steering 5","Birmingham, Al",AL,US,,,"WITPAC","",""
"North American Transport.Svc. 1 2 4 5","Birmingham",AL,US,217-860-2201,,"","Columbus, Livingston, Statewide, Blytheville, Texarkana, Cortez, Hartford, Atlanta, Ringgold, Savannah, Rockford, Billings, Beatrice, Lincoln, Omaha, Portland, Vancouver","AK, AR, CO, CT, DE, GA, IL, MT, NE, OR, WA"
"Vincent Pilot Car Service","Birmingham",AL,US,205-902-1738,,"height_pole","",""
"Pratt’S Pilots","Birmingham",AL,US,205-299-0326,,"height_pole, route_survey, multiple_cars","",""
"A1 Pilotcar Service","Birmingham",AL,US,205-269-2929,,"height_pole, route_survey","",""
"A & A Davis Pilot Car LLC","Birmingham",AL,US,205-310-3019,,"height_pole, multiple_cars","",""
"Midwest Pilot Cars","Mobile",AL,US,605-670-9654,http://midwestpilotcars.com/,"height_pole, route_survey, multiple_cars, steering","Danville, Joliet / Rockford, Peoria, Quincy, Fort Wayne, Fremont / Bend, Terre Haute, Garden City, Kansas City, Liberal, Oberlin, Wichita, Louisville, Metropolis, Paducah, Shreveport, Albert Lee, Minneapolis, Jackson, Joplin, St. Louis, Omaha, Cincinnati, Lawton, Oklahoma City, Tulsa, Portland, Sioux Falls, Farmington, Nm, Amarillo, Dallas / Ft. Worth, Houston, Midland / Odessa, Texarkana, Lynchburg, So. Charleston, Wv, Wheeling, Beloit, Cheyenne, Gillette","IL, IN, KS, KY, LA, MN, MS, MO, NE, OH, OK, OR, SD, TX, VA, WV, WI, WY"
"E & E Pilot Car Service","Montgomery",AL,US,205-258-8059,,"height_pole, multiple_cars, steering","",""
"365 Pilots 1 2 3 4 5","Columbus",AL,US,866-795-0150,,"","Huntsville, Jasper, Livingston, Mobile, Atlanta, Augusta, La Grange, Lavonia, Ringgold, Savannah, Valdosta, Danville, Galesburg, Peru, Rock Ford, Springfield, Auburn, Ellis, Gary, Lafayette, Poseyville, Richmond, South Bend, Terre Haute, Asheville, Charlotte, Duck, Lumberton, Rocky Mount, Wilmington, Aiken, Blacksburg, Charleston, Columbia, Dillon, Rock Hill, Chattanooga, Clarkville, Dyersburg, Kingsport, Memphis","GA, IL, IN, NC, SC, TN"
"Easy Pilot Car","Birmingham",AL,US,256-466-5265,,"height_pole, route_survey, multiple_cars","",""
"Graham’S Pilot Car","Mobile",AL,US,251-957-2841,,"height_pole, route_survey, multiple_cars","",""
"High Heels Pilot Car Services","Mobile",AL,US,251-458-3609,,"height_pole, route_survey, steering","",""
"Cars , 4 Steering 5","Mobile",AL,US,,,"WITPAC","",""
"Our Family. Helping Yours!","Mobile",AL,US,,,"","",""
"Arkansas","Mobile",AL,US,,,"","",""
"Florida","Mobile",AL,US,,,"","",""
"Iowa","Mobile",AL,US,,,"","",""
"Maryland","Mobile",AL,US,,,"","",""
"Missouri","Mobile",AL,US,,,"","",""
"New Jersey","Mobile",AL,US,,,"","",""
"Ohio","Mobile",AL,US,,,"","",""
"South Carolina","Mobile",AL,US,,,"","",""
"Vermont","Mobile",AL,US,,,"","",""
"Wyoming","Mobile",AL,US,,,"","",""
"Lead/ Chase/ Height Pole/ Steering","Wa & Ny Cert. / Tx Flagging Cert.",AK,US,,,"","",""
"Cars , 4 Steering 5","(La,Ms,Ar Only)",AK,US,,,"WITPAC","",""
"Cars , 4 Steering 5","Statewide",AK,US,,,"WITPAC","",""
"California","Statewide",AK,US,,,"","",""
"Georgia","Statewide",AK,US,,,"","",""
"Kansas","Statewide",AK,US,,,"","",""
"Massachusetts","Statewide",AK,US,,,"","",""
"Montana","Statewide",AK,US,,,"","",""
"New Mexico","Statewide",AK,US,,,"","",""
"Oklahoma","Statewide",AK,US,,,"","",""
"South Dakota","Statewide",AK,US,,,"","",""
"Virginia","Statewide",AK,US,,,"","",""
"Lead/ Chase/ Height Pole/ Steering","Wa & Ny Cert. / Tx Flagging Cert.",AZ,US,,,"","",""
"Related To Your Account (2/Mo. Max).","Pilot Cars",AZ,US,,,"","",""
"Rochelle’S Pc","Yuma, Az",AZ,US,,,"height_pole, route_survey","",""
"Blue Sky Pilot Car Service","Tucson, Az",AZ,US,,,"height_pole, route_survey","",""
"928-202-6570 /928-499-5609","Paulden, Az",AZ,US,,,"","",""
"( 218) 329-7606","Moorhead, Mn",AZ,US,,,"","",""
"Blacksheep Pilot Cars","Cortez, Co",AZ,US,,,"height_pole, multiple_cars","",""
"Valid Transportation & PCS 1234","Reno, Nv",AZ,US,,,"","",""
"Marwan’S Pilot Car Svc. 1020304","Madera, Ca",AZ,US,,,"","",""
"Cars, 4 Steering","Sacramento, Ca",AZ,US,,,"","",""
"1st Choice Pilots","Ehrenberg",AZ,US,503-282-2902,,"height_pole, multiple_cars, steering, route_survey","Blythe, Hilt, Yreka, Post Falls, Sweet Grass, Mcdermitt, Ashland, Ontario, Salem, Sheridan, Blaine, Pasco, Ridgefield","CA, ID, MT, NV, OR, WA"
"Valid Transportation & PCS 1234","Holbrook",AZ,US,559-363-5656,,"","Kingman, Phoenix, Tucson, Barstow, Blythe, Fresno, Long Beach, Oakland, Madera, Needles, Pasa Robles, Truckee, Weed, Jackpot, Las Vegas, Mesquite, Primm, Reno, Wendover, Gallup, Lordsburg, Tucumcari, Santa Rosa, Brigham City, Monticello, St. George","CA, NV, NM, UT"
"North American Transport.Svc. 1 2 3 4 5","Kingman",AZ,US,217-860-2201,,"","Danville, Joliet, Quincy, Fort Wayne, Gary, Richmond, Terre Haute, Belleville, Liberal, Oberlin, Wichita / Topeka, Shreveport, Reno, Providence, Charleston, Columbia, Rock Hill, Sioux Falls, Memphis, Dallas, Dennison, Brigham City, Wheeling, Cheyenne","IL, IN, KS, LA, NV, RI, SC, SD, TN, TX, UT, WV, WY"
"Loveland Pilot Car","Mesa / Phoenix",AZ,US,626-278-7545,,"height_pole, multiple_cars","Denver / Pueblo, Phoenix, Salt Lake City Phoenix","CO, NM, UT"
"Safe Lee Certified Pilot Car","Payson",AZ,US,609-351-3175,,"","",""
"Arizona Pilot Car Service","Phoenix",AZ,US,602-699-5755,https://arizonapilotcar.com/,"height_pole, route_survey","",""
"Pro Oversize 1 2 3","Phoenix / Kingman",AZ,US,623-594-4082,,"","",""
"Blue Sky Pilot Car Service","Prescott",AZ,US,928-202-6570,,"height_pole, route_survey","",""
"Rochelle’S Pc","Yuma",AZ,US,928-210-3435,,"height_pole, route_survey","",""
"Cars, 4 Steering","Yuma",AZ,US,,,"","",""
"602-699-5755 * Arizona Pilot Car Service","We’Ll Get You Where You’Re Going!!!!!!",AZ,US,,,"","",""
"Height Pole, Route Surveys, Ut Cert., Multiple Vehicles, Steering","We’Ll Get You Where You’Re Going!!!!!!",AZ,US,,,"","",""
"Transportation","Valid",AZ,US,559-363-5656,https://validtransportationpilotcarservice.com/,"","","CA, NV, NM, UT"
"Serving California & The Western Us * Height Pole * Route Surveys","“Your Loads Are Safe & Sound With Us!”",AZ,US,,,"","",""
"Alabama","“Your Loads Are Safe & Sound With Us!”",AZ,US,,,"","",""
"Colorado","“Your Loads Are Safe & Sound With Us!”",AZ,US,,,"","",""
"Idaho","“Your Loads Are Safe & Sound With Us!”",AZ,US,,,"","",""
"Kentucky","“Your Loads Are Safe & Sound With Us!”",AZ,US,,,"","",""
"Michigan","“Your Loads Are Safe & Sound With Us!”",AZ,US,,,"","",""
"Nebraska","“Your Loads Are Safe & Sound With Us!”",AZ,US,,,"","",""
"New York","“Your Loads Are Safe & Sound With Us!”",AZ,US,,,"","",""
"Oregon","“Your Loads Are Safe & Sound With Us!”",AZ,US,,,"","",""
"Tennessee","“Your Loads Are Safe & Sound With Us!”",AZ,US,,,"","",""
"Washington","“Your Loads Are Safe & Sound With Us!”",AZ,US,,,"","",""
"Lead/ Chase/ Height Pole/ Steering","Wa & Ny Cert. / Tx Flagging Cert.",AR,US,,,"","",""
"Related To Your Account (2/Mo. Max).","Pilot Cars",AR,US,,,"","",""
"Whispering Hills Pilot Cars LLC | 402-690-2100 | F-712-486-2327","(La,Ms,Ar Only)",AR,US,,,"","",""
"Sallisaw, Ok | Jim’S Pilot Car Service | 918-682-9636","(La,Ms,Ar Only)",AR,US,,,"","",""
"Certified","(La,Ms,Ar Only)",AR,US,,http://www.louisianafrog.com/,"","",""
"Whispering Hills Pilot Cars LLC | 402-690-2100 | F-712-486-2327","Cards",AR,US,,,"","",""
"Sallisaw, Ok | Jim’S Pilot Car Service | 918-682-9636","Cards",AR,US,,,"","",""
"Hp/Rt. Survey/ Multi Cars/Flagger Cert.| Amber Permits- Nv, Ga","Cards",AR,US,,,"","",""
"Height Pole * Route Surveys * Multiple Cars *","Cards",AR,US,,,"","",""
"Jackson, Ms | Tcb Escorts LLC | 601-612-0106","Steering * All Credit Cards",AR,US,,,"","",""
"A To B Pilot Car Escort Service","Texarkana, Ar",AR,US,,,"height_pole, multiple_cars, steering","",""
"C & H Pilot Transport, LLC 1 2 4","Houston, Tx",AR,US,,,"WITPAC","",""
"Gc Pilot Car Supply, LLC","Norfolk, Ne",AR,US,,,"height_pole, route_survey, multiple_cars, steering","",""
"620-272-4563 | 520-395-7739","Nationide",AR,US,,,"","",""
"Mark&#39;S Pilot Car Service","Jackson, Ms",AR,US,,,"","",""
"Jim&#39;S Pilot Car Service 1 2 (Bucket Truck)","Texarkana, Ar",AR,US,,,"","",""
"Frog Truck Escort","Sallisaw, Ok",AR,US,,http://www.louisianafrog.com/,"height_pole, route_survey, multiple_cars, steering","",""
"Coast2coast 1 2 3 Flagger","Texarkana, Ar",AR,US,,,"","",""
"Spartan Pilot Car Services 1 2 3 4 Twic/","Northeast La",AR,US,,,"WITPAC","",""
"Cars, 4 Steering 5","Memphis, Tn",AR,US,,,"WITPAC","",""
"365 Pilots","Bella Vista",AR,US,866-795-0150,https://365pilots.com/,"height_pole, route_survey, multiple_cars, steering","Blytheville, Fort Smith, Little Rock, Bowling Green, Frank Fort, Louisville, Paducah","KY"
"Jr&#39;S Pilot Escort Service","Ft Smith",AR,US,479-831-3352,,"","",""
"Sandhill Pilot Car Service LLC","Fort Smith",AR,US,863-232-9211,,"height_pole","",""
"R & G Transport","Texarkana",AR,US,870-703-4410,,"height_pole, multiple_cars","",""
"Mark&#39;S Pilot Car Service","Texarkana",AR,US,870-703-1576,,"","",""
"Vidalia Dispatch Service Inc.","Texarkana",AR,US,870-397-2165,http://www.vidaliadispatch.com/,"height_pole, route_survey, multiple_cars, steering","",""
"Frog Truck Escort","Texarkana",AR,US,318-469-3748,http://www.louisianafrog.com/,"height_pole, route_survey, multiple_cars, steering","Shreveport, Vicksburg, Idabel, Waskom","LA, MS, OK, TX"
"Cars, 4 Steering 5","Texarkana",AR,US,318-432-4270,,"WITPAC","Shreveport","LA"
"Permits * Bucket Trucks * Route Surveys * Steerman","Texarkana",AR,US,,https://www.c2cescorts.com/,"","",""
"Arkansas","Texarkana",AR,US,,,"","",""
"Florida","Texarkana",AR,US,,,"","",""
"Iowa","Texarkana",AR,US,,,"","",""
"Maryland","Texarkana",AR,US,,,"","",""
"Missouri","Texarkana",AR,US,,,"","",""
"New Jersey","Texarkana",AR,US,,,"","",""
"Ohio","Texarkana",AR,US,,,"","",""
"South Carolina","Texarkana",AR,US,,,"","",""
"Vermont","Texarkana",AR,US,,,"","",""
"Wyoming","Texarkana",AR,US,,,"","",""
"Lead/ Chase/ Height Pole/ Steering","Wa & Ny Cert. / Tx Flagging Cert.",CA,US,,,"","",""
"Related To Your Account (2/Mo. Max).","Pilot Cars",CA,US,,,"","",""
"Long Beach * Pirch Pilot Car Services * 951-442-4476","(La,Ms,Ar Only)",CA,US,,,"","",""
"Height Pole * 10 Vehicles * Steering","Specialization: Loads Into & Out Of California",CA,US,,,"","",""
"Blacksheep Pilot Cars | 775-560-5896","We’Ll Get You Where You’Re Going!!!!!!",CA,US,,,"","",""
"Reno, Nv | Dts Pilot Car Service | 775-842-2633 | Truckee, Ca","We’Ll Get You Where You’Re Going!!!!!!",CA,US,,,"","",""
"Steerman, Height Pole, Route Survey, Lead, Chase, Twic","We’Ll Get You Where You’Re Going!!!!!!",CA,US,,,"","",""
"Fully Insured/Certified * Height Pole * Route Survey","Specialization: Loads Into & Out Of California",CA,US,,,"","",""
"Anytime Pilot Car Service","Long Beach, Ca",CA,US,,http://anytimepilotcarservice.net/,"height_pole, multiple_cars","",""
"T Bar M Inc.. (Pilot Car Div.)","Ontario, Or",CA,US,,,"height_pole, route_survey, multiple_cars","",""
"Pirch Pilot Car Services","Sacramento, Ca",CA,US,,,"height_pole, multiple_cars, steering","",""
"Marwan’S Pilot Car Svc. 1234","Long Beach, Ca",CA,US,,,"","",""
"503 970 5821 / 503 819 3481","Portland / Salem, Or",CA,US,,,"","",""
"Rochelle’S Pc","Bellingham, Wa",CA,US,,,"height_pole, route_survey","",""
"Panther Pilot Car","Yuma, Az",CA,US,,https://www.facebook.com/profile.php?id=100090369883495,"height_pole, route_survey, steering","",""
"Lighthouse Pilot Car","Sacramento, Ca / Reno, Nv",CA,US,,,"height_pole, multiple_cars","",""
"American Pilot Car Service","Bakersfield, Ca",CA,US,,,"multiple_cars","",""
"661-472-9100/661-747-9255","Bakersfield, Ca",CA,US,,,"","",""
"Familia Hernandez Pilot Service LLC","Madera, Ca",CA,US,,https://sites.google.com/view/fpilotservice/home,"height_pole","",""
"Panther Pilot Car | 916-459-7079 | Sacramento, Ca Based","Stockton, Ca",CA,US,,,"","",""
"Rm Pilot Car","Apple Valley",CA,US,760-490-4034,,"height_pole, route_survey, steering","",""
"Rds Pilot Cars","Bakersfield",CA,US,661-578-8041,,"height_pole","Port Hueneme",""
"Lighthouse Pilot Car","Bakersfield",CA,US,760-223-2397,,"height_pole, multiple_cars","",""
"American Pilot Car Service","Bakersfield",CA,US,661-472-9100,,"multiple_cars","",""
"North American Transport Svc.","Barstow",CA,US,217-860-2201,http://na-pcs.com/,"height_pole, route_survey, steering, multiple_cars","Jackson, Avoca, Davenport, Hamburg, Newton, Sioux City, Kansas City, Frankfort, Louisville, Portland, Baltimore, Springfield, Coldwater, Port Huron, Albert Lee, Minneapolis, Vicksburg, Joplin, Rockport, St. Joseph, St. Louis, Nashua, Statewide, Las Cruces, Nyc, Charlotte, Fargo, Oklahoma City, Tulsa, Philadelphia, Yankton, Chattanooga, Hartford, Amarillo, Gainesville, Houston, Orange, Texarkana, Brattleboro, Lynchburg, Gillette","FL, IA, KS, KY, ME, MD, MA, MI, MN, MS, MO, NH, NJ, NM, NY, NC, ND, OK, PA, SD, TN, TX, VT, VA, WY"
"R & F Pilot Service","Barstow",CA,US,760-616-1312,,"height_pole, multiple_cars","",""
"Pirch Pilot Car Services","Long Beach",CA,US,951-442-4476,,"height_pole, multiple_cars, steering","",""
"R & F Pilot Car Service","Long Beach",CA,US,760-616-1312,,"height_pole, multiple_cars","",""
"855-4-Pilotcar","American Pilot Service, Inc.",CA,US,,,"","",""
"Panther Pilot Car","Sacramento",CA,US,916-459-7079,https://www.facebook.com/profile.php?id=100090369883495,"height_pole, route_survey, steering","Reno","NV"
"Marwan’S Pilot Car Svc. 1020304","Sacramento",CA,US,916-856-4960,,"","",""
"Familia Hernandez Pilot Service LLC","Stockton",CA,US,209-901-6130,https://sites.google.com/view/fpilotservice/home,"height_pole","",""
"Superior Modular Transport","Stockton",CA,US,209-871-7683,http://smtinc.org/,"height_pole","",""
"Cars, 4 Steering","Weed",CA,US,,,"","",""
"Serving California & The Western Us * Height Pole * Route Surveys","“Your Loads Are Safe & Sound With Us!”",CA,US,,,"","",""
"Alabama","“Your Loads Are Safe & Sound With Us!”",CA,US,,,"","",""
"Colorado","“Your Loads Are Safe & Sound With Us!”",CA,US,,,"","",""
"Idaho","“Your Loads Are Safe & Sound With Us!”",CA,US,,,"","",""
"Kentucky","“Your Loads Are Safe & Sound With Us!”",CA,US,,,"","",""
"Michigan","“Your Loads Are Safe & Sound With Us!”",CA,US,,,"","",""
"Nebraska","“Your Loads Are Safe & Sound With Us!”",CA,US,,,"","",""
"New York","“Your Loads Are Safe & Sound With Us!”",CA,US,,,"","",""
"Oregon","“Your Loads Are Safe & Sound With Us!”",CA,US,,,"","",""
"Tennessee","“Your Loads Are Safe & Sound With Us!”",CA,US,,,"","",""
"Washington","“Your Loads Are Safe & Sound With Us!”",CA,US,,,"","",""
"Lead/ Chase/ Height Pole/ Steering","Wa & Ny Cert. / Tx Flagging Cert.",CO,US,,,"","",""
"Related To Your Account (2/Mo. Max).","Pilot Cars",CO,US,,,"","",""
"307-277-5895 / 801-870-6382","Casper, Wy",CO,US,,,"","",""
"Surefire Pilot, LLC","Cripple Creek / Victor, Co",CO,US,,,"height_pole","",""
"Colorado Transport","Peoria, Az",CO,US,,,"height_pole, route_survey","",""
"T6 Pilot Car Services","Pueblo, Co",CO,US,,,"height_pole, route_survey, multiple_cars","",""
"307-920-2023/307-371-2747","Greeley, Co / Cheyenne, Wy",CO,US,,,"","",""
"Hunter&#39;S Pilot Car LLC","Cheyenne, Wy",CO,US,,http://hunterspilotcar.com/,"","",""
"D&E Brothers LLC 1 2 4 Permits /Wipac/Twic","Odessa, Tx",CO,US,,,"","",""
"307-371-7157/ 432-305-7528","Rock Springs, Wy",CO,US,,,"","",""
"Two Pistols Pilot/Escort Services","Aurora, Co",CO,US,,,"height_pole, multiple_cars","",""
"A-1 Pilot Car Inc. 1 2 3 5","Cheyenne, Wy",CO,US,,,"","",""
"C & H Pilot Transport, LLC 1 2 4","Limon, Co",CO,US,,,"WITPAC","",""
"Mountain Valley Pilot Car LLC","Norfolk, Ne",CO,US,,,"height_pole, route_survey, multiple_cars","",""
"Becky&#39;S Pilot Car, LLC","Canon City, Co",CO,US,,,"height_pole, multiple_cars","",""
"Gc Pilot Car Supply, LLC","Canon City, Co",CO,US,,,"height_pole, route_survey, multiple_cars, steering","",""
"620-272-4563 | 520-395-7739","Nationide",CO,US,,,"","",""
"Ps Piloting 1 2","Brighton / Fort Collins, Co",CO,US,,,"WITPAC","",""
"(397)970-6965","Greeley, Co / Cheyenne, Wy",CO,US,,,"","",""
"970-274-1337 | 970-948-4276 | Denver- 303-667-7007","Rifle, Co | Two Pistols Pilot Escort Services",CO,US,,,"","",""
"970-456-2169 | Call For A Bid!","Rifle, Co |Twin Guns Transportation & Heavy Haul",CO,US,,,"","",""
"Odessa, Tx | Hunter&#39;S Pilot Car LLC | 432-924-2289","Rifle, Co |Twin Guns Transportation & Heavy Haul",CO,US,,,"","",""
"Burns/Cheyenne, Wy| East West Pilot Car Service, LLC","Rifle, Co |Twin Guns Transportation & Heavy Haul",CO,US,307-477-7771,,"","",""
"40 Yrs Experience In Transportation / Certified*Insured","Rifle, Co |Twin Guns Transportation & Heavy Haul",CO,US,,,"","",""
"307-371-7157 | 432-305-7528","Rock Springs, Wy | D&E Brothers LLC",CO,US,,,"","",""
"Big Dog Services, Inc.","Brighton",CO,US,720-810-6155,http://bigdogservices.us/,"height_pole, route_survey","Fort Collins",""
"Becky&#39;S Pilot Car, LLC","Buena Vista",CO,US,,,"height_pole, multiple_cars","",""
"Mountain Valley Pilot Car LLC","Canon City",CO,US,719-371-5700,,"height_pole, route_survey, multiple_cars","Cripple Creek, Garden City, Vernal, Cheyenne","KS, UT, WY"
"Becky&#39;S Pilot Car, LLC","Canon City",CO,US,,,"height_pole, multiple_cars","",""
"Freedom Pilot Car Services","Cheyenne, Wy",CO,US,307-757-5877,http://freedompilotcars.com/,"height_pole, route_survey, multiple_cars, steering","Garden City, North Platte, Oklahoma City, Houston Area, Salt Lake City, Cheyenne","KS, NE, OK, TX, UT, WY"
"Tumbleweed Pilot Cars 1 /$50 Off 1st Service","Colorado Springs",CO,US,973-670-3230,,"","",""
"Aaa Mountain Pilot Car Service","Cortez",CO,US,970-759-6678,,"height_pole","",""
"D & E Brother’S LLC (Permitting) 1 3 4 5","Denver",CO,US,307-371-7157,,"","Salt Lake City","UT"
"Big T&#39;S Pilot Service","Denver",CO,US,720-425-1035,,"","",""
"Ornery’S Pilot Car","Denver Metro",CO,US,303-517-8881,https://ornerys-pilot-car.business.site/,"height_pole, route_survey, multiple_cars","",""
"Colorado Transport","Fort Morgan",CO,US,308-249-4899,,"height_pole, route_survey","",""
"Joni’S Pilot Car Svc., LLC","Grand Junction",CO,US,970-250-6442,,"height_pole, route_survey","",""
"T6 Pilot Car Services","Greeley",CO,US,307-920-2023,,"height_pole, route_survey, multiple_cars","Cheyenne","WY"
"Ps Piloting 1 2","Greeley / Cheyenne",CO,US,,,"WITPAC","",""
"A-1 Pilot Car Inc. 1 2 3 5","Limon",CO,US,719-330-6080,,"","",""
"Two Pistols Pilot/Escort Svc","Rifle",CO,US,970-274-1337,http://www.pilotescortservices.com/,"height_pole, multiple_cars","",""
"Harmony Truckin’, LLC","Rifle",CO,US,970-274-9775,,"height_pole, multiple_cars","",""
"Becky&#39;S Pilot Car, LLC","Salida",CO,US,,,"height_pole, multiple_cars","",""
"Halo Pilot Car","Wheat Ridge",CO,US,303-550-9997,,"route_survey","",""
"Services Rendered: 1 Height Pole, 2 Route Survey, 3 Multiple Cars, 4 Steering","Wheat Ridge",CO,US,,,"","",""
"Odessa, Tx | Hunter&#39;S Pilot Car LLC | 432-924-2289","Wheat Ridge",CO,US,,,"","",""
"Burns/Cheyenne, Wy| 307-477-7771","East West Pilot Car Service, LLC",CO,US,,,"","",""
"Arkansas","Rock Springs, Wy | D&E Brothers LLC",CO,US,,,"","",""
"Florida","Rock Springs, Wy | D&E Brothers LLC",CO,US,,,"","",""
"Iowa","Rock Springs, Wy | D&E Brothers LLC",CO,US,,,"","",""
"Maryland","Rock Springs, Wy | D&E Brothers LLC",CO,US,,,"","",""
"Missouri","Rock Springs, Wy | D&E Brothers LLC",CO,US,,,"","",""
"New Jersey","Rock Springs, Wy | D&E Brothers LLC",CO,US,,,"","",""
"Ohio","Rock Springs, Wy | D&E Brothers LLC",CO,US,,,"","",""
"South Carolina","Rock Springs, Wy | D&E Brothers LLC",CO,US,,,"","",""
"Vermont","Rock Springs, Wy | D&E Brothers LLC",CO,US,,,"","",""
"Wyoming","Rock Springs, Wy | D&E Brothers LLC",CO,US,,,"","",""
"Lead/ Chase/ Height Pole/ Steering","Wa & Ny Cert. / Tx Flagging Cert.",CT,US,,,"","",""
"Url: Http://Www.Newyorktruckescorts.Com","(La,Ms,Ar Only)",CT,US,,http://www.newyorktruckescorts.com/,"","",""
"Ny Nj Routing & Pilot Cars | 918-886-0992","(La,Ms,Ar Only)",CT,US,,,"","",""
"Patriot Certified Pilot Cars, LLC","Nyc / Long Island, Ny",CT,US,203-994-2620,http://patriotcertifiedpilotcars.com/,"height_pole, route_survey","",""
"Cars, 4 Steering","Nyc / Long Island, Ny",CT,US,,,"","",""
"Stanley Eyre Pilot Car Service","Washington",CT,US,203-217-6725,,"height_pole","",""
"24/7 Nationwide Service","Mile Makers Pilot Car Services",CT,US,,,"","",""
"Arizona","Mile Makers Pilot Car Services",CT,US,,,"","",""
"Delaware","Mile Makers Pilot Car Services",CT,US,,,"","",""
"Indiana","Mile Makers Pilot Car Services",CT,US,,,"","",""
"Maine","Mile Makers Pilot Car Services",CT,US,,,"","",""
"Mississippi","Mile Makers Pilot Car Services",CT,US,,,"","",""
"New Hampshire","Mile Makers Pilot Car Services",CT,US,,,"","",""
"North Dakota","Mile Makers Pilot Car Services",CT,US,,,"","",""
"Rhode Island","Mile Makers Pilot Car Services",CT,US,,,"","",""
"Utah","Mile Makers Pilot Car Services",CT,US,,,"","",""
"Wisconsin","Mile Makers Pilot Car Services",CT,US,,,"","",""
"Lead/ Chase/ Height Pole/ Steering","Wa & Ny Cert. / Tx Flagging Cert.",DE,US,,,"","",""
"Related To Your Account (2/Mo. Max).","Pilot Cars",DE,US,,,"","",""
"Mid-Atlantic Region - 202-826-0186 / 240-858-2730","Tag & Title At Hilltop, P.E.V.O.",DE,US,,,"","",""
"216-30pilot","Malvern, Oh",DE,US,,,"","",""
"717-420-0218/609-468-5633","Trenton, Nj",DE,US,,,"","",""
"202-826-0186 / 240-858-2730","Newark, De",DE,US,,,"","",""
"Tag & Title At Hilltop, P.E.V.O.","Newark",DE,US,202-826-0186,,"height_pole, route_survey, multiple_cars","Baltimore, Alexandria","MD, NJ, VA"
"Cars , 4 Steering 5","Statewide",DE,US,,,"WITPAC","",""
"Alaska","Statewide",DE,US,,,"","",""
"Connecticut","Statewide",DE,US,,,"","",""
"Illinois","Statewide",DE,US,,,"","",""
"Louisiana","Statewide",DE,US,,,"","",""
"Minnesota","Statewide",DE,US,,,"","",""
"Nevada","Statewide",DE,US,,,"","",""
"North Carolina","Statewide",DE,US,,,"","",""
"Pennsylvania","Statewide",DE,US,,,"","",""
"Texas","Statewide",DE,US,,,"","",""
"West Virginia","Statewide",DE,US,,,"","",""
"Lead/ Chase/ Height Pole/ Steering","Wa & Ny Cert. / Tx Flagging Cert.",FL,US,,,"","",""
"Pilot Cars Drivers And Truckers!","(La,Ms,Ar Only)",FL,US,,https://www.riskmanagersinc.com/,"","",""
"Insurance","Managers",FL,US,,https://www.riskmanagersinc.com/,"","",""
"Jacksonville, Fl | (904)699-0435 | Pensacola, Fl","Dale Dealing Pilot Escort Service",FL,US,,,"","",""
"Lead * Chase* Steer* Height Pole*","Alachua, Fl | Amber Pilot Cars",FL,US,,,"WITPAC","",""
"(844) 4 Pitrow (474-8769)","Lincoln / Mobile, Al",FL,US,,,"","",""
"Bruno&#39;S Pilot Car Escort Svc. LLC","Birmingham, Al",FL,US,,https://www.facebook.com/Brunos-Pilot-Car-Escort-Service-LLC-300696563939489/?__tn__=%2Cd%2CP-R&eid=ARBOUspV1aqsQy9y8Y7wVafrp0RRQ3-pHqV9xI9EuSvlkkMP0xAjsgduHXghR8E7WNzIgYXv8oo6exZf,"","",""
"Amber Pilot Cars 1 4","Houston, Tx",FL,US,,,"WITPAC","",""
"Dale Dealing Pilot Escort Svc.","Alachua, Fl",FL,US,,,"height_pole, route_survey, multiple_cars, steering","",""
"(904)699-0435","Jacksonville / Pensacola",FL,US,,,"","",""
"Spartan Pilot Car Svc. 1 2 3 4 Twic/","Mobile, Al",FL,US,,,"WITPAC","",""
"Tcb Escorts LLC","Memphis, Tn",FL,US,,,"multiple_cars, height_pole, steering","",""
"Cars, 4 Steering","Seminary, Ms",FL,US,,,"","",""
"Amber Pilot Cars 1 4","Alachua",FL,US,919-809-2313,,"WITPAC","",""
"John Landry Pilot Car Service","Fort Myers",FL,US,239-980-4336,,"height_pole","",""
"Tim’S Pilot Car 1 2 4","Jacksonville",FL,US,217-799-1366,,"WINPAC","",""
"Dale Dealing Pilot Escort Svc.","Pensacola",FL,US,904-699-0435,,"height_pole, route_survey, multiple_cars, steering","",""
"Bruno&#39;S Pilot Car Escort Service LLC","Green Cove Springs",FL,US,904-607-3646,https://www.facebook.com/Brunos-Pilot-Car-Escort-Service-LLC-300696563939489/?__tn__=%2Cd%2CP-R&eid=ARBOUspV1aqsQy9y8Y7wVafrp0RRQ3-pHqV9xI9EuSvlkkMP0xAjsgduHXghR8E7WNzIgYXv8oo6exZf,"","",""
"Goliath Transport","Jensen Beach",FL,US,678-936-8387,,"height_pole, route_survey","",""
"Pha Tazz Pilot Service","Mayo",FL,US,386-688-4429,,"height_pole, multiple_cars","",""
"A One Pilot","Miami",FL,US,786-350-9064,,"height_pole","",""
"Exclusive Pilot Escort, Inc.. 1 2","Miami",FL,US,305-244-6129,,"","",""
"I&#39;M With Him LLC","Orlando",FL,US,407-760-6574,http://floridapilotcar.net/,"height_pole, multiple_cars","Sanford",""
"Fl / Al Line @ I-10","Pensacola",FL,US,850-485-4080,,"","",""
"Cars, 4 Steering","Prather Pilot Escort Service",FL,US,,,"","",""
"24/7 Nationwide Service","Mile Makers Pilot Car Services",FL,US,,,"","",""
"Arizona","Mile Makers Pilot Car Services",FL,US,,,"","",""
"Delaware","Mile Makers Pilot Car Services",FL,US,,,"","",""
"Indiana","Mile Makers Pilot Car Services",FL,US,,,"","",""
"Maine","Mile Makers Pilot Car Services",FL,US,,,"","",""
"Mississippi","Mile Makers Pilot Car Services",FL,US,,,"","",""
"New Hampshire","Mile Makers Pilot Car Services",FL,US,,,"","",""
"North Dakota","Mile Makers Pilot Car Services",FL,US,,,"","",""
"Rhode Island","Mile Makers Pilot Car Services",FL,US,,,"","",""
"Utah","Mile Makers Pilot Car Services",FL,US,,,"","",""
"Wisconsin","Mile Makers Pilot Car Services",FL,US,,,"","",""
"Lead/ Chase/ Height Pole/ Steering","Wa & Ny Cert. / Tx Flagging Cert.",GA,US,,,"","",""
"Related To Your Account (2/Mo. Max).","Pilot Cars",GA,US,,,"","",""
"205-299-0326 | Pratt’S Pilots | Birmingham, Al","(La,Ms,Ar Only)",GA,US,,,"","",""
"A&J’S Escort / Flag Car Svc, Inc.. 1 2 3 Cevo","Atlanta / Conyers",GA,US,803-604-1220,,"","",""
"Cars, 4 Steering","Valdosta",GA,US,,,"","",""
"Alabama","Valdosta",GA,US,,,"","",""
"Colorado","Valdosta",GA,US,,,"","",""
"Idaho","Valdosta",GA,US,,,"","",""
"Kentucky","Valdosta",GA,US,,,"","",""
"Michigan","Valdosta",GA,US,,,"","",""
"Nebraska","Valdosta",GA,US,,,"","",""
"New York","Valdosta",GA,US,,,"","",""
"Oregon","Valdosta",GA,US,,,"","",""
"Tennessee","Valdosta",GA,US,,,"","",""
"Washington","Valdosta",GA,US,,,"","",""
"Lead/ Chase/ Height Pole/ Steering","Wa & Ny Cert. / Tx Flagging Cert.",ID,US,,,"","",""
"Related To Your Account (2/Mo. Max).","Pilot Cars",ID,US,,,"","",""
"Billings, Mt | Big Sky Pilots | 406-697-5909","(La,Ms,Ar Only)",ID,US,,,"","",""
"307-371-7157 | 432-305-7528","Rock Springs, Wy | D&E Brothers LLC",ID,US,,,"","",""
"Choice Pilot Cars","Boise",ID,US,208-209-2372,,"height_pole, multiple_cars","Twin Falls, Missoula","MT"
"Big D&#39;S Pilot Service","Burley",ID,US,208-260-0776,,"height_pole, multiple_cars","",""
"Coeur D&#39;Alene","Burley",ID,US,503-282-2902,,"","",""
"Coeur D&#39;Alene","Burley",ID,US,,,"","",""
"Coeur D&#39;Alene","Best Choice Inc..",ID,US,217-860-2201,,"","",""
"C-208-504-9050","Magic Valley Piloting",ID,US,,,"","",""
"Rk Pilot Services","Post Falls",ID,US,208-777-8950,,"height_pole, route_survey, multiple_cars","Missoula, Umatilla, Seattle, Spokane","MT, OR, WA"
"Cars, 4 Steering","Twin Falls",ID,US,,,"","",""
"Arkansas","Rock Springs, Wy | D&E Brothers LLC",ID,US,,,"","",""
"Florida","Rock Springs, Wy | D&E Brothers LLC",ID,US,,,"","",""
"Iowa","Rock Springs, Wy | D&E Brothers LLC",ID,US,,,"","",""
"Maryland","Rock Springs, Wy | D&E Brothers LLC",ID,US,,,"","",""
"Missouri","Rock Springs, Wy | D&E Brothers LLC",ID,US,,,"","",""
"New Jersey","Rock Springs, Wy | D&E Brothers LLC",ID,US,,,"","",""
"Ohio","Rock Springs, Wy | D&E Brothers LLC",ID,US,,,"","",""
"South Carolina","Rock Springs, Wy | D&E Brothers LLC",ID,US,,,"","",""
"Vermont","Rock Springs, Wy | D&E Brothers LLC",ID,US,,,"","",""
"Wyoming","Rock Springs, Wy | D&E Brothers LLC",ID,US,,,"","",""
"Lead/ Chase/ Height Pole/ Steering","Wa & Ny Cert. / Tx Flagging Cert.",IL,US,,,"","",""
"Whispering Hills Pilot Cars LLC | 402-690-2100| Fax 712-486-2327","(La,Ms,Ar Only)",IL,US,,,"","",""
"Nationwide, Fast, Reliable, On-Time | 100 Yrs Combined Experience!","(La,Ms,Ar Only)",IL,US,,,"","",""
"815-474-0171 | 815-530-4936","Shotgun Pilot Car Services, Inc.",IL,US,,,"","",""
"Shotgun Pilot Car Services, Inc.","Menominee, Mi",IL,US,,,"height_pole, multiple_cars","",""
"815-474-0171|815-530-4936","Claremore, Ok",IL,US,,,"","",""
"Glen’S Movin’ On Pilot Cars, LLC","Fort Wayne / Fremont / Gary / Indy, In",IL,US,,,"height_pole, route_survey, multiple_cars","",""
"Papaw&#39;S Pilot Service","Warsaw, Mo",IL,US,308-529-8800,,"steering, height_pole, route_survey","Indianapolis, Bowling Green, Ky, Cincinnati","IN, KY, OH"
"C & H Pilot Transport, LLC 1 2 4","Warsaw, Mo",IL,US,,,"WITPAC","",""
"D & K Pilot Cars","Rockwood, Mi",IL,US,,,"height_pole, multiple_cars","",""
"Spartan Pilot Car Services 1 2 3 4 Twic/","Holland, Mi",IL,US,,,"WITPAC","",""
"Cars, 4 Steering, 5","Memphis, Tn",IL,US,,,"WITPAC","",""
"Express Pilot Service LLC","Belvidere",IL,US,847-489-4099,,"height_pole","",""
"Truvalor Escort Services LLC","Canton",IL,US,,,"height_pole, multiple_cars","",""
"Cars, 4 Steering, 5","Springfield",IL,US,,,"WITPAC","",""
"California","Springfield",IL,US,,,"","",""
"Georgia","Springfield",IL,US,,,"","",""
"Kansas","Springfield",IL,US,,,"","",""
"Massachusetts","Springfield",IL,US,,,"","",""
"Montana","Springfield",IL,US,,,"","",""
"New Mexico","Springfield",IL,US,,,"","",""
"Oklahoma","Springfield",IL,US,,,"","",""
"South Dakota","Springfield",IL,US,,,"","",""
"Virginia","Springfield",IL,US,,,"","",""
"Lead/ Chase/ Height Pole/ Steering","Wa & Ny Cert. / Tx Flagging Cert.",IN,US,,,"","",""
"Related To Your Account (2/Mo. Max).","Pilot Cars",IN,US,,,"","",""
"Whispering Hills Pilot Cars LLC | 402-690-2100| Fax 712-486-2327","(La,Ms,Ar Only)",IN,US,,,"","",""
"Glen’S Movin’ On Pc LLC | 660-281-6307 |24/7/365","(La,Ms,Ar Only)",IN,US,,,"","",""
"Priority 1 Flagcar Service","Lead & Chase * Multiple Cars",IN,US,,,"","",""
"M.R. Pilot Car, LLC. 3 (Formerly Johnny’S Pc)","Coldwater, Mi",IN,US,,,"","",""
"Glen’S Movin’ On Pilot Cars, LLC","Fort Wayne / Fremont / Gary, In",IN,US,,,"height_pole, route_survey, multiple_cars","",""
"Dark Horse Pilot Car Services","Warsaw, Mo",IN,US,,,"height_pole, steering","",""
"(386)225-1731","Fort Wayne, In",IN,US,,,"","",""
"Grady&#39;S Pilot Service","Southfield, Mi",IN,US,,,"","",""
"Best Transport Escort","Sheridan, In",IN,US,,,"multiple_cars","",""
"Papaw&#39;S Pilot Service","Indianapolis",IN,US,,,"height_pole, route_survey, steering","",""
"D & K Pilot Cars","Rockwood, Mi",IN,US,,,"height_pole, multiple_cars","",""
"Oversize Matters","Anderson, In",IN,US,,,"route_survey, multiple_cars","",""
"Glen’S Movin’ On Pc LLC | 660-281-6307 | 24/7/ 365","Indianapolis, In",IN,US,,,"","",""
"M.R. Pilot Car, LLC. 3 (Formerly Johnny’S Pc)","Butler",IN,US,574-835-8743,,"","Columbia City, Dryer, Fort Wayne, Fremont, Gary, Indianapolis, South Bend",""
"B-Tnt Pilot Car Service LLC","Crawfordsville",IN,US,765-230-6551,,"multiple_cars","",""
"Cincy Pilot Cars","Fort Wayne",IN,US,513-814-0576,,"height_pole, route_survey, multiple_cars","",""
"Dark Horse Pilot Car Services","Fort Wayne",IN,US,,,"height_pole, steering","",""
"J.R.&#39;S P/Ev Svc","Fort Wayne",IN,US,260-444-7633,,"","",""
"Windy City Safety Escort 1 (Adv Notice Only)","Hammond",IN,US,219-671-3208,,"multiple_cars","",""
"Best Transport Escort","Indianapolis",IN,US,317-694-4444,,"multiple_cars","",""
"Grady&#39;S Pilot Service LLC","Indianapolis",IN,US,317-371-4228,,"multiple_cars","",""
"Oversize Matters","Indianapolis",IN,US,765-389-3168,,"route_survey, multiple_cars","",""
"Shorty&#39;S Flag Car E. Of Ms River/2 (In Only)","South Whitley",IN,US,260-402-8359,,"","",""
"Cars, 4 Steering","Terre Haute",IN,US,,,"","",""
"California","Terre Haute",IN,US,,,"","",""
"Georgia","Terre Haute",IN,US,,,"","",""
"Kansas","Terre Haute",IN,US,,,"","",""
"Massachusetts","Terre Haute",IN,US,,,"","",""
"Montana","Terre Haute",IN,US,,,"","",""
"New Mexico","Terre Haute",IN,US,,,"","",""
"Oklahoma","Terre Haute",IN,US,,,"","",""
"South Dakota","Terre Haute",IN,US,,,"","",""
"Virginia","Terre Haute",IN,US,,,"","",""
"Lead/ Chase/ Height Pole/ Steering","Wa & Ny Cert. / Tx Flagging Cert.",IA,US,,,"","",""
"Glen’S Movin’ On Pc LLC | 660-281-6307 | 24/7/ 365","Www",IA,US,,,"","",""
"C B Piloting Services, LLC | 479-670-2176","Www",IA,US,,,"","",""
"Lead/Chase/Height Pole","Serving Chester & Alma, Ne / Yankton, Sd",IA,US,,,"","",""
"Wa Cert. * Pro. Liability * Height Pole * Route Survey * Multiple Cars","Murray, Ne |Towering Oak Pilot Cars",IA,US,,,"","",""
"Glen’S Movin’ On Pilot Cars, LLC","Greater Kansas City Area",IA,US,,,"height_pole, route_survey, multiple_cars","",""
"Rydell Pilot Cars","Warsaw, Mo",IA,US,,,"height_pole, multiple_cars","",""
"Hot & Cold Pilot Service","Wahpeton, Nd / St. Paul, Mn / Council Bluffs, Ia",IA,US,,,"height_pole","",""
"Dj&#39;S Pilot Cars, LLC","Council Bluffs, Ia",IA,US,,,"multiple_cars","",""
"Dark Horse Pilot Car Services","Kansas City, Ks",IA,US,,,"height_pole, steering","",""
"(386)225-1731","Fort Wayne, In",IA,US,,,"","",""
"Tammy Bzzz’S Pilot Car Service","Norfolk, Ne",IA,US,,,"multiple_cars","",""
"Mid-America Pilot Cars","York, Ne",IA,US,,,"route_survey, multiple_cars","",""
"Towering Oak Pilot Cars","Grand Island, Ne",IA,US,,,"height_pole, route_survey, multiple_cars","",""
"Cars, 4 Steering","Murray, Ne",IA,US,,,"","",""
"A Patel Pilot Car Company","Avoca",IA,US,785-206-0065,http://www.patelpilotcar.com/,"height_pole, route_survey, multiple_cars, steering","Davenport, Hamburg, Lamoni, Lineville, Newton, Arkansas City, Belleville, Coffeyville, Liberal, Marysville, Sabetha, South Haven, Topeka, Wichita, Eagleville, Kansas City, Rock Port, St. Joseph, St. Louis, Beatrice, Bellevue, Hebron, Lincoln, Nebraska City, Davidson, Erick, Guymon, Ponca City, Terral, Dallas, Denison, Gainesville, Houston, Orange, Texarkana","KS, MO, NE, OK, TX"
"Rydell Pilot Cars","Council Bluffs",IA,US,701-899-0173,,"height_pole, multiple_cars","",""
"Iowa Pilot Cars","Dubuque",IA,US,563-543-6188,,"height_pole, multiple_cars","",""
"L & L Pilot Car","Wadena",IA,US,563-380-5958,,"height_pole","",""
"Cars, 4 Steering","Wadena",IA,US,,,"","",""
"California","Murray, Ne |Towering Oak Pilot Cars",IA,US,,,"","",""
"Georgia","Murray, Ne |Towering Oak Pilot Cars",IA,US,,,"","",""
"Kansas","Murray, Ne |Towering Oak Pilot Cars",IA,US,,,"","",""
"Massachusetts","Murray, Ne |Towering Oak Pilot Cars",IA,US,,,"","",""
"Montana","Murray, Ne |Towering Oak Pilot Cars",IA,US,,,"","",""
"New Mexico","Murray, Ne |Towering Oak Pilot Cars",IA,US,,,"","",""
"Oklahoma","Murray, Ne |Towering Oak Pilot Cars",IA,US,,,"","",""
"South Dakota","Murray, Ne |Towering Oak Pilot Cars",IA,US,,,"","",""
"Virginia","Murray, Ne |Towering Oak Pilot Cars",IA,US,,,"","",""
"Lead/ Chase/ Height Pole/ Steering","Wa & Ny Cert. / Tx Flagging Cert.",KS,US,,,"","",""
"Whispering Hills Pilot Cars LLC | 402-690-2100|F- 712-486-2327","(La,Ms,Ar Only)",KS,US,,,"","",""
"Garden City, Ks | Midwest Pilot Cars | 605-670-9654","(La,Ms,Ar Only)",KS,US,,,"","",""
"Hot & Cold Pilot Service | 402-366-0730","Flagging / Lead / Chase / Hi Pole / Steering",KS,US,,,"","",""
"Cheyenne | Frontier Pilot Services, LLC | 307-632-6409","Lead / Chase",KS,US,,,"","",""
"Nationwide | Gc Pilot Car Supply, LLC","Lead / Chase",KS,US,,,"","",""
"I80/81, Chester, Omaha, Yankton S.D., Sabatha, Ks Areas","Lead / Chase",KS,US,,,"","",""
"Wa Cert. * Pro. Liability * Height Pole * Route Survey * Multiple Cars","Murray, Ne |Towering Oak Pilot Cars",KS,US,,,"","",""
"Dj&#39;S Pilot Cars, LLC","Aurora, Co",KS,US,,,"multiple_cars","",""
"Surefire Pilot, LLC","Rifle, Co",KS,US,,,"height_pole","",""
"Principles Pilot Car","Wichita, Ks",KS,US,,,"height_pole","",""
"Mountain Valley Pilot Car LLC","Chester, Ne / Yankton, Sd",KS,US,,,"height_pole, route_survey, multiple_cars","",""
"Hunter&#39;S Pilot Car LLC","Canon City, Co",KS,US,,http://hunterspilotcar.com/,"","",""
"Big Dog Services, Inc.","Odessa, Tx",KS,US,,http://bigdogservices.us/,"height_pole, route_survey","",""
"Lane 3 Pilot Car 1 3 //Twic/Ny Cert./Cevo","Brighton / Fort Collins, Co",KS,US,,,"WITPAC","",""
"Towering Oak Pilot Cars","Johnson City, Tn",KS,US,,,"height_pole, route_survey, multiple_cars","",""
"Cb Piloting Services, LLC","Murray, Ne",KS,US,,,"height_pole, route_survey, multiple_cars, steering","",""
"Glen’S Movin’ On Pilot Cars, LLC","Springfield, Mo",KS,US,,,"height_pole, route_survey, multiple_cars","",""
"Dark Horse Pilot Car Services","Warsaw, Mo",KS,US,,,"height_pole, steering","",""
"(386)225-1731","Fort Wayne, In",KS,US,,,"","",""
"T6 Pilot Car Services","Fort Morgan, Co",KS,US,,,"height_pole, route_survey, multiple_cars","",""
"307-920-2023/307-371-2747","Greeley, Co / Cheyenne, Wy",KS,US,,,"","",""
"C & H Pilot Transport, LLC 1 2 4","Cheyenne, Wy",KS,US,,,"WITPAC","",""
"Rydell Pilot Cars","Norfolk, Ne",KS,US,,,"height_pole, multiple_cars","",""
"Gc Pilot Car Supply, LLC","Wahpeton, Nd / St. Paul, Mn / Council Bluffs, Ia",KS,US,,,"height_pole, route_survey, multiple_cars, steering","",""
"620-272-4563 | 520-395-7739","Nationide",KS,US,,,"","",""
"Mid-America Pilot Cars","Salina, Ks",KS,US,,,"route_survey, multiple_cars","",""
"Patriot Pilot Car Service Access To:","Kansas City, Ks",KS,US,,,"height_pole, multiple_cars","",""
"Ps Piloting 1 2","Blue Springs, Mo",KS,US,,,"WITPAC","",""
"(397)970-6965","Greeley, Co / Cheyenne, Wy",KS,US,,,"","",""
"Tammy Bzzz’S Pilot Car Service","Belleville",KS,US,402-366-2028,,"height_pole, route_survey, multiple_cars","Salina, Topeka, Rock Port, York, Pickstown, Wewela","MO, NE, SD"
"Gc Pilot Car Supply, LLC","Garden City",KS,US,,,"height_pole, route_survey, multiple_cars, steering","",""
"Dj&#39;S Pilot Cars, LLC","Kansas City",KS,US,816-560-0906,,"multiple_cars","","MO"
"Cars, 4 Steering","Wichita",KS,US,,,"","",""
"Fast & Reliable, On Time & Nationwide Service | Click Here For E-Mail","Wichita",KS,US,,,"","",""
"970-274-1337 | 970-948-4276 | Denver-303-667-7007","Rifle, Co | Two Pistols Pilot Escort Services",KS,US,,,"","",""
"California","Murray, Ne |Towering Oak Pilot Cars",KS,US,,,"","",""
"Georgia","Murray, Ne |Towering Oak Pilot Cars",KS,US,,,"","",""
"Kansas","Murray, Ne |Towering Oak Pilot Cars",KS,US,,,"","",""
"Massachusetts","Murray, Ne |Towering Oak Pilot Cars",KS,US,,,"","",""
"Montana","Murray, Ne |Towering Oak Pilot Cars",KS,US,,,"","",""
"New Mexico","Murray, Ne |Towering Oak Pilot Cars",KS,US,,,"","",""
"Oklahoma","Murray, Ne |Towering Oak Pilot Cars",KS,US,,,"","",""
"South Dakota","Murray, Ne |Towering Oak Pilot Cars",KS,US,,,"","",""
"Virginia","Murray, Ne |Towering Oak Pilot Cars",KS,US,,,"","",""
"Lead/ Chase/ Height Pole/ Steering","Wa & Ny Cert. / Tx Flagging Cert.",KY,US,,,"","",""
"304-437-0403 Call 24/7","Load Chasers Pilot Car Service",KY,US,,,"","",""
"Height Pole * Route Survey * Traffic Control * Ny , Fl Certs * La","Our Family. Helping Yours!",KY,US,,,"","",""
"Spartan Pilot Car Services 1 2 3 4 Twic/","Hamlin, Wv",KY,US,,,"WITPAC","",""
"A2b Escort & Pilot Car Service","Memphis, Tn",KY,US,,,"","",""
"First Response Pilot Cars","Anderson, In",KY,US,,https://firstresponsepilotcars.godaddysites.com/,"height_pole, route_survey, multiple_cars","",""
"Cars, 4 Steering","Chattanooga, Tn",KY,US,,,"","",""
"A2b Escort & Pilot Car Service","Bowling Green",KY,US,270-407-8412,,"","",""
"North American Transport Svc. 1 2 3 4 Try","Bowling Green",KY,US,217-860-2201,,"","",""
"Cars, 4 Steering","Paducah",KY,US,,,"","",""
"Alaska","Paducah",KY,US,,,"","",""
"Connecticut","Paducah",KY,US,,,"","",""
"Illinois","Paducah",KY,US,,,"","",""
"Louisiana","Paducah",KY,US,,,"","",""
"Minnesota","Paducah",KY,US,,,"","",""
"Nevada","Paducah",KY,US,,,"","",""
"North Carolina","Paducah",KY,US,,,"","",""
"Pennsylvania","Paducah",KY,US,,,"","",""
"Texas","Paducah",KY,US,,,"","",""
"West Virginia","Paducah",KY,US,,,"","",""
"Lead/ Chase/ Height Pole/ Steering","Wa & Ny Cert. / Tx Flagging Cert.",LA,US,,,"","",""
"Related To Your Account (2/Mo. Max).","Pilot Cars",LA,US,,,"","",""
"Route","(La,Ms,Ar Only)",LA,US,,http://www.louisianafrog.com/,"","",""
"Certified","(La,Ms,Ar Only)",LA,US,,http://www.louisianafrog.com/,"","",""
"Amber Permits-Nv/Ga","Flagger Cert",LA,US,,,"","",""
"Mobile, Al | Graham’S Pilot Car | 251-957-2841","Haul Backs",LA,US,,,"","",""
"Hp/Rt. Survey/ Multi Cars/Flagger Cert.| Amber Permits- Nv, Ga","Haul Backs",LA,US,,,"","",""
"Jackson, Ms |Tcb Escorts LLC | 601-612-0106","Steering * All Credit Cards",LA,US,,,"","",""
"A To B Pilot Car Escort Service","Mobile, Al",LA,US,,,"height_pole, multiple_cars, steering","",""
"Tcb Escorts LLC","Gonzales / Baton Rouge, La",LA,US,,,"multiple_cars, height_pole, steering","",""
"Mark&#39;S Pilot Car Service","Seminary, Ms",LA,US,,,"","",""
"Frog Truck Escort","Texarkana, Ar",LA,US,,https://louisianafrog.com/,"height_pole, route_survey, multiple_cars, steering","",""
"318-469-3748/318-393-6118","Shreveport, La",LA,US,,,"","",""
"Cars, 4 Steering 5","Waskom, Tx",LA,US,,,"WITPAC","",""
"For All Your Pilot Car Needs Call Gator","Gator’S Highway Escort Svc., LLC",LA,US,504-610-4162,,"","",""
"Val’S Pilot Car","Lafayette",LA,US,337-523-7892,,"multiple_cars","",""
"Coast2coast 1 2 3 Flagger","Monroe",LA,US,318-432-4270,,"","",""
"Mw Pilot Car Escort Svc, L.L.C. Lead/Chase /","New Orleans",LA,US,504-252-5942,,"height_pole","",""
"Vidalia Dispatch Service Inc.","Shreveport",LA,US,972-635-2480,http://www.vidaliadispatch.com/,"height_pole, route_survey, multiple_cars, steering","Royse City, Texarkana","TX"
"Frosty Pilot Cars","Shreveport",LA,US,318-518-4699,,"height_pole, route_survey, multiple_cars","Waskom","TX"
"Permits * Bucket Trucks * Route Surveys * Steerman","Shreveport",LA,US,,https://www.c2cescorts.com/,"","",""
"Arkansas","Shreveport",LA,US,,,"","",""
"Florida","Shreveport",LA,US,,,"","",""
"Iowa","Shreveport",LA,US,,,"","",""
"Maryland","Shreveport",LA,US,,,"","",""
"Missouri","Shreveport",LA,US,,,"","",""
"New Jersey","Shreveport",LA,US,,,"","",""
"Ohio","Shreveport",LA,US,,,"","",""
"South Carolina","Shreveport",LA,US,,,"","",""
"Vermont","Shreveport",LA,US,,,"","",""
"Wyoming","Shreveport",LA,US,,,"","",""
"Lead/ Chase/ Height Pole/ Steering","Wa & Ny Cert. / Tx Flagging Cert.",ME,US,,,"","",""
"Cars, 4 Steering","(La,Ms,Ar Only)",ME,US,,,"","",""
"Cars, 4 Steering","Portland",ME,US,,,"","",""
"Alabama","Monmouth, Me",ME,US,,,"","",""
"Colorado","Monmouth, Me",ME,US,,,"","",""
"Idaho","Monmouth, Me",ME,US,,,"","",""
"Kentucky","Monmouth, Me",ME,US,,,"","",""
"Michigan","Monmouth, Me",ME,US,,,"","",""
"Nebraska","Monmouth, Me",ME,US,,,"","",""
"New York","Monmouth, Me",ME,US,,,"","",""
"Oregon","Monmouth, Me",ME,US,,,"","",""
"Tennessee","Monmouth, Me",ME,US,,,"","",""
"Washington","Monmouth, Me",ME,US,,,"","",""
"Lead/ Chase/ Height Pole/ Steering","Wa & Ny Cert. / Tx Flagging Cert.",MD,US,,,"","",""
"Related To Your Account (2/Mo. Max).","Pilot Cars",MD,US,318-432-4270,,"","",""
"304-437-0403 Call 24/7","Load Chasers Pilot Car Service",MD,US,,,"","",""
"Jacksonville, Fl| (904)699-0435 | Pensacola, Fl","Dale Dealing Pilot Escort Service",MD,US,,,"","",""
"804-238-8216 | Jka Express Pilot Car Service","Dale Dealing Pilot Escort Service",MD,US,,,"","",""
"Nationwide Services * 301-458-0111","Sagan Express Pilot Services",MD,US,,,"","",""
"Mid-Atlantic Region - O: 202-826-0186 / C: 240-858-2730","Tag & Title At Hilltop, P.E.V.O.",MD,US,,,"","",""
"Loew&#39;S Pilot Car Service","Hertford, Nc",MD,US,,,"","",""
"Jka Express Pilot Car Svc.","Wheeling, Wv",MD,US,,,"multiple_cars, steering","",""
"A 2 Z Pilot Car Service","Callao, Va",MD,US,,,"height_pole, multiple_cars","",""
"Lane 3 Pilot Car 1 3 //Twic/Ny Cert./Cevo","Woodbridge, Va",MD,US,,,"WITPAC","",""
"Apples And Oranges Pilots 1 2 Flagging","Johnson City, Tn",MD,US,,,"","",""
"Tag & Title At Hilltop, P.E.V.O.","Baltimore, Md",MD,US,,,"height_pole, route_survey, multiple_cars","",""
"202-826-0186 / 240-858-2730","Baltimore, Md",MD,US,,,"","",""
"Dale Dealing Pilot/Escort Svc.","So. Charleston, Wv",MD,US,,,"height_pole, route_survey, multiple_cars, steering","",""
"(904)699-0435","Jacksonville / Pensacola, Fl",MD,US,,,"","",""
"718-351-0298/718-351-0294","Howell Township, Nj",MD,US,,,"","",""
"Sagan Express Pilot Service","Fort Mill, Sc / Washington, Dc",MD,US,301-458-0111,,"height_pole, route_survey, steering","Callao, Va, Charleston, Wv","VA, WV"
"Runaway PCS LLC 3, Cdl A, Twic,","Fort Mill, Sc / Washington, Dc",MD,US,,,"WITPAC","",""
"Cars, 4 Steering","Harrisburg, Pa",MD,US,,,"","",""
"Apples And Oranges Pilots 1 2 Flagging","Baltimore",MD,US,240-818-6454,,"","",""
"Stp Pilot Car","Baltimore",MD,US,301-992-4712,,"height_pole, route_survey","",""
"Cheyenne&#39;S Pilot Cars","Brookeville",MD,US,301-774-9061,http://cheyennespilotcars.com/,"height_pole, route_survey, multiple_cars","",""
"Cars, 4 Steering","Take Charge Pilot Cars",MD,US,,,"","",""
"Lead / Chase / Height Pole / Route Survey","Hilltop",MD,US,,,"","",""
"Alabama","Baltimore, Md",MD,US,,,"","",""
"Colorado","Baltimore, Md",MD,US,,,"","",""
"Idaho","Baltimore, Md",MD,US,,,"","",""
"Kentucky","Baltimore, Md",MD,US,,,"","",""
"Michigan","Baltimore, Md",MD,US,,,"","",""
"Nebraska","Baltimore, Md",MD,US,,,"","",""
"New York","Baltimore, Md",MD,US,,,"","",""
"Oregon","Baltimore, Md",MD,US,,,"","",""
"Tennessee","Baltimore, Md",MD,US,,,"","",""
"Washington","Baltimore, Md",MD,US,,,"","",""
"Lead/ Chase/ Height Pole/ Steering","Wa & Ny Cert. / Tx Flagging Cert.",MA,US,,,"","",""
"Patriot Certified Pilot Cars, LLC | 203-994-2620 | $1m Insurance","(La,Ms,Ar Only)",MA,US,,,"","",""
"Big Rig Escorts, LLC 1 (North East Us)","Pittsfield",MA,US,413-441-0542,,"","",""
"Tmp Pilot Car & Logistics","Southbridge",MA,US,508-765-5352,,"height_pole, route_survey, steering","",""
"Cars, 4 Steering","Springfield",MA,US,,,"","",""
"North American Transport.Svc.","Pittsfield, Ma",MA,US,,,"height_pole, route_survey, steering","",""
"Patriot Certified Pilot Cars, LLC","Springfield, Ma",MA,US,,http://patriotcertifiedpilotcars.com/,"","",""
"Alabama","Northeast Us",MA,US,,,"","",""
"Colorado","Northeast Us",MA,US,,,"","",""
"Idaho","Northeast Us",MA,US,,,"","",""
"Kentucky","Northeast Us",MA,US,,,"","",""
"Michigan","Northeast Us",MA,US,,,"","",""
"Nebraska","Northeast Us",MA,US,,,"","",""
"New York","Northeast Us",MA,US,,,"","",""
"Oregon","Northeast Us",MA,US,,,"","",""
"Tennessee","Northeast Us",MA,US,,,"","",""
"Washington","Northeast Us",MA,US,,,"","",""
"Lead/ Chase/ Height Pole/ Steering","Wa & Ny Cert. / Tx Flagging Cert.",MI,US,,,"","",""
"Whispering Hills Pilot Cars LLC | 402-690-2100| Fax 712-486-2327","(La,Ms,Ar Only)",MI,US,,,"","",""
"Nationwide, Fast, Reliable, On-Time | 100 Yrs Combined Experience!","(La,Ms,Ar Only)",MI,US,,,"","",""
"Priority 1 Flagcar Service","Indianapolis",MI,US,,,"","",""
"Glen’S Movin’ On Pilot Cars, LLC","Coldwater, Mi",MI,US,,,"height_pole, route_survey, multiple_cars","",""
"M And K Pilot Service, Inc.. 3 Can Legal","Houston, Tx",MI,US,,,"","",""
"Jim’S Escort Service","Southfield, Mi",MI,US,,,"height_pole, route_survey, multiple_cars, steering","",""
"M.R. Pilot Car, LLC. 3 (Formerly Johnny’S Pc)","Menominee, Mi",MI,US,,,"","",""
"Papaw&#39;S Pilot Service","Fort Wayne / Fremont / Gary / Indy, In",MI,US,,,"height_pole, route_survey, steering","",""
"D & K Pilot Cars","Rockwood, Mi",MI,US,,,"height_pole, multiple_cars","",""
"Cars, 4 Steering","Holland, Mi",MI,US,,,"","",""
"Coastal Lights, LLC","Alma",MI,US,860-639-8468,http://coastallightsllc.com/,"height_pole, route_survey, multiple_cars","",""
"Priority 1 Flagcar Service","Coldwater",MI,US,269-209-3698,,"","",""
"J & H Pilot Services","Grand Rapids",MI,US,260-336-2412,,"multiple_cars","",""
"D & K Pilot Cars","Holland",MI,US,616-836-2283,,"height_pole, multiple_cars","",""
"Piner&#39;S Pilot Car Service LLC Can Legal","Lansing",MI,US,517-599-7616,,"","",""
"“No Matter How Far…We Go The Distance!”","Lisa Tracy Pilot Car",MI,US,313-405-4005,,"","",""
"Jim’S Escort Service","Menominee",MI,US,715-587-0554,,"height_pole, route_survey, multiple_cars, steering","",""
"M And K Pilot Service, Inc.. 3 Can Legal","Southfield",MI,US,248-761-5343,,"","",""
"Cars, 4 Steering","Southfield",MI,US,,,"","",""
"California","Southfield",MI,US,,,"","",""
"Georgia","Southfield",MI,US,,,"","",""
"Kansas","Southfield",MI,US,,,"","",""
"Massachusetts","Southfield",MI,US,,,"","",""
"Montana","Southfield",MI,US,,,"","",""
"New Mexico","Southfield",MI,US,,,"","",""
"Oklahoma","Southfield",MI,US,,,"","",""
"South Dakota","Southfield",MI,US,,,"","",""
"Virginia","Southfield",MI,US,,,"","",""
"Lead/ Chase/ Height Pole/ Steering","Wa & Ny Cert. / Tx Flagging Cert.",MN,US,,,"","",""
"Whispering Hills Pilot Cars LLC | 402-690-2100|F- 712-486-2327","(La,Ms,Ar Only)",MN,US,,,"","",""
"Minneapolis, Mn | Midwest Pilot Cars | 605-670-9654","(La,Ms,Ar Only)",MN,US,,,"","",""
"Height Pole, Route Surveys, Multiple Vehicles, Bucket Trucks","Granville, Nd",MN,US,,,"","",""
"Red Wing Pilot Cars","Moorhead, Mn",MN,US,,http://www.redwingpilotcars.com/,"height_pole","",""
"Northern States Trucking Inc.","Jamestown, Nd",MN,US,,,"height_pole, route_survey, multiple_cars","",""
"Glen’S Movin’ On Pilot Cars, LLC","Fargo, Nd",MN,US,,,"height_pole, route_survey, multiple_cars","",""
"C & H Pilot Transport, LLC 1 2 4","Warsaw, Mo",MN,US,,,"WITPAC","",""
"Landriault Transport Inc.. 1 2 3 Bucket Trucks","Norfolk, Ne",MN,US,,,"","",""
"Cars, 4 Steering","Fargo, Nd",MN,US,,,"","",""
"Red Wing Pilot Cars","Red Wing",MN,US,651-380-5578,http://www.redwingpilotcars.com/,"height_pole","",""
"Cars, 4 Steering","Red Wing",MN,US,,,"","",""
"Height Pole, Route Survey, Front, Chase","Red Wing",MN,US,,,"","",""
"Arkansas","Red Wing",MN,US,,,"","",""
"Florida","Red Wing",MN,US,,,"","",""
"Iowa","Red Wing",MN,US,,,"","",""
"Maryland","Red Wing",MN,US,,,"","",""
"Missouri","Red Wing",MN,US,,,"","",""
"New Jersey","Red Wing",MN,US,,,"","",""
"Ohio","Red Wing",MN,US,,,"","",""
"South Carolina","Red Wing",MN,US,,,"","",""
"Vermont","Red Wing",MN,US,,,"","",""
"Wyoming","Red Wing",MN,US,,,"","",""
"Lead/ Chase/ Height Pole/ Steering","Wa & Ny Cert. / Tx Flagging Cert.",MS,US,,,"","",""
"Related To Your Account (2/Mo. Max).","Pilot Cars",MS,US,,,"","",""
"Cars, 4 Steering","(La,Ms,Ar Only)",MS,US,,,"","",""
"White Knuckle Express LLC","Horn Lake",MS,US,870-450-1822,,"height_pole, route_survey, multiple_cars","",""
"Tcb Escorts LLC","Jackson",MS,US,601-612-0106,,"multiple_cars","",""
"J & W Torrence Pilot Car 1 4","Picayune",MS,US,405-476-8006,,"WITPAC","Thackerville","OK"
"Cars, 4 Steering","Vicksburg",MS,US,,,"","",""
"Certified","Vicksburg",MS,US,,http://www.louisianafrog.com/,"","",""
"Jackson, Ms |Tcb Escorts LLC | 601-612-0106","Cards",MS,US,318-432-4270,,"","",""
"Permits * Bucket Trucks * Route Surveys * Steerman","Cards",MS,US,,https://www.c2cescorts.com/,"","",""
"Arkansas","Cards",MS,US,,,"","",""
"Florida","Cards",MS,US,,,"","",""
"Iowa","Cards",MS,US,,,"","",""
"Maryland","Cards",MS,US,,,"","",""
"Missouri","Cards",MS,US,,,"","",""
"New Jersey","Cards",MS,US,,,"","",""
"Ohio","Cards",MS,US,,,"","",""
"South Carolina","Cards",MS,US,,,"","",""
"Vermont","Cards",MS,US,,,"","",""
"Wyoming","Cards",MS,US,,,"","",""
"Lead/ Chase/ Height Pole/ Steering","Wa & Ny Cert. / Tx Flagging Cert.",MO,US,,,"","",""
"Whispering Hills Pilot Cars LLC | 402-690-2100 | Fax 712-486-2327","(La,Ms,Ar Only)",MO,US,,,"","",""
"Bucket Truck Service | Height Pole | Route Surveys | 12 Vehicles","(La,Ms,Ar Only)",MO,US,,,"","",""
"Patriot Pilot Car Service Access To:","Blue Springs",MO,US,816-674-3253,,"height_pole, multiple_cars","",""
"Rk Pilot Cars LLC","Boonville",MO,US,660-888-5773,,"multiple_cars","",""
"Nate’S Escort Service Co., LLC","Kansas City",MO,US,913-485-3813,http://natesescortservice.com/,"height_pole, route_survey, multiple_cars","",""
"Elpidos Pilot Car 12","Sedalia",MO,US,660-596-1003,,"","",""
"C B Piloting Services LLC","Springfield",MO,US,479-670-2176,,"height_pole, route_survey, multiple_cars, steering","",""
"E. Waites Trucking & Pilot Car Svc.","St. Louis",MO,US,,,"height_pole, route_survey, multiple_cars, steering","",""
"Glen’S Movin’ On Pilot Cars, LLC","Warsaw",MO,US,660-281-6307,,"height_pole, route_survey, multiple_cars, steering","",""
"Jarvis Pilot Cars, LLC","Warsaw",MO,US,816-565-6460,,"height_pole","",""
"Cars, 4 Steering","Warsaw",MO,US,,,"","",""
"Wa Cert. * Pro. Liability * Height Pole * Route Survey * Multiple Cars","Murray, Ne |Towering Oak Pilot Cars",MO,US,,,"","",""
"California","Murray, Ne |Towering Oak Pilot Cars",MO,US,,,"","",""
"Georgia","Murray, Ne |Towering Oak Pilot Cars",MO,US,,,"","",""
"Kansas","Murray, Ne |Towering Oak Pilot Cars",MO,US,,,"","",""
"Massachusetts","Murray, Ne |Towering Oak Pilot Cars",MO,US,,,"","",""
"Montana","Murray, Ne |Towering Oak Pilot Cars",MO,US,,,"","",""
"New Mexico","Murray, Ne |Towering Oak Pilot Cars",MO,US,,,"","",""
"Oklahoma","Murray, Ne |Towering Oak Pilot Cars",MO,US,,,"","",""
"South Dakota","Murray, Ne |Towering Oak Pilot Cars",MO,US,,,"","",""
"Virginia","Murray, Ne |Towering Oak Pilot Cars",MO,US,,,"","",""
"Lead/ Chase/ Height Pole/ Steering","Wa & Ny Cert. / Tx Flagging Cert.",MT,US,,,"","",""
"Related To Your Account (2/Mo. Max).","Pilot Cars",MT,US,,,"","",""
"Cheyenne, Wy | Frontier Pilot Services, LLC | 307-632-6409","(La,Ms,Ar Only)",MT,US,,,"","",""
"Cb’S & Vhf Radios In All Cars/ 30+ Years Experience","(La,Ms,Ar Only)",MT,US,,,"","",""
"Height Pole, Route Surveys, Multiple Vehicles, Bucket Trucks","Granville, Nd",MT,US,,,"","",""
"Bryant Enterprises Pilot Car Svc.","Rapid City, Sd",MT,US,,,"height_pole, multiple_cars","",""
"Frontier Pilot Services, LLC","Spokane, Wa",MT,US,,,"height_pole, route_survey, multiple_cars","",""
"Big Sky Pilots","Cheyenne, Wy",MT,US,,http://bigskypilots.com/,"height_pole, route_survey, multiple_cars, steering","",""
"Rogue Hotshots PCS LLC 5","Billings, Mt",MT,US,,,"","",""
"Northern States Trucking Inc.","Jamestown, Nd",MT,US,,,"height_pole, route_survey, multiple_cars","",""
"Stabler Pilot Service LLC","Burns / Cheyenne, Wy",MT,US,,http://www.stablerpilotservice.com/,"height_pole, multiple_cars","",""
"Landriault Transport Inc.. 1 2 3 Bucket Trucks","Miles City, Mt",MT,US,,,"","",""
"Chance It Pilot Service LLC 1 2 3 5","Granville, Nd",MT,US,,,"","",""
"307-277-5895 / 801-870-6382","Casper, Wy",MT,US,,,"","",""
"Big Sky Pilots","Billings",MT,US,406-697-5909,http://bigskypilots.com/,"height_pole, route_survey, multiple_cars, steering","",""
"Vc’S Pilot Car Service","Billings",MT,US,406-670-1335,,"","",""
"R K Pilot Cars LLC","Hardin",MT,US,406-525-5072,,"height_pole","",""
"Stabler Pilot Service LLC","Miles City",MT,US,406-853-1024,http://www.stablerpilotservice.com/,"height_pole, multiple_cars","",""
"V.Smith Pilot Cars LLC 1 2 4 Vhf","Polson",MT,US,719-229-1227,,"","",""
"Cars , 4 Steering 5","Sweet Grass",MT,US,,,"WITPAC","",""
"Alaska","Sweet Grass",MT,US,,,"","",""
"Connecticut","Sweet Grass",MT,US,,,"","",""
"Illinois","Sweet Grass",MT,US,,,"","",""
"Louisiana","Sweet Grass",MT,US,,,"","",""
"Minnesota","Sweet Grass",MT,US,,,"","",""
"Nevada","Sweet Grass",MT,US,,,"","",""
"North Carolina","Sweet Grass",MT,US,,,"","",""
"Pennsylvania","Sweet Grass",MT,US,,,"","",""
"Texas","Sweet Grass",MT,US,,,"","",""
"West Virginia","Sweet Grass",MT,US,,,"","",""
"Lead/ Chase/ Height Pole/ Steering","Wa & Ny Cert. / Tx Flagging Cert.",NE,US,,,"","",""
"Whispering Hills Pilot Cars LLC | 402-690-2100| Fax 712-486-2327","(La,Ms,Ar Only)",NE,US,,,"","",""
"Nationwide, Fast, Reliable, On-Time | 100 Yrs Combined Experience!","(La,Ms,Ar Only)",NE,US,,,"","",""
"Burns/Cheyenne, Wy| 307-477-7771","East West Pilot Car Service, LLC",NE,US,,,"","",""
"Multiple Drivers| High Pole, Lead, Chase, Steer, Route Survey","East West Pilot Car Service, LLC",NE,US,,,"","",""
"Certified By Ok & Ny","East West Pilot Car Service, LLC",NE,US,,,"","",""
"Cheyenne, Wy | Frontier Pilot Services, LLC | 307-632-6409","Lead / Chase",NE,US,,,"","",""
"Highly Experienced * Height Pole * Route Surveys * Steering","Lead / Chase",NE,US,,,"","",""
"Wa Cert. * Pro. Liability * Height Pole * Route Survey * Multiple Cars","Murray, Ne |Towering Oak Pilot Cars",NE,US,,,"","",""
"Glen’S Movin’ On Pilot Cars, LLC","Burns, Wy",NE,US,,,"height_pole, route_survey, multiple_cars","",""
"Principles Pilot Car","Cheyenne, Wy",NE,US,,,"height_pole","",""
"Frontier Pilot Services, LLC","Chester, Ne / Yankton, Sd",NE,US,,,"height_pole, route_survey, multiple_cars","",""
"C & H Pilot Transport, LLC 1 2 4","Cheyenne, Wy",NE,US,,,"WITPAC","",""
"I-80 & Ne Hwys. 183,281,81,283","County Line Pilot Car, LLC",NE,US,402-984-0976,,"","",""
"Towering Oak Pilot Cars","County Line Pilot Car, LLC",NE,US,,,"height_pole, route_survey, multiple_cars","",""
"Dalaine&#39;S Pilotcar","Murray, Ne",NE,US,,,"","",""
"Surefire Pilot, LLC","Rapid City, Sd",NE,US,,,"height_pole","",""
"Colorado Transport","Fort Collins, Co",NE,US,,,"height_pole, route_survey","",""
"Gc Pilot Car Supply, LLC","Moorcroft, Wy",NE,US,,,"height_pole, route_survey, multiple_cars, steering","",""
"620-272-4563 | 520-395-7739","Nationide",NE,US,,,"","",""
"Mid-America Pilot Cars","York, Ne",NE,US,,,"route_survey, multiple_cars","",""
"Ps Piloting 1 2","Grand Island, Ne",NE,US,,,"WITPAC","",""
"(397)970-6965","Greeley, Co / Cheyenne, Wy",NE,US,,,"","",""
"Mid-America Pilot Cars","Grand Island",NE,US,308-940-3251,,"route_survey, multiple_cars","",""
"C & H Pilot Transport, LLC 1 2 4 5","Norfolk",NE,US,402-803-0644,,"","",""
"Premier Pilot Cars","Sidney",NE,US,308-566-0196,http://www.pdspilotcars.com/,"height_pole, route_survey, multiple_cars","",""
"Services Rendered: 1 Height Pole, 2 Route Survey, 3 Multiple Cars, 4 Steering 5","York",NE,US,,,"","",""
"California","Murray, Ne |Towering Oak Pilot Cars",NE,US,,,"","",""
"Georgia","Murray, Ne |Towering Oak Pilot Cars",NE,US,,,"","",""
"Kansas","Murray, Ne |Towering Oak Pilot Cars",NE,US,,,"","",""
"Massachusetts","Murray, Ne |Towering Oak Pilot Cars",NE,US,,,"","",""
"Montana","Murray, Ne |Towering Oak Pilot Cars",NE,US,,,"","",""
"New Mexico","Murray, Ne |Towering Oak Pilot Cars",NE,US,,,"","",""
"Oklahoma","Murray, Ne |Towering Oak Pilot Cars",NE,US,,,"","",""
"South Dakota","Murray, Ne |Towering Oak Pilot Cars",NE,US,,,"","",""
"Virginia","Murray, Ne |Towering Oak Pilot Cars",NE,US,,,"","",""
"Lead/ Chase/ Height Pole/ Steering","Wa & Ny Cert. / Tx Flagging Cert.",NV,US,,,"","",""
"Related To Your Account (2/Mo. Max).","Pilot Cars",NV,US,,,"","",""
"Viper Pilot Cars | 623-300-4353 | 24 Hours A Day 7 Days A Week","(La,Ms,Ar Only)",NV,US,,,"","",""
"Panther Pilot Car | 916-459-7079 | Sacramento, Ca Based","(La,Ms,Ar Only)",NV,US,,,"","",""
"Height Pole, Route Surveys, Ut Cert., Multiple Vehicles, Steering","(La,Ms,Ar Only)",NV,US,,,"","",""
"Roadrunner Pilot Car Svc, LLC","Vernal, Ut",NV,US,,http://roadrunnerpilotcar.com/,"height_pole, route_survey, steering","",""
"Panther Pilot Car","Ely / Wendover, Nv",NV,US,,https://www.facebook.com/profile.php?id=100090369883495,"height_pole, route_survey, steering","",""
"Northwest Pilot Cars","Jerome, Id",NV,US,,https://www.facebook.com/orpilotmisty,"height_pole","",""
"541-823-7039/209-349-2712","Ontario, Or",NV,US,,,"","",""
"Rochelle’S Pc","Reno, Nv",NV,US,,,"height_pole, route_survey","",""
"Valid Transportation & PCS 1234","Yuma, Az",NV,US,,,"","",""
"Marwan’S Pilot Car Svc. 1020304","Madera, Ca",NV,US,,,"","",""
"Cars, 4 Steering","Sacramento, Ca",NV,US,,,"","",""
"Roadrunner Pilot Car Svc, LLC","Ely / Wendover",NV,US,702-496-8313,http://roadrunnerpilotcar.com/,"height_pole, route_survey, steering","",""
"Dts Pilot Car Service 1 3 Roadside Assist","Reno",NV,US,775-842-2633,,"","",""
"T Bar M Inc.. (Pilot Car Div.)","Reno",NV,US,775-622-9112,,"height_pole, route_survey, multiple_cars","",""
"Blacksheep Pilot Car/T.J.&#39;S","Reno",NV,US,775-560-5896,,"","",""
"Cars, 4 Steering","Wendover",NV,US,,,"","",""
"Panther Pilot Car | 916-459-7079 | Sacramento, Ca Based","We’Ll Get You Where You’Re Going!!!!!!",NV,US,,,"","",""
"Serving California & The Western Us * Height Pole * Route Surveys","“Your Loads Are Safe & Sound With Us!”",NV,US,,,"","",""
"Alabama","“Your Loads Are Safe & Sound With Us!”",NV,US,,,"","",""
"Colorado","“Your Loads Are Safe & Sound With Us!”",NV,US,,,"","",""
"Idaho","“Your Loads Are Safe & Sound With Us!”",NV,US,,,"","",""
"Kentucky","“Your Loads Are Safe & Sound With Us!”",NV,US,,,"","",""
"Michigan","“Your Loads Are Safe & Sound With Us!”",NV,US,,,"","",""
"Nebraska","“Your Loads Are Safe & Sound With Us!”",NV,US,,,"","",""
"New York","“Your Loads Are Safe & Sound With Us!”",NV,US,,,"","",""
"Oregon","“Your Loads Are Safe & Sound With Us!”",NV,US,,,"","",""
"Tennessee","“Your Loads Are Safe & Sound With Us!”",NV,US,,,"","",""
"Washington","“Your Loads Are Safe & Sound With Us!”",NV,US,,,"","",""
"Lead/ Chase/ Height Pole/ Steering","Wa & Ny Cert. / Tx Flagging Cert.",NH,US,,,"","",""
"Cars, 4 Steering","(La,Ms,Ar Only)",NH,US,,,"","",""
"Cars, 4 Steering","Nashua",NH,US,,,"","",""
"Alabama","Nashua, Nh",NH,US,,,"","",""
"Colorado","Nashua, Nh",NH,US,,,"","",""
"Idaho","Nashua, Nh",NH,US,,,"","",""
"Kentucky","Nashua, Nh",NH,US,,,"","",""
"Michigan","Nashua, Nh",NH,US,,,"","",""
"Nebraska","Nashua, Nh",NH,US,,,"","",""
"New York","Nashua, Nh",NH,US,,,"","",""
"Oregon","Nashua, Nh",NH,US,,,"","",""
"Tennessee","Nashua, Nh",NH,US,,,"","",""
"Washington","Nashua, Nh",NH,US,,,"","",""
"Lead/ Chase/ Height Pole/ Steering","Wa & Ny Cert. / Tx Flagging Cert.",NJ,US,,,"","",""
"Related To Your Account (2/Mo. Max).","Pilot Cars",NJ,US,,,"","",""
"Ny Nj Routing & Pilot Cars | 918-886-0992","(La,Ms,Ar Only)",NJ,US,,,"","",""
"Ny/Pa Certified * 20+ Years Exp. * Hp/Surveys/Geometric Surveys","(La,Ms,Ar Only)",NJ,US,,,"","",""
"Mid-Atlantic Region - O: (202)826-0186 / C: (240)858-2730","Tag & Title At Hilltop, P.E.V.O.",NJ,US,,,"","",""
"Tag & Title At Hilltop, P.E.V.O.","Nyc / Long Island, Ny",NJ,US,,,"height_pole, route_survey, multiple_cars","",""
"202-826-0186 / 240-858-2730","Newark, Nj",NJ,US,,,"","",""
"718-351-0298/718-351-0294","Howell Township, Nj",NJ,US,,,"","",""
"Muthers Permits & Pilot Cars","Township",NJ,US,718-351-0298,,"height_pole, route_survey, multiple_cars","",""
"Cars, 4 Steering","Statewide",NJ,US,,,"","",""
"Permits & Dispatching For The Entire U.S.","Statewide",NJ,US,,,"","",""
"Arizona","Statewide",NJ,US,,,"","",""
"Delaware","Statewide",NJ,US,,,"","",""
"Indiana","Statewide",NJ,US,,,"","",""
"Maine","Statewide",NJ,US,,,"","",""
"Mississippi","Statewide",NJ,US,,,"","",""
"New Hampshire","Statewide",NJ,US,,,"","",""
"North Dakota","Statewide",NJ,US,,,"","",""
"Rhode Island","Statewide",NJ,US,,,"","",""
"Utah","Statewide",NJ,US,,,"","",""
"Wisconsin","Statewide",NJ,US,,,"","",""
"Lead/ Chase/ Height Pole/ Steering","Wa & Ny Cert. / Tx Flagging Cert.",NM,US,,,"","",""
"Related To Your Account (2/Mo. Max).","Pilot Cars",NM,US,,,"","",""
"Franks’ Pilot Car | 505-330-6188","(La,Ms,Ar Only)",NM,US,,,"","",""
"970-274-1337 | 970-948-4276 | Denver- 303-667-7007","Rifle, Co | Two Pistols Pilot Escort Services",NM,US,,,"","",""
"970-456-2169 | Call For A Bid!","Rifle, Co | Twin Guns Transportation & Heavy Haul",NM,US,,,"","",""
"Valid Transportation & Pilot Car | 559-363-5656","Rifle, Co | Twin Guns Transportation & Heavy Haul",NM,US,,,"","",""
"Frank’S Pilot Car Service","Peoria, Az",NM,US,,,"height_pole, route_survey, multiple_cars","",""
"Lights On Pilot Services, LLC 1 Twi","Rio Rancho, Nm",NM,US,,,"","",""
"Rochelle’S Pc","Pueblo, Co",NM,US,,,"height_pole, route_survey","",""
"Gc Pilot Car Supply, LLC","Yuma, Az",NM,US,,,"height_pole, route_survey, multiple_cars, steering","",""
"620-272-4563 | 520-395-7739","Nationide",NM,US,,,"","",""
"Hartsfield Escort & PCS.","Cortez, Co",NM,US,,,"height_pole, multiple_cars","",""
"Road Runner Pilot Service LLC","Abuquerque. Nm",NM,US,,http://swpilotcars.com/,"route_survey","",""
"New-Tex Pilot Services","Albuquerque, Nm",NM,US,,,"height_pole, multiple_cars","",""
"Rockin’ Jt","Cheyenne, Wy",NM,US,,,"height_pole, route_survey","",""
"A Better Choice Oes (Oversize Escort Svc)","Socorro, Nm",NM,US,,,"","",""
"Valid Transportation & PCS 1234","Pocatello. Id / Farmington, Nm",NM,US,,,"","",""
"Cars, 4 Steering","Holbrook / Flagstaff / Payson, Az",NM,US,,,"","",""
"Frank’S Pilot Car Service","Albuquerque",NM,US,505-330-6188,,"height_pole, route_survey, multiple_cars","",""
"Road Runner Pilot Service LLC","Albuquerque",NM,US,505-377-5773,http://swpilotcars.com/,"route_survey","",""
"Brian&#39;S Pilot Cars","Albuquerque",NM,US,505-610-2121,,"steering","",""
"Cathey&#39;S Highway Escort","Anthony",NM,US,915-740-3882,,"","El Paso","TX"
"New-Tex Pilot Services","Carlsbad",NM,US,432-250-5865,,"height_pole, multiple_cars","Eunice, Hobbs, Jal, Abilene, Andrews, Big Springs, El Paso, Houston, Kermit, Lubbock, Midland, Odessa, Pecos, San Angelo, Sweetwater","TX"
"A Better Choice Oes (Oversize Escort Svc)","Farmington",NM,US,208-479-7290,,"","",""
"Hartsfield Escort & PCS.","Farmington",NM,US,505-486-9835,,"height_pole, multiple_cars","",""
"Wtf Pilot Cars, LLC","Lordsburg",NM,US,575-654-6796,,"height_pole, route_survey, multiple_cars","",""
"Cars, 4 Steering","Rockin’ Jt",NM,US,,,"","",""
"Certified | (432) 250-5865 |Insured","New-Tex Pilot Services",NM,US,,,"","",""
"Serving California & The Western Us * Height Pole * Route Surveys","“Your Loads Are Safe & Sound With Us!”",NM,US,,,"","",""
"Arkansas","“Your Loads Are Safe & Sound With Us!”",NM,US,,,"","",""
"Florida","“Your Loads Are Safe & Sound With Us!”",NM,US,,,"","",""
"Iowa","“Your Loads Are Safe & Sound With Us!”",NM,US,,,"","",""
"Maryland","“Your Loads Are Safe & Sound With Us!”",NM,US,,,"","",""
"Missouri","“Your Loads Are Safe & Sound With Us!”",NM,US,,,"","",""
"New Jersey","“Your Loads Are Safe & Sound With Us!”",NM,US,,,"","",""
"Ohio","“Your Loads Are Safe & Sound With Us!”",NM,US,,,"","",""
"South Carolina","“Your Loads Are Safe & Sound With Us!”",NM,US,,,"","",""
"Vermont","“Your Loads Are Safe & Sound With Us!”",NM,US,,,"","",""
"Wyoming","“Your Loads Are Safe & Sound With Us!”",NM,US,,,"","",""
"Lead/ Chase/ Height Pole/ Steering","Wa & Ny Cert. / Tx Flagging Cert.",NY,US,,,"","",""
"Related To Your Account (2/Mo. Max).","Pilot Cars",NY,US,,,"","",""
"717-420-0218 | Penn Eagle Pilots | 609-468-5633","(La,Ms,Ar Only)",NY,US,,,"","",""
"Surveys*Permits*Flagging*Ny Certified","(La,Ms,Ar Only)",NY,US,,,"","",""
"All Major Credit Cards | Payment Due At Time Of Services","(La,Ms,Ar Only)",NY,US,,,"","",""
"Pilots For The Ny Metro Area * Permits/Dispatching For The U.S.","(La,Ms,Ar Only)",NY,US,,,"","",""
"Ny Nj Routing & Pilot Cars 1 2 3","Jamestown, Ny",NY,US,,,"","",""
"Muthers Permits & Pilot Cars","Nyc / Long Island, Ny",NY,US,,,"height_pole, route_survey, multiple_cars","",""
"718-351-0298/718-351-0294","Howell Township, Nj",NY,US,,,"","",""
"717-420-0218 |609-468-5633","Trenton, Nj",NY,US,,,"","",""
"Cars, 4 Steering","Ny Metro Area",NY,US,,,"","",""
"Keystone Safety Training Group LLC","Binghamton",NY,US,570-396-7637,,"","",""
"Abc Colt 1 2 3 4, Cevo (+ Bucket Truck)","Buffalo",NY,US,716-222-2658,,"WITPAC","Youngstown, Erie","OH, PA"
"M & T Pilot Cars/Route Surveys","Great Valley",NY,US,716-945-5814,,"","",""
"New York Pilot Car 1 2 Permit Svc.","New York City",NY,US,917-743-6237,,"","",""
"Elite Motor Carrier Escort","Nyc",NY,US,914-575-7306,,"height_pole, route_survey, steering","",""
"Nyc- 5 Boroughs, Nassau & Suffolk Counties","Nyc",NY,US,,,"","",""
"Ny Nj Routing & Pilot Cars 1 2 3","Nyc / Long Island",NY,US,918-886-0992,,"","",""
"New York Truck Escorts &","Ny Metro Area",NY,US,631-669-3742,,"","",""
"Miichael Acocella Pilot Escort Service","Peekskill",NY,US,914-447-3472,,"height_pole","",""
"Saratoga Pilot Car","Saratoga Springs",NY,US,518-683-8445,,"height_pole","",""
"Cars, 4 Steering","Saratoga Springs",NY,US,,,"","",""
"Permits & Dispatching For The Entire U.S.","Saratoga Springs",NY,US,,,"","",""
"Arizona","Saratoga Springs",NY,US,,,"","",""
"Delaware","Saratoga Springs",NY,US,,,"","",""
"Indiana","Saratoga Springs",NY,US,,,"","",""
"Maine","Saratoga Springs",NY,US,,,"","",""
"Mississippi","Saratoga Springs",NY,US,,,"","",""
"New Hampshire","Saratoga Springs",NY,US,,,"","",""
"North Dakota","Saratoga Springs",NY,US,,,"","",""
"Rhode Island","Saratoga Springs",NY,US,,,"","",""
"Utah","Saratoga Springs",NY,US,,,"","",""
"Wisconsin","Saratoga Springs",NY,US,,,"","",""
"Lead/ Chase/ Height Pole/ Steering","Wa & Ny Cert. / Tx Flagging Cert.",NC,US,,,"","",""
"Related To Your Account (2/Mo. Max).","Pilot Cars",NC,US,,,"","",""
"717-420-0218 | Penn Eagle Pilots | 609-468-5633","(La,Ms,Ar Only)",NC,US,,,"","",""
"717-420-0218|609-468-5633","Charlotte, Nc",NC,US,,,"","",""
"Vadim V Pilot Escort Svc. Permits/5","Fort Mill, Sc",NC,US,,,"","",""
"Jka Express Pilot Car Svc.","Greenville / Columbia, Sc",NC,US,,,"multiple_cars, steering","",""
"Carolina Reo Services","Callao, Va",NC,US,,http://www.carolinareoservices.com/,"height_pole, multiple_cars","",""
"A 2 Z Pilot Car Service","Charlotte, Nc",NC,US,,,"height_pole, multiple_cars","",""
"Cars, 4 Steering, 5","Woodbridge, Va",NC,US,,,"WITPAC","",""
"Carolina Reo Services","Charlotte",NC,US,704-202-3127,http://www.carolinareoservices.com/,"height_pole, multiple_cars","",""
"Heath’S Pilot Car","Farmville",NC,US,252-341-6806,,"height_pole, route_survey, steering","",""
"Ponytail Pilotcars 1 (Broker)","Salisbury",NC,US,704-433-9306,,"","",""
"Rupert&#39;S Flag Car","Spencer",NC,US,704-754-3149,,"","",""
"Cars, 4 Steering, 5","Wilmington",NC,US,,,"WITPAC","",""
"Alabama","Lead / Chase / Steer*Multiple Cars",NC,US,,,"","",""
"Colorado","Lead / Chase / Steer*Multiple Cars",NC,US,,,"","",""
"Idaho","Lead / Chase / Steer*Multiple Cars",NC,US,,,"","",""
"Kentucky","Lead / Chase / Steer*Multiple Cars",NC,US,,,"","",""
"Michigan","Lead / Chase / Steer*Multiple Cars",NC,US,,,"","",""
"Nebraska","Lead / Chase / Steer*Multiple Cars",NC,US,,,"","",""
"New York","Lead / Chase / Steer*Multiple Cars",NC,US,,,"","",""
"Oregon","Lead / Chase / Steer*Multiple Cars",NC,US,,,"","",""
"Tennessee","Lead / Chase / Steer*Multiple Cars",NC,US,,,"","",""
"Washington","Lead / Chase / Steer*Multiple Cars",NC,US,,,"","",""
"Lead/ Chase/ Height Pole/ Steering","Wa & Ny Cert. / Tx Flagging Cert.",ND,US,,,"","",""
"Related To Your Account (2/Mo. Max).","Pilot Cars",ND,US,,,"","",""
"Grand Forks, Nd | Midwest Pilot Cars | 605-670-9654","(La,Ms,Ar Only)",ND,US,,,"","",""
"Landriault Transport Inc.. | 701-240-4969","(La,Ms,Ar Only)",ND,US,,,"","",""
"Height Pole, Route Surveys, Multiple Vehicles, Bucket Trucks","Granville, Nd",ND,US,,,"","",""
"Height Pole | Route Surveys | 10 Cars | Steering | Twic","Milwaukee, Wi | Aumor Inc..",ND,US,,,"","",""
"Northern States Trucking Inc.","Blaine, Mn",ND,US,,,"height_pole, route_survey, multiple_cars","",""
"C & H Pilot Transport, LLC 1 2 4","Fargo, Nd",ND,US,,,"WITPAC","",""
"Landriault Transport Inc.. 1 2 3 Bucket Trucks","Norfolk, Ne",ND,US,,,"","",""
"Aumor Inc.. 1 2 3 4 Twic","Granville, Nd",ND,US,,,"","",""
"Dalaine&#39;S Pilotcar","Milwaukee, Wi",ND,US,,,"","",""
"Big Sky Pilots","Rapid City, Sd",ND,US,,http://bigskypilots.com/,"height_pole, route_survey, multiple_cars, steering","",""
"Cars, 4 Steering","Jamestown, Nd",ND,US,,,"","",""
"Northern States Trucking Inc.","Fargo",ND,US,701-532-0252,,"height_pole, route_survey, multiple_cars","",""
"Landriault Transport Inc.. 1 2 3 Bucket Trucks","Granville",ND,US,701-240-4969,,"","",""
"Cars, 4 Steering","Tnc Pilot Car Services",ND,US,,,"","",""
"California","Milwaukee, Wi | Aumor Inc..",ND,US,,,"","",""
"Georgia","Milwaukee, Wi | Aumor Inc..",ND,US,,,"","",""
"Kansas","Milwaukee, Wi | Aumor Inc..",ND,US,,,"","",""
"Massachusetts","Milwaukee, Wi | Aumor Inc..",ND,US,,,"","",""
"Montana","Milwaukee, Wi | Aumor Inc..",ND,US,,,"","",""
"New Mexico","Milwaukee, Wi | Aumor Inc..",ND,US,,,"","",""
"Oklahoma","Milwaukee, Wi | Aumor Inc..",ND,US,,,"","",""
"South Dakota","Milwaukee, Wi | Aumor Inc..",ND,US,,,"","",""
"Virginia","Milwaukee, Wi | Aumor Inc..",ND,US,,,"","",""
"Lead/ Chase/ Height Pole/ Steering","Wa & Ny Cert. / Tx Flagging Cert.",OH,US,,,"","",""
"Whispering Hills Pilot Cars LLC | 402-690-2100| Fax 712-486-2327","(La,Ms,Ar Only)",OH,US,,,"","",""
"Nationwide, Fast, Reliable, On-Time | 100 Yrs Combined Experience!","(La,Ms,Ar Only)",OH,US,,,"","",""
"304-437-0403 Call 24/7","Load Chasers Pilot Car Service",OH,US,,,"","",""
"Height Pole, Route Survey, Front, Chase","Load Chasers Pilot Car Service",OH,US,,,"","",""
"Height Pole | Route Surveys | 10 Cars | Steering | Twic","Milwaukee, Wi | Aumor Inc..",OH,US,,,"","",""
"Priority 1 Flagcar Service","So. Charleston, Wv",OH,US,,,"","",""
"Abc Colt 3 (+ Bucket Truck)","Coldwater, Mi",OH,US,,,"","",""
"Thelma&#39;S Flag Car Service LLC","Buffalo, Ny",OH,US,,,"height_pole, route_survey","",""
"Papaw&#39;S Pilot Service","Youngstown, Oh",OH,US,,,"height_pole, route_survey, steering","",""
"Runaway PCS LLC 3, Cdl A, Twic,","Cincinnati, Oh",OH,US,,,"WITPAC","",""
"Aumor Inc.. 1 2 3 4 Twic","Harrisburg, Pa",OH,US,,,"","",""
"Best Transport Escort","Milwaukee, Wi",OH,US,,,"multiple_cars","",""
"M.R. Pilot Car, LLC. 3 (Formerly Johnny’S Pc)","Indianapolis",OH,US,,,"","",""
"Glen’S Movin’ On Pilot Cars, LLC","Fort Wayne / Fremont / Gary / Indy, In",OH,US,,,"height_pole, route_survey, multiple_cars","",""
"M And K Pilot Service, Inc.. 3 Can Legal","Warsaw, Mo",OH,US,,,"","",""
"M & R Flag Cars LLC","Hamlin, Wv",OH,US,,,"multiple_cars","",""
"Lane 3 Pilot Car 1 3 //Twic/Ny Cert./Cevo","Charleston, Wv",OH,US,,,"WITPAC","",""
"Cars, 4 Steering","Johnson City, Tn",OH,US,,,"","",""
"North American Transport Svc. 1 2 3 4 Cevo","Cincinnati",OH,US,217-860-2201,,"","",""
"Mack’S Pilot Cars","Cleveland",OH,US,216-218-3419,,"height_pole","",""
"Epic Pilot Car Service","Coshocton",OH,US,740-502-0511,,"height_pole, route_survey, multiple_cars","",""
"Johnny’S Pilot Car, LLC.","Van Wert",OH,US,260-336-2412,,"multiple_cars","",""
"Thelma&#39;S Flag Car Service LLC","Youngstown",OH,US,330-770-2779,,"height_pole, route_survey","",""
"Cars, 4 Steering","Youngstown",OH,US,,,"","",""
"California","Milwaukee, Wi | Aumor Inc..",OH,US,,,"","",""
"Georgia","Milwaukee, Wi | Aumor Inc..",OH,US,,,"","",""
"Kansas","Milwaukee, Wi | Aumor Inc..",OH,US,,,"","",""
"Massachusetts","Milwaukee, Wi | Aumor Inc..",OH,US,,,"","",""
"Montana","Milwaukee, Wi | Aumor Inc..",OH,US,,,"","",""
"New Mexico","Milwaukee, Wi | Aumor Inc..",OH,US,,,"","",""
"Oklahoma","Milwaukee, Wi | Aumor Inc..",OH,US,,,"","",""
"South Dakota","Milwaukee, Wi | Aumor Inc..",OH,US,,,"","",""
"Virginia","Milwaukee, Wi | Aumor Inc..",OH,US,,,"","",""
"Lead/ Chase/ Height Pole/ Steering","Wa & Ny Cert. / Tx Flagging Cert.",OK,US,,,"","",""
"Related To Your Account (2/Mo. Max).","Pilot Cars",OK,US,,,"","",""
"Whispering Hills Pilot Cars 402-690-2100 | Fax 712-486-2327","(La,Ms,Ar Only)",OK,US,,,"","",""
"815-474-0171 | 815-530-4936","Shotgun Pilot Car Services, Inc.",OK,US,,,"","",""
"Family Operated |$2m Insurance | Wa Cert | Safety Is Key!","Shotgun Pilot Car Services, Inc.",OK,US,,,"","",""
"Kc Area | Nate’S Escort Service Co., LLC | 913-485-3813","Flagging / Lead / Chase / Hi Pole / Steering",OK,US,,,"","",""
"Odessa, Tx | Hunter&#39;S Pilot Car LLC | 432-924-2289","Flagging / Lead / Chase / Hi Pole / Steering",OK,US,,,"","",""
"York, Ne | Tammy Bzzz’S Pilot Car Service | 402-366-2028","Flagging / Lead / Chase / Hi Pole / Steering",OK,US,,,"","",""
"307-371-7157 | 432-305-7528","Rock Springs, Wy | D&E Brothers LLC | Tulsa, Ok",OK,US,,,"","",""
"Glen’S Movin’ On Pilot Cars, LLC","Springfield, Mo",OK,US,,,"height_pole, route_survey, multiple_cars","",""
"First Response Pilot Car","Warsaw, Mo",OK,US,,https://www.facebook.com/FirstResponsePCS,"height_pole, steering","",""
"C & H Pilot Transport, LLC 1 2 4","Del City, Ok",OK,US,,,"WITPAC","",""
"Frog Truck Escort","Norfolk, Ne",OK,US,,http://www.louisianafrog.com/,"height_pole, route_survey, multiple_cars, steering","",""
"Shotgun Pilot Car Services, Inc.","Idabel, Ok",OK,US,,,"height_pole, multiple_cars","",""
"815-474-0171|815-530-4936","Claremore, Ok",OK,US,,,"","",""
"307-371-7157|432-305-7528","Tulsa, Ok",OK,US,,,"","",""
"Jim&#39;S Pilot Car Service 1 2 (Bucket Truck)","Oklahoma City, Ok",OK,US,,,"","",""
"A To B Pilot Car Escort Service","Sallisaw, Ok",OK,US,,,"height_pole, multiple_cars, steering","",""
"Gc Pilot Car Supply, LLC","Houston, Tx",OK,US,,,"height_pole, route_survey, multiple_cars, steering","",""
"620-272-4563|520-395-7739","Nationide",OK,US,,,"","",""
"Cars, 4 Steering","Waskom, Tx",OK,US,,,"","",""
"Shotgun Pilot Car Services, Inc.","Claremore",OK,US,815-474-0171,,"height_pole, multiple_cars","",""
"13 Years Experience","Paxton Inc.",OK,US,405-474-2181,,"","",""
"First Response Pilot Car 1 4 (Tx Flagger)","Oklahoma City",OK,US,918-856-6160,,"","",""
"Jim&#39;S Pilot Car Service 1 2 (Bucket Truck)","Sallisaw",OK,US,918-682-9636,,"","",""
"Rydell Pilot Car","Tulsa",OK,US,701-899-0173,,"height_pole, multiple_cars","Houston","TX"
"Reiland Pilot Car","Tulsa",OK,US,432-250-5439,,"route_survey","",""
"J & S Pilotcars 1/Twic","Woodward",OK,US,918-817-9447,,"WITPAC","",""
"Cars, 4 Steering","Woodward",OK,US,,,"","",""
"Full Service Pilot Car Company (18 Yrs. Exp.)","Woodward",OK,US,,,"","",""
"Route","Woodward",OK,US,,,"","",""
"Certified","Woodward",OK,US,,,"","",""
"Kirby Pilot/Escort Service | 405-812-1666 / 405-388-6036","Cards",OK,US,,,"","",""
"Arkansas","Rock Springs, Wy | D&E Brothers LLC | Tulsa, Ok",OK,US,,,"","",""
"Florida","Rock Springs, Wy | D&E Brothers LLC | Tulsa, Ok",OK,US,,,"","",""
"Iowa","Rock Springs, Wy | D&E Brothers LLC | Tulsa, Ok",OK,US,,,"","",""
"Maryland","Rock Springs, Wy | D&E Brothers LLC | Tulsa, Ok",OK,US,,,"","",""
"Missouri","Rock Springs, Wy | D&E Brothers LLC | Tulsa, Ok",OK,US,,,"","",""
"New Jersey","Rock Springs, Wy | D&E Brothers LLC | Tulsa, Ok",OK,US,,,"","",""
"Ohio","Rock Springs, Wy | D&E Brothers LLC | Tulsa, Ok",OK,US,,,"","",""
"South Carolina","Rock Springs, Wy | D&E Brothers LLC | Tulsa, Ok",OK,US,,,"","",""
"Vermont","Rock Springs, Wy | D&E Brothers LLC | Tulsa, Ok",OK,US,,,"","",""
"Wyoming","Rock Springs, Wy | D&E Brothers LLC | Tulsa, Ok",OK,US,,,"","",""
"Lead/ Chase/ Height Pole/ Steering","Wa & Ny Cert. / Tx Flagging Cert.",OR,US,,,"","",""
"Related To Your Account (2/Mo. Max).","Pilot Cars",OR,US,,,"","",""
"Sacramento, San Francisco & All California","(La,Ms,Ar Only)",OR,US,,,"","",""
"Gary’S Pilot Car Dispatch","Salem, Oregon",OR,US,,,"height_pole, route_survey, multiple_cars","",""
"Northwest Pilot Cars","Beaverton / Portland / Salem, Or",OR,US,,https://www.facebook.com/orpilotmisty,"height_pole","",""
"541-823-7039/209-349-2712","Ontario, Or",OR,US,,,"","",""
"1st American Pilot Cars LLC","Meridian, Id / Ontario, Or",OR,US,,,"height_pole, route_survey, multiple_cars, steering","",""
"503-645-4276/503-553-9944","Vancouver / Seattle / Tacoma, Wa",OR,US,,,"","",""
"Best Choice, Inc..","Jerome, Id",OR,US,,,"height_pole, steering","",""
"Pilot Car Co.","Portland, Or",OR,US,,http://pilotcarco.com/,"height_pole, route_survey, multiple_cars","",""
"Bryant Enterprises Pilot Car Svc.","Beaverton / Portland / Salem, Or",OR,US,,,"height_pole, multiple_cars","",""
"Nomad Piloting Services","Spokane, Wa",OR,US,,https://nomad-piloting-services.business.site/,"height_pole","",""
"Absolute Pilot & Flagging 1 4 Flagging","Bellingham, Wa",OR,US,,,"","",""
"Marwan’S Pilot Car Svc. 1020304","Post Falls, Id",OR,US,,,"","",""
"Cars, 4 Steering","Sacramento, Ca",OR,US,,,"","",""
"Pilot Car Co.","Beaverton",OR,US,503-775-6250,http://pilotcarco.com/,"height_pole, route_survey, multiple_cars","Portland, Salem, Vancouver","WA"
"Gary’S Pilot Car Dispatch","Beaverton",OR,US,503-775-6250,http://pilotcarco.com/,"height_pole, route_survey, multiple_cars","Portland, Salem, Vancouver","WA"
"Choice Pilot Car Service","Biggs Junction",OR,US,503-303-8552,,"height_pole, route_survey, multiple_cars, steering","Medford, Umatilla",""
"1st Amber Lights Pilot Car","Boring",OR,US,503-310-0423,,"","",""
"Just A Drop In A Bucket","Hermiston",OR,US,541-701-1371,,"","",""
"Absolute Pilot And Flagging 1 4 Flagging","Jefferson",OR,US,503-269-6705,,"","",""
"N & H Pilot Car Service","Ontario / Pendleton",OR,US,541-910-5423,,"height_pole, route_survey, multiple_cars","",""
"Best Choice, Inc..","Ontario",OR,US,503-857-2556,,"height_pole, steering","Portland, Spokane Area, Tacoma Area, Vancouver","WA"
"Northwest Pilot Cars","Ontario",OR,US,541-823-7039,https://www.facebook.com/orpilotmisty,"height_pole","",""
"1st American Pilot Cars LLC 1 2 34","Portland",OR,US,503-645-4276,,"","",""
"Ian&#39;S Pilot Car","Portland",OR,US,503-936-0620,,"","",""
"Lynne&#39;S Pilot Car","Redmond",OR,US,541-419-1241,,"height_pole","",""
"1st American Pilot Cars LLC","Salem",OR,US,503-645-4276,,"height_pole, route_survey, multiple_cars, steering","",""
"Cars, 4 Steering","Umatilla",OR,US,,,"","",""
"Alaska","Umatilla",OR,US,,,"","",""
"Connecticut","Umatilla",OR,US,,,"","",""
"Illinois","Umatilla",OR,US,,,"","",""
"Louisiana","Umatilla",OR,US,,,"","",""
"Minnesota","Umatilla",OR,US,,,"","",""
"Nevada","Umatilla",OR,US,,,"","",""
"North Carolina","Umatilla",OR,US,,,"","",""
"Pennsylvania","Umatilla",OR,US,,,"","",""
"Texas","Umatilla",OR,US,,,"","",""
"West Virginia","Umatilla",OR,US,,,"","",""
"Lead/ Chase/ Height Pole/ Steering","Wa & Ny Cert. / Tx Flagging Cert.",PA,US,,,"","",""
"304-437-0403 Call 24/7","Load Chasers Pilot Car Service",PA,US,,,"","",""
"Ny Nj Routing & Pilot Cars","Easton, Pa",PA,US,,,"height_pole, route_survey, multiple_cars","",""
"Jka Express Pilot Car Svc.","Rockwood, Mi",PA,US,,,"multiple_cars, steering","",""
"Tcb Escorts LLC","Callao, Va",PA,US,,,"multiple_cars","",""
"Runaway PCS LLC 3, Cdl A, Twic,","Jackson, Ms",PA,US,,,"WITPAC","",""
"Apples And Oranges Pilots 1 2 Flagging","Harrisburg, Pa",PA,US,,,"","",""
"Abc Colt 1 2 3 4, Cevo (+ Bucket Truck)","Savannah, Ga",PA,US,,,"WITPAC","",""
"Muthers Permits & Pilot Cars","Erie, Pa",PA,US,,,"height_pole, route_survey, multiple_cars","",""
"718-351-0298/718-351-0294","Howell Township, Nj",PA,US,301-458-0111,,"","",""
"Tri-State Area- 718-351-0298/718-351-0294","Load Chasers Pilot Car Service",PA,US,,,"","",""
"Nationwide Services * 301-458-0111","Sagan Express Pilot Services",PA,US,,,"","",""
"Open Road Pilot Car Services Cevo,","Easton",PA,US,908-329-0397,,"route_survey","",""
"Runaway PCS LLC 3, Cdl A, Twic,","Harrisburg",PA,US,570-516-4112,,"WITPAC","",""
"Classic Transport Co.","Philadelphia",PA,US,484-620-7469,http://classictransportcompany.com/,"height_pole, steering","",""
"Cars, 4 Steering","Hughes Eastern Pilot Car Sevices LLC Cevo",PA,US,,,"","",""
"Specializing In Tri-State Area Of Va, Md, Dc (Will Go Nationwide)","Hughes Eastern Pilot Car Sevices LLC Cevo",PA,US,,,"","",""
"Pilots For The Ny Metro Area","Lead / Chase / Steer*Multiple Cars",PA,US,,,"","",""
"Alaska","Lead / Chase / Steer*Multiple Cars",PA,US,,,"","",""
"Connecticut","Lead / Chase / Steer*Multiple Cars",PA,US,,,"","",""
"Illinois","Lead / Chase / Steer*Multiple Cars",PA,US,,,"","",""
"Louisiana","Lead / Chase / Steer*Multiple Cars",PA,US,,,"","",""
"Minnesota","Lead / Chase / Steer*Multiple Cars",PA,US,,,"","",""
"Nevada","Lead / Chase / Steer*Multiple Cars",PA,US,,,"","",""
"North Carolina","Lead / Chase / Steer*Multiple Cars",PA,US,,,"","",""
"Pennsylvania","Lead / Chase / Steer*Multiple Cars",PA,US,,,"","",""
"Texas","Lead / Chase / Steer*Multiple Cars",PA,US,,,"","",""
"West Virginia","Lead / Chase / Steer*Multiple Cars",PA,US,,,"","",""
"Lead/ Chase/ Height Pole/ Steering","Wa & Ny Cert. / Tx Flagging Cert.",RI,US,,,"","",""
"Mobile Fax, Gps, Web-Cam | Volume Discounts | The Highest Standards","(La,Ms,Ar Only)",RI,US,,,"","",""
"Cars, 4 Steering, 5","Providence",RI,US,,,"WITPAC","",""
"California","Providence",RI,US,,,"","",""
"Georgia","Providence",RI,US,,,"","",""
"Kansas","Providence",RI,US,,,"","",""
"Massachusetts","Providence",RI,US,,,"","",""
"Montana","Providence",RI,US,,,"","",""
"New Mexico","Providence",RI,US,,,"","",""
"Oklahoma","Providence",RI,US,,,"","",""
"South Dakota","Providence",RI,US,,,"","",""
"Virginia","Providence",RI,US,,,"","",""
"Lead/ Chase/ Height Pole/ Steering","Wa & Ny Cert. / Tx Flagging Cert.",SC,US,,,"","",""
"Related To Your Account (2/Mo. Max).","Pilot Cars",SC,US,,,"","",""
"Bruno&#39;S Pilot Car Escort Service LLC","(La,Ms,Ar Only)",SC,US,,,"","",""
"Roadway Pilots LLC","Jacksonville / Green Cove Springs, Fl",SC,US,,http://www.roadwaypilots.com/,"height_pole, route_survey, multiple_cars","",""
"Vadim V Pilot Escort Svc. Permits/5","Fort Mill, Sc",SC,US,,,"","",""
"Al&#39;S Pilot Car","Savannah, Ga",SC,US,,,"","",""
"352-258-5888 / 352- 258-0411","Gainesville, Fl",SC,US,,,"","",""
"Carolina Reo Services","Johnson City, Tn",SC,US,,http://www.carolinareoservices.com/,"height_pole, multiple_cars","",""
"Cars, 4 Steering, 5","Charlotte, Nc",SC,US,,,"WITPAC","",""
"Chizel&#39;S Flag Car","Charleston",SC,US,843-307-3967,,"multiple_cars","",""
"T & T Pilot Car","Columbia",SC,US,843-309-4026,,"multiple_cars","",""
"Roadway Pilots LLC","Fort Mill",SC,US,704-492-3643,http://www.roadwaypilots.com/,"height_pole, route_survey, multiple_cars","",""
"R2 Flag Car Service LLC","Gilbert",SC,US,803-530-9518,,"height_pole, route_survey, multiple_cars","",""
"Vadim V Pilot Escort Services Permits 5","Columbia",SC,US,916-955-8647,,"","",""
"Cars, 4 Steering, 5","Rock Hill",SC,US,,,"WITPAC","",""
"California","Rock Hill",SC,US,,,"","",""
"Georgia","Rock Hill",SC,US,,,"","",""
"Kansas","Rock Hill",SC,US,,,"","",""
"Massachusetts","Rock Hill",SC,US,,,"","",""
"Montana","Rock Hill",SC,US,,,"","",""
"New Mexico","Rock Hill",SC,US,,,"","",""
"Oklahoma","Rock Hill",SC,US,,,"","",""
"South Dakota","Rock Hill",SC,US,,,"","",""
"Virginia","Rock Hill",SC,US,,,"","",""
"Lead/ Chase/ Height Pole/ Steering","Wa & Ny Cert. / Tx Flagging Cert.",SD,US,,,"","",""
"Related To Your Account (2/Mo. Max).","Pilot Cars",SD,US,,,"","",""
"Sioux Falls, Sd | Midwest Pilot Cars | 605-670-9654","(La,Ms,Ar Only)",SD,US,,,"","",""
"Landriault Transport Inc.. | 701-240-4969","(La,Ms,Ar Only)",SD,US,,,"","",""
"Height Pole, Route Surveys, Multiple Vehicles, Bucket Trucks","Granville, Nd",SD,US,,,"","",""
"Burns/Cheyenne, Wy| 307-477-7771","East West Pilot Car Service, LLC",SD,US,,,"","",""
"Height Pole | Route Surveys | 10 Cars | Steering | Twic","Milwaukee, Wi | Aumor Inc..",SD,US,,,"","",""
"Midwest Pilot Cars","Rapid City, Sd",SD,US,,http://midwestpilotcars.com/,"height_pole, route_survey, multiple_cars, steering","",""
"T6 Pilot Car Services","Sioux Falls, Sd",SD,US,,,"height_pole, route_survey, multiple_cars","",""
"307-920-2023/307-371-2747","Greeley, Co / Cheyenne, Wy",SD,US,,,"","",""
"Landriault Transport Inc.. 1 2 3 Bucket Trucks","Norfolk, Ne",SD,US,,,"","",""
"Big Dog Services, Inc.","Granville, Nd",SD,US,,http://bigdogservices.us/,"height_pole, route_survey","",""
"Chance It Pilot Service LLC 1 2 3 5","Brighton / Fort Collins, Co",SD,US,,,"","",""
"Northern States Trucking Inc.","Jamestown, Nd",SD,US,,,"height_pole, route_survey, multiple_cars","",""
"Big Sky Pilots","Fargo, Nd",SD,US,,http://bigskypilots.com/,"height_pole, route_survey, multiple_cars, steering","",""
"Hot & Cold Pilot Service","Moorcroft, Wy",SD,US,,,"height_pole","",""
"Mid-America Pilot Cars","Yankton, Sd",SD,US,,,"route_survey, multiple_cars","",""
"Aumor Inc.. 1 2 3 4 Twic","Grand Island, Ne",SD,US,,,"","",""
"Cars, 4 Steering","Milwaukee, Wi",SD,US,,,"","",""
"Dalaine&#39;S Pilotcar","Rapid City",SD,US,605-545-2930,,"","",""
"Cars, 4 Steering","Wewela",SD,US,,,"","",""
"California","Milwaukee, Wi | Aumor Inc..",SD,US,,,"","",""
"Georgia","Milwaukee, Wi | Aumor Inc..",SD,US,,,"","",""
"Kansas","Milwaukee, Wi | Aumor Inc..",SD,US,,,"","",""
"Massachusetts","Milwaukee, Wi | Aumor Inc..",SD,US,,,"","",""
"Montana","Milwaukee, Wi | Aumor Inc..",SD,US,,,"","",""
"New Mexico","Milwaukee, Wi | Aumor Inc..",SD,US,,,"","",""
"Oklahoma","Milwaukee, Wi | Aumor Inc..",SD,US,,,"","",""
"South Dakota","Milwaukee, Wi | Aumor Inc..",SD,US,,,"","",""
"Virginia","Milwaukee, Wi | Aumor Inc..",SD,US,,,"","",""
"Lead/ Chase/ Height Pole/ Steering","Wa & Ny Cert. / Tx Flagging Cert.",TN,US,,,"","",""
"Related To Your Account (2/Mo. Max).","Pilot Cars",TN,US,,,"","",""
"Whispering Hills Pilot Cars LLC | 402-690-2100| Fax 712-486-2327","(La,Ms,Ar Only)",TN,US,,,"","",""
"Nationwide, Fast, Reliable, On-Time | 100 Yrs Combined Experience!","(La,Ms,Ar Only)",TN,US,,,"","",""
"Height Pole * Route Surveys * Steerman * Twic * Ny Cert.","We’Re Driving To Satisfy!",TN,US,,,"","",""
"First Response Pilot Cars","Chattanooga",TN,US,423-355-0213,https://firstresponsepilotcars.godaddysites.com/,"height_pole, route_survey, multiple_cars","",""
"Lane 3 Pilot Car 1 3 //Twic/Ny Cert./Cevo","Johnson City",TN,US,907-957-0107,,"WITPAC","",""
"K-Town Pilot Car 1 3 /Flagging/Twic","Knoxville",TN,US,865-567-7301,,"","",""
"C & K Pilot Car Service 1 2 3/ Nc Tunnels/Flagging","Knoxville",TN,US,865-770-8203,,"","",""
"Spartan Pilot Car Services 1 2 3 4 Twic/","Memphis",TN,US,904-903-9300,,"WITPAC","",""
"Cars, 4 Steering","Williamson Pilot Car Service",TN,US,,,"","",""
"Height Pole | Route Surveys | 10 Cars | Steering | Twic","Milwaukee, Wi | Aumor Inc..",TN,US,,,"","",""
"Alabama","Milwaukee, Wi | Aumor Inc..",TN,US,,,"","",""
"Colorado","Milwaukee, Wi | Aumor Inc..",TN,US,,,"","",""
"Idaho","Milwaukee, Wi | Aumor Inc..",TN,US,,,"","",""
"Kentucky","Milwaukee, Wi | Aumor Inc..",TN,US,,,"","",""
"Michigan","Milwaukee, Wi | Aumor Inc..",TN,US,,,"","",""
"Nebraska","Milwaukee, Wi | Aumor Inc..",TN,US,,,"","",""
"New York","Milwaukee, Wi | Aumor Inc..",TN,US,,,"","",""
"Oregon","Milwaukee, Wi | Aumor Inc..",TN,US,,,"","",""
"Tennessee","Milwaukee, Wi | Aumor Inc..",TN,US,,,"","",""
"Washington","Milwaukee, Wi | Aumor Inc..",TN,US,,,"","",""
"Lead/ Chase/ Height Pole/ Steering","Wa & Ny Cert. / Tx Flagging Cert.",TX,US,,,"","",""
"Related To Your Account (2/Mo. Max).","Pilot Cars",TX,US,,,"","",""
"Houston, Tx | Midwest Pilot Cars | 605-670-9654","(La,Ms,Ar Only)",TX,US,,,"","",""
"Jacksonville, Fl| (904)699-0435 |Pensacola, Fl","Dale Dealing Pilot Escort Service",TX,US,,,"","",""
"815-474-0171 | 815-530-4936","Shotgun Pilot Car Services, Inc.",TX,US,,,"","",""
"Certified | (432) 250-5865 |Insured","New-Tex Pilot Services",TX,US,,,"","",""
"San Antonio/Austn, Tx | Js Pilot Car | 210-861-4221","New-Tex Pilot Services",TX,US,,,"","",""
"Hp/Rt. Survey/ Multi Cars/Flagger Cert.| Amber Permits- Nv, Ga","New-Tex Pilot Services",TX,US,,,"","",""
"Highly Experienced * Height Pole * Route Surveys * Steering","New-Tex Pilot Services",TX,US,,,"","",""
"Jackson, Ms | Tcb Escorts LLC | 601-612-0106","Steering * All Credit Cards",TX,US,,,"","",""
"A To B Pilot Car Escort Service","Oklahoma City, Ok",TX,US,,,"height_pole, multiple_cars, steering","",""
"J & W Torrence Pilot Car 1 4","Denison / Dallas, Tx",TX,US,,,"WITPAC","",""
"Gc Pilot Car Supply, LLC","Waskom / Longview / Carthage, Tx",TX,US,,,"height_pole, route_survey, multiple_cars, steering","",""
"620-272-4563 | 520-395-7739","Nationide",TX,US,,,"","",""
"Tcb Escorts LLC","Brighton / Fort Collins, Co",TX,US,,,"multiple_cars, height_pole, steering","",""
"Shotgun Pilot Car Services, Inc.","Jackson, Ms",TX,US,,,"height_pole, multiple_cars","",""
"815-474-0171|815-530-4936","Claremore, Ok",TX,US,,,"","",""
"Hartsfield Escort & PCS.","Waskom, Tx",TX,US,,,"height_pole, multiple_cars","",""
"Dale Dealing Pilot Escort Svc.","Houston, Tx",TX,US,,,"height_pole, route_survey, multiple_cars, steering","",""
"(904)699-0435","Jacksonville / Pensacola, Fl",TX,US,,,"","",""
"Dark Horse Pilot Car Services","Midland / Lubbock / Pecos / Odessa, Tx",TX,US,,,"height_pole, steering","",""
"(386)225-1731","Fort Wayne, In",TX,US,,,"","",""
"Principles Pilot Car","Sallisaw, Ok",TX,US,,,"height_pole","",""
"Js Pilot Car","Woodward, Ok",TX,US,,,"height_pole, multiple_cars","",""
"Frog Truck Escort","San Antonio / Austin, Tx",TX,US,,http://www.louisianafrog.com/,"height_pole, route_survey, steering","",""
"C & H Pilot Transport, LLC 1 2 4","Waskom, Tx",TX,US,,,"WITPAC","",""
"Coast2coast 1 2 3 Flagger","Norfolk, Ne",TX,US,,,"","",""
"Hunter&#39;S Pilot Car LLC","Northeast La",TX,US,,http://hunterspilotcar.com/,"","",""
"Cars, 4 Steering","Anderson, In",TX,US,,,"","",""
"Southern Sky PCS, LLC","Amarillo",TX,US,806-690-2613,,"steering","",""
"& I-40","Amarillo",TX,US,,,"","",""
"Minutes Away","Amarillo",TX,US,806-803-2590,,"","",""
"Free Hot Breakfast","Amarillo",TX,US,,,"","",""
"Js Pilot Car","Austin / Sa",TX,US,210-861-4221,,"height_pole, multiple_cars","Sa / Austin",""
"Free","Borger",TX,US,,,"","",""
"Hot Shots Pilot Car","Belton",TX,US,254-228-3042,http://www.hotshotstx.com/,"height_pole, route_survey, multiple_cars, steering","",""
"Carrie&#39;S Pilot Car","Brownwood",TX,US,432-638-6569,,"multiple_cars","",""
"Texas Best Escorts","Cleveland",TX,US,281-592-0461,,"height_pole","",""
"Texaspilotcar.Com 1 2 3","Corsicana",TX,US,903-654-9759,,"","",""
"Stumpy&#39;S Pilot Car LLC","Denton",TX,US,682-472-6935,,"WITPAC","",""
"1712 S Dumas Ave.","Dumas",TX,US,806-935-0212,,"","",""
"I-10 Exit 11","El Paso",TX,US,,,"","",""
"El Paso West Bartlett","El Paso",TX,US,915-585-2999,,"","",""
"Free Hot Breakfast","El Paso",TX,US,,,"","",""
"Mid States Pilot Cars 1 2 3","Frisco",TX,US,469-352-8515,,"WITPAC","",""
"A To B Pilot Car Escort Service","Houston",TX,US,281-923-8136,,"height_pole, multiple_cars","",""
"Snapshot Escorts PCS","Houston",TX,US,254-709-1391,,"height_pole","Waco",""
"Hunter&#39;S Pilot Car LLC","Odessa",TX,US,432-924-2289,http://hunterspilotcar.com/,"","",""
"L&B Pilot/Escort Service","Sherman",TX,US,541-530-2805,,"route_survey","",""
"Cover Service","Waskom",TX,US,469-649-4118,,"height_pole, steering","",""
"Cars, 4 Steering","Ba’S Pilot Car Service",TX,US,,,"","",""
"Odessa, Tx | Hunter&#39;S PilOt Car LLC | 432-924-2289","New-Tex Pilot Services",TX,US,,,"","",""
"Certified","New-Tex Pilot Services",TX,US,,http://www.louisianafrog.com/,"","",""
"Permits * Bucket Trucks * Route Surveys * Steerman","Cards",TX,US,,https://www.c2cescorts.com/,"","",""
"Arkansas","Cards",TX,US,,,"","",""
"Florida","Cards",TX,US,,,"","",""
"Iowa","Cards",TX,US,,,"","",""
"Maryland","Cards",TX,US,,,"","",""
"Missouri","Cards",TX,US,,,"","",""
"New Jersey","Cards",TX,US,,,"","",""
"Ohio","Cards",TX,US,,,"","",""
"South Carolina","Cards",TX,US,,,"","",""
"Vermont","Cards",TX,US,,,"","",""
"Wyoming","Cards",TX,US,,,"","",""
"Lead/ Chase/ Height Pole/ Steering","Wa & Ny Cert. / Tx Flagging Cert.",UT,US,,,"","",""
"Related To Your Account (2/Mo. Max).","Pilot Cars",UT,US,,,"","",""
"307-277-5895 / 801-870-6382","Casper, Wy",UT,US,,,"","",""
"T Bar M Inc.. (Pilot Car Div.)","Vernal, Ut",UT,US,,,"height_pole, route_survey, multiple_cars","",""
"D&E Brothers LLC 1 2 4 Permits /Wipac/Twic","Reno, Nv",UT,US,,,"","",""
"307-371-7157/ 432-305-7528","Rock Springs, Wy",UT,US,,,"","",""
"Chance It Pilot Service LLC 1 2 3 5","Cortez, Co",UT,US,,,"","",""
"Valid Transportation & PCS 1234","Casper. Wy",UT,US,,,"","",""
"Marwan’S Pilot Car Svc. 1020304","Madera, Ca",UT,US,,,"","",""
"Frontier Pilot Services, LLC","Phoenix / Casa Grande, Az",UT,US,,,"height_pole, route_survey, multiple_cars","",""
"Little Ladies Pilot Car","Cheyenne, Wy",UT,US,,,"multiple_cars","",""
"Mountain Valley Pilot Car LLC","Salt Lake City, Ut",UT,US,,,"height_pole, route_survey, multiple_cars","",""
"Smileys Escort Service","Canon City, Co",UT,US,,,"height_pole, multiple_cars","",""
"Loveland Pilot Car","Pocatello, Id",UT,US,,,"height_pole, multiple_cars","",""
"Hartsfield Escort & PCS.","Holbrook / Flagstaff / Payson, Az",UT,US,,,"height_pole, multiple_cars","",""
"Services Rendered: 1 Height Pole, 2 Route Survey, 3 Multiple Cars, 4 Steering","Farmington, Nm",UT,US,,,"","",""
"Little Ladies Pilot Car","Salt Lake City",UT,US,385-392-6193,,"multiple_cars","",""
"Services Rendered: 1 Height Pole, 2 Route Survey, 3 Multiple Cars, 4 Steering","Wendover",UT,US,,,"","",""
"Cedar City, Ut | Liberty Pilot Car Service LLC | 435-383-7385","Wendover",UT,US,,,"","",""
"307-371-7157 | 432-305-7528","Rock Springs, Wy | D&E Brothers LLC",UT,US,,,"","",""
"Sacramento, San Francisco & All California","Rock Springs, Wy | D&E Brothers LLC",UT,US,,,"","",""
"Cedar City, Ut| Liberty Pilot Car Service LLC | 435-383-7385","We’Ll Get You Where You’Re Going!!!!!!",UT,US,,,"","",""
"Cheyenne | Frontier Pilot Services, LLC | 307-632-6409","Specializing In Southern Utah & Southern Nevada",UT,US,,,"","",""
"970-274-1337 | 970-948-4276 | Denver- 303-667-7007","Rifle, Co | Two Pistols Pilot Escort Services",UT,US,,,"","",""
"Serving California & The Western Us * Height Pole * Route Surveys","“Your Loads Are Safe & Sound With Us!”",UT,US,,,"","",""
"Alabama","“Your Loads Are Safe & Sound With Us!”",UT,US,,,"","",""
"Colorado","“Your Loads Are Safe & Sound With Us!”",UT,US,,,"","",""
"Idaho","“Your Loads Are Safe & Sound With Us!”",UT,US,,,"","",""
"Kentucky","“Your Loads Are Safe & Sound With Us!”",UT,US,,,"","",""
"Michigan","“Your Loads Are Safe & Sound With Us!”",UT,US,,,"","",""
"Nebraska","“Your Loads Are Safe & Sound With Us!”",UT,US,,,"","",""
"New York","“Your Loads Are Safe & Sound With Us!”",UT,US,,,"","",""
"Oregon","“Your Loads Are Safe & Sound With Us!”",UT,US,,,"","",""
"Tennessee","“Your Loads Are Safe & Sound With Us!”",UT,US,,,"","",""
"Washington","“Your Loads Are Safe & Sound With Us!”",UT,US,,,"","",""
"Lead/ Chase/ Height Pole/ Steering","Wa & Ny Cert. / Tx Flagging Cert.",VT,US,,,"","",""
"Cars, 4 Steering","(La,Ms,Ar Only)",VT,US,,,"","",""
"Cars, 4 Steering","Brattleboro",VT,US,,,"","",""
"Alabama","Brattleboro, Vt",VT,US,,,"","",""
"Colorado","Brattleboro, Vt",VT,US,,,"","",""
"Idaho","Brattleboro, Vt",VT,US,,,"","",""
"Kentucky","Brattleboro, Vt",VT,US,,,"","",""
"Michigan","Brattleboro, Vt",VT,US,,,"","",""
"Nebraska","Brattleboro, Vt",VT,US,,,"","",""
"New York","Brattleboro, Vt",VT,US,,,"","",""
"Oregon","Brattleboro, Vt",VT,US,,,"","",""
"Tennessee","Brattleboro, Vt",VT,US,,,"","",""
"Washington","Brattleboro, Vt",VT,US,,,"","",""
"Lead/ Chase/ Height Pole/ Steering","Wa & Ny Cert. / Tx Flagging Cert.",VA,US,,,"","",""
"Related To Your Account (2/Mo. Max).","Pilot Cars",VA,US,,,"","",""
"304-437-0403 Call 24/7","Load Chasers Pilot Car Service",VA,US,,,"","",""
"Jka Express Pilot Car Svc.","Callao",VA,US,804-238-8216,,"multiple_cars, steering","",""
"A 2 Z Pilot Car Service","Woodbridge",VA,US,703-898-8718,,"height_pole, multiple_cars","",""
"Cars, 4 Steering","Woodbridge",VA,US,,,"","",""
"Roadway Pilots LLC","Lynchburg, Va",VA,US,,http://www.roadwaypilots.com/,"height_pole, multiple_cars","",""
"Jka Express Pilot Car Svc.","Washington, Dc / Ft. Mill, Sc",VA,US,,,"multiple_cars, steering","",""
"M & R Flag Cars LLC","Hamlin, Wv",VA,US,,,"multiple_cars","",""
"Tag & Title At Hilltop, P.E.V.O.","Charleston, Wv",VA,US,,,"height_pole, route_survey, multiple_cars","",""
"202-826-0186 / 240-858-2730","Alexandria, Va",VA,US,,,"","",""
"352-258-5888 / 352- 258-0411","Gainesville, Fl",VA,US,,,"","",""
"Abc Colt 3 (+ Bucket Truck)","Johnson City, Tn",VA,US,,,"","",""
"Carolina Reo Services","Buffalo, Ny",VA,US,,http://www.carolinareoservices.com/,"height_pole, multiple_cars","",""
"A 2 Z Pilot Car Service","Charlotte, Nc",VA,US,,,"height_pole, multiple_cars","",""
"Spartan Pilot Car Services 1 2 3 4 Twic/","Woodbridge, Va",VA,US,,,"WITPAC","",""
"Apples And Oranges Pilots 1 2 Flagging","Memphis, Tn",VA,US,,,"","",""
"Nationwide Services * 301-458-0111","Sagan Express Pilot Services",VA,US,,,"","",""
"Mid-Atlantic Region - O: (202)826-0186 / C: (240)858-2730","Tag & Title At Hilltop, P.E.V.O.",VA,US,,,"","",""
"Alabama","Lead / Chase / Steer*Multiple Cars",VA,US,,,"","",""
"Colorado","Lead / Chase / Steer*Multiple Cars",VA,US,,,"","",""
"Idaho","Lead / Chase / Steer*Multiple Cars",VA,US,,,"","",""
"Kentucky","Lead / Chase / Steer*Multiple Cars",VA,US,,,"","",""
"Michigan","Lead / Chase / Steer*Multiple Cars",VA,US,,,"","",""
"Nebraska","Lead / Chase / Steer*Multiple Cars",VA,US,,,"","",""
"New York","Lead / Chase / Steer*Multiple Cars",VA,US,,,"","",""
"Oregon","Lead / Chase / Steer*Multiple Cars",VA,US,,,"","",""
"Tennessee","Lead / Chase / Steer*Multiple Cars",VA,US,,,"","",""
"Washington","Lead / Chase / Steer*Multiple Cars",VA,US,,,"","",""
"Lead/ Chase/ Height Pole/ Steering","Wa & Ny Cert. / Tx Flagging Cert.",WA,US,,,"","",""
"Related To Your Account (2/Mo. Max).","Pilot Cars",WA,US,,,"","",""
"Best Choice, Inc..","(La,Ms,Ar Only)",WA,US,,,"height_pole, steering","",""
"Best Choice, Inc..-","Tacoma, Wa",WA,US,,,"height_pole, steering","",""
"Pilot Car Co.","Spokane Area, Wa",WA,US,,http://pilotcarco.com/,"height_pole, route_survey, multiple_cars","",""
"Bryant Enterprises Pilot Car Svc.","Vancouver, Wa",WA,US,,,"height_pole, multiple_cars","",""
"Pilot Car Dispatch, LLC","Spokane, Wa",WA,US,,,"height_pole, multiple_cars","",""
"Best Choice, Inc..","Wenatchee, Wa",WA,US,,,"height_pole, steering","",""
"Gary’S Pilot Car Dispatch","Tacoma Area, Wa",WA,US,,http://pilotcarco.com/,"height_pole, route_survey, multiple_cars","",""
"Nomad Piloting Services","Vancouver, Wa",WA,US,,https://nomad-piloting-services.business.site/,"height_pole","",""
"Northwest Pilot Cars","Bellingham, Wa",WA,US,,https://www.facebook.com/orpilotmisty,"height_pole","",""
"541-823-7039/209-349-2712","Ontario, Or",WA,US,,,"","",""
"Gary&#39;S Pilot Car Dispatch | 503.775.6250 | 24 Hours","Post Falls, Id",WA,US,,,"","",""
"Nomad Piloting Services","Bellingham",WA,US,360-820-8388,https://nomad-piloting-services.business.site/,"height_pole","",""
"Just A Call Away!","Auto Pilot LLC",WA,US,360-430-5021,,"","",""
"Ravenroute Pilot Support.","Pasco",WA,US,509-416-6162,,"","",""
"C & C Pilot Escorting","Seattle / Tacoma",WA,US,206-372-7206,,"height_pole, route_survey","",""
"Bryant Enterprises Pilot Car Svc.","Spokane",WA,US,509-994-6690,,"height_pole, multiple_cars","",""
"Choice Pilot Car Service","Tacoma",WA,US,206-414-7405,,"height_pole, route_survey, multiple_cars, steering","Vancouver",""
"Pilot Car Dispatch, LLC","Wenatchee",WA,US,509-630-9132,,"height_pole, route_survey, multiple_cars","",""
"Cars , 4 Steering","Wenatchee",WA,US,,,"","",""
"California","Wenatchee",WA,US,,,"","",""
"Georgia","Wenatchee",WA,US,,,"","",""
"Kansas","Wenatchee",WA,US,,,"","",""
"Massachusetts","Wenatchee",WA,US,,,"","",""
"Montana","Wenatchee",WA,US,,,"","",""
"New Mexico","Wenatchee",WA,US,,,"","",""
"Oklahoma","Wenatchee",WA,US,,,"","",""
"South Dakota","Wenatchee",WA,US,,,"","",""
"Virginia","Wenatchee",WA,US,,,"","",""
"Lead/ Chase/ Height Pole/ Steering","Wa & Ny Cert. / Tx Flagging Cert.",WV,US,,,"","",""
"Related To Your Account (2/Mo. Max).","Pilot Cars",WV,US,,,"","",""
"304-437-0403 Call 24/7","Load Chasers Pilot Car Service",WV,US,,,"","",""
"Nationwide Services * 301-458-0111","Sagan Express Pilot Services",WV,US,,,"","",""
"Midwest Pilot Cars","So. Charleston, Wv",WV,US,,http://midwestpilotcars.com/,"height_pole, route_survey, multiple_cars, steering","",""
"Runaway PCS LLC 3, Cdl A, Twic,","Hamlin, Wv",WV,US,,,"WITPAC","",""
"A 2 Z Pilot Car Service","Charleston, Wv",WV,US,,,"height_pole, multiple_cars","",""
"M & R Flag Cars LLC","Woodbridge, Va",WV,US,,,"multiple_cars","",""
"Cars, 4 Steering","Charleston, Wv",WV,US,,,"","",""
"M & R Flag Cars LLC","Charleston",WV,US,304-549-8743,,"multiple_cars","",""
"Loew&#39;S Pilot Car Service","Morgantown",WV,US,304-639-6410,http://loewspilotcar.com/,"","Wheeling",""
"Next To Ta Wheeling (#032)","Triadelphia",WV,US,,,"","",""
"Fitness Center*Hot Breakfast","Comfort Inn & Suites",WV,US,304-547-0610,,"","",""
"Cars, 4 Steering","Wheeling",WV,US,,,"","",""
"California","Wheeling",WV,US,,,"","",""
"Georgia","Wheeling",WV,US,,,"","",""
"Kansas","Wheeling",WV,US,,,"","",""
"Massachusetts","Wheeling",WV,US,,,"","",""
"Montana","Wheeling",WV,US,,,"","",""
"New Mexico","Wheeling",WV,US,,,"","",""
"Oklahoma","Wheeling",WV,US,,,"","",""
"South Dakota","Wheeling",WV,US,,,"","",""
"Virginia","Wheeling",WV,US,,,"","",""
"Lead/ Chase/ Height Pole/ Steering","Wa & Ny Cert. / Tx Flagging Cert.",WI,US,,,"","",""
"Papaw&#39;S Pilot Service","Adair, Il",WI,US,,,"height_pole, route_survey, steering","",""
"Larry&#39;S Pilot Car Service","Indianapolis, In",WI,US,,,"","",""
"C & H Pilot Transport, LLC 1 2 4","Blaine, Mn",WI,US,,,"WITPAC","",""
"D & K Pilot Cars","Norfolk, Ne",WI,US,,,"height_pole, multiple_cars","",""
"Cars, 4 Steering","Holland, Mi",WI,US,,,"","",""
"North American Transport Svc. 1 2 3 4","Beloit",WI,US,217-860-2201,,"WITPAC","",""
"Whiskey Run Farms Pilot LLC","Janesville",WI,US,608-436-4302,,"height_pole, multiple_cars, steering","",""
"Cars, 4 Steering","Janesville",WI,US,,,"","",""
"California","Janesville",WI,US,,,"","",""
"Georgia","Janesville",WI,US,,,"","",""
"Kansas","Janesville",WI,US,,,"","",""
"Massachusetts","Janesville",WI,US,,,"","",""
"Montana","Janesville",WI,US,,,"","",""
"New Mexico","Janesville",WI,US,,,"","",""
"Oklahoma","Janesville",WI,US,,,"","",""
"South Dakota","Janesville",WI,US,,,"","",""
"Virginia","Janesville",WI,US,,,"","",""
"Lead/ Chase/ Height Pole/ Steering","Wa & Ny Cert. / Tx Flagging Cert.",WY,US,,,"","",""
"Related To Your Account (2/Mo. Max).","Pilot Cars",WY,US,,,"","",""
"970-274-1337 | 970-948-4276 | Denver- 303-667-7007","Rifle, Co | Two Pistols Pilot Escort Services",WY,US,,,"","",""
"701-240-4969 | Granville, Nd","Landriault Transport Inc..",WY,US,,,"","",""
"Burns/Cheyenne, Wy| 307-477-7771","East West Pilot Car Service, LLC",WY,US,,,"","",""
"307-371-7157 | 432-305-7528","Rock Springs, Wy | D&E Brothers LLC",WY,US,,,"","",""
"Multiple Cars * Height Pole * Route Surveys","Idaho * Montana * N. Dakota * S. Dakota",WY,US,,,"","",""
"Dalaine&#39;S Pilotcar","Casper, Wy",WY,US,,,"","",""
"Surefire Pilot, LLC","Rapid City, Sd",WY,US,,,"height_pole","",""
"Frontier Pilot Services, LLC","Pueblo, Co",WY,US,,,"height_pole, route_survey, multiple_cars","",""
"C & H Pilot Transport, LLC 1 2 4","Cheyenne, Wy",WY,US,,,"WITPAC","",""
"Mountain Valley Pilot Car LLC","Norfolk, Ne",WY,US,,,"height_pole, route_survey, multiple_cars","",""
"Big Dog Services, Inc.","Canon City, Co",WY,US,,http://bigdogservices.us/,"height_pole, route_survey","",""
"D&E Brothers LLC 1 2 4 5 Permits /Twic","Brighton / Fort Collins, Co",WY,US,,,"","",""
"307-371-7157/ 432-305-7528","Rock Springs, Wy",WY,US,,,"","",""
"Two Pistols Pilot Escort Services","Aurora, Co",WY,US,,http://www.pilotescortservices.com/,"height_pole, multiple_cars","",""
"Colorado Transport","Vernal, Ut",WY,US,,,"height_pole, route_survey","",""
"T6 Pilot Car Services","Fort Morgan, Co",WY,US,,,"height_pole, route_survey, multiple_cars","",""
"307-920-2023/307-371-2747","Greeley, Co / Cheyenne, Wy",WY,US,,,"","",""
"Landriault Transport Inc.. 1 2 3 Bucket Trucks","Moorcroft, Wy",WY,US,,,"","",""
"D/L Pilot Service","Granville, Nd",WY,US,,,"height_pole, route_survey, multiple_cars","",""
"Ps Piloting 1 2","Gillette, Wy",WY,US,,,"WITPAC","",""
"(397)970-6965","Greeley, Co / Cheyenne, Wy",WY,US,,,"","",""
"M & S Oilfield Service LLC","Casper",WY,US,435-790-7558,,"height_pole","",""
"Chance It Pilot Service LLC 1 2 3 5","Casper",WY,US,307-389-7285,,"","",""
"""Lil"" T&#39;S Pilot Service","Casper",WY,US,307-258-9244,,"height_pole, multiple_cars","",""
"Cheyenne Pilot Service","Cheyenne",WY,US,307-421-1898,,"height_pole, route_survey","",""
"Ornery’S Pilot Car LLC","Cheyenne",WY,US,303-517-8881,https://ornerys-pilot-car.business.site/,"height_pole, route_survey, multiple_cars","",""
"Frontier Pilot Services, LLC","Cheyenne",WY,US,307-632-6409,,"height_pole, route_survey","",""
"Ps Piloting 1 2","Greeley",WY,US,,,"WITPAC","",""
"All Dimensions PCS 1 4 5","Gillette",WY,US,,,"","",""
"D/L Pilot Service","Gillette",WY,US,307-680-4082,,"height_pole, route_survey, multiple_cars","",""
"Rogue Hotshots PCS LLC 5","Moorcroft",WY,US,307-351-2322,,"","",""
"D&E Brothers LLC 1 2 4 5 Permits /Twic","Rock Springs",WY,US,307-371-7157,,"","",""
"All-Ways Pilot Car Service, LLC","Gillette",WY,US,307-286-3618,,"height_pole, multiple_cars","",""
"H & H Services","Torrington",WY,US,406-861-8638,,"height_pole, route_survey","",""
"John Pichon Big Easy PCS 1 2 4 Twic","Wright",WY,US,985-640-3294,,"","",""
"Services Rendered: 1 Height Pole, 2 Route Survey, 3 Multiple Cars, 4 Steering","Wright",WY,US,,,"","",""
"Arkansas","Rock Springs, Wy | D&E Brothers LLC",WY,US,,,"","",""
"Florida","Rock Springs, Wy | D&E Brothers LLC",WY,US,,,"","",""
"Iowa","Rock Springs, Wy | D&E Brothers LLC",WY,US,,,"","",""
"Maryland","Rock Springs, Wy | D&E Brothers LLC",WY,US,,,"","",""
"Missouri","Rock Springs, Wy | D&E Brothers LLC",WY,US,,,"","",""
"New Jersey","Rock Springs, Wy | D&E Brothers LLC",WY,US,,,"","",""
"Ohio","Rock Springs, Wy | D&E Brothers LLC",WY,US,,,"","",""
"South Carolina","Rock Springs, Wy | D&E Brothers LLC",WY,US,,,"","",""
"Vermont","Rock Springs, Wy | D&E Brothers LLC",WY,US,,,"","",""
"Wyoming","Rock Springs, Wy | D&E Brothers LLC",WY,US,,,"","",""
"Lead/ Chase/ Height Pole/ Steering","Wa & Ny Cert. / Tx Flagging Cert.",AB,CA,,,"","",""
"Cars, 4 Steering","(La,Ms,Ar Only)",AB,CA,,,"","",""
"Available & Insured To Pilot Anywhere In Canada","Stillwater Pilot Service",AB,CA,780-512-1157,,"","",""
"Wildcat Pilotcar Services 2010 Ltd","Grand Prarie",AB,CA,888-345-5434,,"","",""
"S.A.M. Pilot Car Services","Wembley",AB,CA,780-814-4211,,"","",""
"Alabama","Wembley",AB,CA,,,"","",""
"Colorado","Wembley",AB,CA,,,"","",""
"Idaho","Wembley",AB,CA,,,"","",""
"Kentucky","Wembley",AB,CA,,,"","",""
"Michigan","Wembley",AB,CA,,,"","",""
"Nebraska","Wembley",AB,CA,,,"","",""
"New York","Wembley",AB,CA,,,"","",""
"Oregon","Wembley",AB,CA,,,"","",""
"Tennessee","Wembley",AB,CA,,,"","",""
"Washington","Wembley",AB,CA,,,"","",""
"Lead/ Chase/ Height Pole/ Steering","Wa & Ny Cert. / Tx Flagging Cert.",BC,CA,,,"","",""
"Cars, 4 Steering","(La,Ms,Ar Only)",BC,CA,,,"","",""
"Cars, 4 Steering","Rjw Enterprise Pilot Service",BC,CA,,,"","",""
"California","Rjw Enterprise Pilot Service",BC,CA,,,"","",""
"Georgia","Rjw Enterprise Pilot Service",BC,CA,,,"","",""
"Kansas","Rjw Enterprise Pilot Service",BC,CA,,,"","",""
"Massachusetts","Rjw Enterprise Pilot Service",BC,CA,,,"","",""
"Montana","Rjw Enterprise Pilot Service",BC,CA,,,"","",""
"New Mexico","Rjw Enterprise Pilot Service",BC,CA,,,"","",""
"Oklahoma","Rjw Enterprise Pilot Service",BC,CA,,,"","",""
"South Dakota","Rjw Enterprise Pilot Service",BC,CA,,,"","",""
"Virginia","Rjw Enterprise Pilot Service",BC,CA,,,"","",""
"Lead/ Chase/ Height Pole/ Steering","Wa & Ny Cert. / Tx Flagging Cert.",NS,CA,,,"","",""
"Cars, 4 Steering","(La,Ms,Ar Only)",NS,CA,,,"","",""
"J & B Oversized Pilot/Escorting 124","New Glasgow",NS,CA,902-759-8055,,"","",""
"Cars, 4 Steering","New Glasgow",NS,CA,,,"","",""
"California","New Glasgow",NS,CA,,,"","",""
"Georgia","New Glasgow",NS,CA,,,"","",""
"Kansas","New Glasgow",NS,CA,,,"","",""
"Massachusetts","New Glasgow",NS,CA,,,"","",""
"Montana","New Glasgow",NS,CA,,,"","",""
"New Mexico","New Glasgow",NS,CA,,,"","",""
"Oklahoma","New Glasgow",NS,CA,,,"","",""
"South Dakota","New Glasgow",NS,CA,,,"","",""
"Virginia","New Glasgow",NS,CA,,,"","",""
"Lead/ Chase/ Height Pole/ Steering","Wa & Ny Cert. / Tx Flagging Cert.",ON,CA,,,"","",""
"Pilot Car Near Me","Kitchener",ON,CA,519-574-8914,https://pilotcarnearme.com/,"height_pole, multiple_cars","",""
"Services Rendered: 1 Height Pole, 2 Route Survey, 3 Multiple Cars, 4 Steering","Kitchener",ON,CA,,,"","",""
"Pilot Car Near Me","Southfield, Mi",ON,CA,,https://pilotcarnearme.com/,"height_pole, multiple_cars","",""
"Alabama","Kitchener, On",ON,CA,,,"","",""
"Colorado","Kitchener, On",ON,CA,,,"","",""
"Idaho","Kitchener, On",ON,CA,,,"","",""
"Kentucky","Kitchener, On",ON,CA,,,"","",""
"Michigan","Kitchener, On",ON,CA,,,"","",""
"Nebraska","Kitchener, On",ON,CA,,,"","",""
"New York","Kitchener, On",ON,CA,,,"","",""
"Oregon","Kitchener, On",ON,CA,,,"","",""
"Tennessee","Kitchener, On",ON,CA,,,"","",""
"Washington","Kitchener, On",ON,CA,,,"","",""
"Lead/ Chase/ Height Pole/ Steering","Wa & Ny Cert. / Tx Flagging Cert.",QC,CA,,,"","",""
"Alabama","(La,Ms,Ar Only)",QC,CA,,,"","",""
"Colorado","(La,Ms,Ar Only)",QC,CA,,,"","",""
"Idaho","(La,Ms,Ar Only)",QC,CA,,,"","",""
"Kentucky","(La,Ms,Ar Only)",QC,CA,,,"","",""
"Michigan","(La,Ms,Ar Only)",QC,CA,,,"","",""
"Nebraska","(La,Ms,Ar Only)",QC,CA,,,"","",""
"New York","(La,Ms,Ar Only)",QC,CA,,,"","",""
"Oregon","(La,Ms,Ar Only)",QC,CA,,,"","",""
"Tennessee","(La,Ms,Ar Only)",QC,CA,,,"","",""
"Washington","(La,Ms,Ar Only)",QC,CA,,,"","",""
"Lead/ Chase/ Height Pole/ Steering","Wa & Ny Cert. / Tx Flagging Cert.",SK,CA,,,"","",""
"Cars, 4 Steering","(La,Ms,Ar Only)",SK,CA,,,"","",""
"Cars, 4 Steering","Cara Dawn Transport Ltd",SK,CA,,,"","",""
"Height Pole, Route Surveys, Multiple Vehicles, Bucket Trucks","Granville, Nd",SK,CA,,,"","",""
"Alabama","Granville, Nd",SK,CA,,,"","",""
"Colorado","Granville, Nd",SK,CA,,,"","",""
"Idaho","Granville, Nd",SK,CA,,,"","",""
"Kentucky","Granville, Nd",SK,CA,,,"","",""
"Michigan","Granville, Nd",SK,CA,,,"","",""
"Nebraska","Granville, Nd",SK,CA,,,"","",""
"New York","Granville, Nd",SK,CA,,,"","",""
"Oregon","Granville, Nd",SK,CA,,,"","",""
"Tennessee","Granville, Nd",SK,CA,,,"","",""
"Washington","Granville, Nd",SK,CA,,,"","",""