name,city,region_code,country_code,phone,website,services,slug,claim_hash,claim_url,additional_cities,additional_regions
"C B Piloting Services, LLC","",AL,US,479-670-2176,,"",c-b-piloting-services-llc,7ca04b49b7973d09,https://haulcommand.com/claim/invite/7ca04b49b7973d09,"","AK;AZ;AR;CA;CO;CT;DE;FL;GA;ID;IL;IN;IA;KS;KY;LA;ME;MD;MA;MI;MN;MS;MO;MT;NE;NV;NH;NJ;NM;NY;NC;ND;OH;OK;OR;PA;RI;SC;SD;TN;TX;UT;VT;VA;WA;WV;WI;WY;AB;BC;NS;ON;QC;SK"
"Permits & Dispatching For The Entire United States","",AL,US,631-669-3742,,"",permits-dispatching-for-the-entire-united-states,ee04dad991bc6722,https://haulcommand.com/claim/invite/ee04dad991bc6722,"","AK;AZ;AR;CA;CO;CT;DE;FL;GA;ID;IL;IN;IA;KS;KY;LA;ME;MD;MA;MI;MN;MS;MO;MT;NE;NV;NH;NJ;NM;NY;NC;ND;OH;OK;OR;PA;RI;SC;SD;TN;TX;UT;VT;VA;WA;WV;WI;WY;AB;BC;NS;ON;QC;SK"
"Mobile, Al","",AL,US,251-957-2841,,"",mobile-al,e3e0768fed636feb,https://haulcommand.com/claim/invite/e3e0768fed636feb,"","FL;LA"
"Jacksonville/Green Cove Springs, Fl","",AL,US,904-607-3646,,"",jacksonvillegreen-cove-springs-fl,002493514b65eed8,https://haulcommand.com/claim/invite/002493514b65eed8,"Brunos Pilot Car Escort Svcs. LLC","FL;SC"
"Memphis, Tn","",AL,US,904-903-9300,,"",memphis-tn,5ce9e8b5fc3cda4f,https://haulcommand.com/claim/invite/5ce9e8b5fc3cda4f,"","AR;FL;IL;KY;VA"
"Gonzales /Baton Rouge, La","Gator’S Highway Escort Svcs, LLC",AL,US,504-610-4162,,"",gonzales-baton-rouge-la,ca5a1e696c2a57c0,https://haulcommand.com/claim/invite/ca5a1e696c2a57c0,"","LA;TX"
"Jackson, Ms","",AL,US,601-612-0106,,"",jackson-ms,d87bdb6a5c606184,https://haulcommand.com/claim/invite/d87bdb6a5c606184,"","AR;FL;LA;PA;TX"
"Chattanooga, Tn","",AL,US,423-355-0213,,"",chattanooga-tn,1ced8ce0bfd3cf48,https://haulcommand.com/claim/invite/1ced8ce0bfd3cf48,"","KY"
"Birmingham, Al","",AL,US,205-902-1738,,"",birmingham-al,d41f11fcdba552ae,https://haulcommand.com/claim/invite/d41f11fcdba552ae,"","FL"
"Decatur/Huntsville/Birmingham, Al","",AL,US,256-466-5265,,"",decaturhuntsvillebirmingham-al,ca68914df782f1ad,https://haulcommand.com/claim/invite/ca68914df782f1ad,"",""
"Birmingham, Al","",AL,US,205-299-0326,,"",birmingham-al,2b4e986817355c75,https://haulcommand.com/claim/invite/2b4e986817355c75,"",""
"Graham’S Pilot Car","Cars / National Service  
 
 
 
  A  
  L  
  A  
  B  
  A  
  M  
  A  
     
  P  
  I  
  L  
  O  
  T  
     
  C  
  A  
  R  
  S  
 
 
  A  
  L  
  A  
  B  
  A  
  M  
  A  
     
 
 
     
     
     
 
 
 
     
         
               
             Mobile",AL,US,251-957-2841,,"",grahams-pilot-car,e586615b241401ac,https://haulcommand.com/claim/invite/e586615b241401ac,"",""
"Yuma, Az","Cwt",AZ,US,928-920-7350,,"",yuma-az,aab6e1b630612179,https://haulcommand.com/claim/invite/aab6e1b630612179,"",""
"Yuma, Az","",AZ,US,928-210-3435,,"",yuma-az,e47903dabd5148a8,https://haulcommand.com/claim/invite/e47903dabd5148a8,"","CA;NV;NM"
"Tucson, Az","Anstorm Sabre PCS, LLC",AZ,US,402-270-2125,,"",tucson-az,e91b00cd98deedc7,https://haulcommand.com/claim/invite/e91b00cd98deedc7,"",""
"Phoenix, Az","",AZ,US,602-699-5755,,"",phoenix-az,5c0a59973a2b135b,https://haulcommand.com/claim/invite/5c0a59973a2b135b,"",""
"Holbrook/Flagstaff/Payson, Az","S & G Transport LLC",AZ,US,928-651-2140,,"",holbrookflagstaffpayson-az,0e94dffeafba77fe,https://haulcommand.com/claim/invite/0e94dffeafba77fe,"","CO;NM;UT"
"Moorhead, Mn","Thom Heavy Haul Escort LLC",AZ,US,218-329-7606,,"",moorhead-mn,127775760c50fcbe,https://haulcommand.com/claim/invite/127775760c50fcbe,"","MN"
"Mesa/Phoenix,Az","",AZ,US,626-278-7545,,"",mesaphoenixaz,86e45aae13567aa3,https://haulcommand.com/claim/invite/86e45aae13567aa3,"",""
"Cortez, Co","",AZ,US,970-759-6678,,"",cortez-co,0e26a246294e36c2,https://haulcommand.com/claim/invite/0e26a246294e36c2,"","CO;NM;UT"
"Reno, Nv","",AZ,US,775-560-5896,,"",reno-nv,43bcebe5603c3646,https://haulcommand.com/claim/invite/43bcebe5603c3646,"Blacksheep Pilot Car / T.J.S","NV"
"Madera, Ca","",AZ,US,559-363-5656,,"",madera-ca,734174bdedc7b845,https://haulcommand.com/claim/invite/734174bdedc7b845,"","CA;NV;NM;UT"
"Sacramento, Ca","",AZ,US,916-856-4960,,"",sacramento-ca,ed30217534eb574c,https://haulcommand.com/claim/invite/ed30217534eb574c,"","CA;NV;OR;UT"
"& Pilot Car","",AZ,US,559-363-5656,,"",-pilot-car,571df8171df95679,https://haulcommand.com/claim/invite/571df8171df95679,"","CA;NV;NM;UT"
"Warsaw, Mo","",AR,US,660-281-6307,,"",warsaw-mo,5d8e10e830c30eff,https://haulcommand.com/claim/invite/5d8e10e830c30eff,"","IL;IN;IA;KS;MI;MN;NE;OH;OK"
"Texarkana, Ar","",AR,US,903-744-3166,,"",texarkana-ar,01178161e150a77e,https://haulcommand.com/claim/invite/01178161e150a77e,"",""
"Houston, Tx","",AR,US,281-923-8136,,"",houston-tx,ac0a94cafafbb760,https://haulcommand.com/claim/invite/ac0a94cafafbb760,"","LA;OK;TX"
"Norfolk, Ne","",AR,US,402-803-0644,,"",norfolk-ne,2c912290e7feed95,https://haulcommand.com/claim/invite/2c912290e7feed95,"","CO;IL;IA;KS;MN;NE;ND;OK;SD;TX;WI;WY"
"Texarkana, Ar","",AR,US,870-703-1576,,"",texarkana-ar,9f2a2a4b52354069,https://haulcommand.com/claim/invite/9f2a2a4b52354069,"","LA;OK;TX"
"Sallisaw, Ok","",AR,US,918-682-9636,,"",sallisaw-ok,96586a3e6360cff9,https://haulcommand.com/claim/invite/96586a3e6360cff9,"","OK;TX"
"Texarkana, Ar","",AR,US,318-469-3748,,"",texarkana-ar,3bc6c50383b6e9b0,https://haulcommand.com/claim/invite/3bc6c50383b6e9b0,"",""
"Northeast La","",AR,US,318-432-4270,,"",northeast-la,10b5ed044c64f486,https://haulcommand.com/claim/invite/10b5ed044c64f486,"","LA;TX"
"Long Beach, Ca","First Choice Pilot Cars",CA,US,424-203-3227,,"",long-beach-ca,a837ae1b8927c4b5,https://haulcommand.com/claim/invite/a837ae1b8927c4b5,"",""
"Fairfield, Ca","",CA,US,707-592-4294,,"",fairfield-ca,24591c99162153c7,https://haulcommand.com/claim/invite/24591c99162153c7,"",""
"Ontario, Or","Northwest Pilot Cars",CA,US,541-823-7039,,"",ontario-or,8219ac2eb8451f7d,https://haulcommand.com/claim/invite/8219ac2eb8451f7d,"",""
"Reno, Nv","",CA,US,775-745-5840,,"",reno-nv,f35165fa03354f08,https://haulcommand.com/claim/invite/f35165fa03354f08,"","UT"
"Long Beach, Ca","",CA,US,951-378-2992,,"",long-beach-ca,0fd8e6a5106594f2,https://haulcommand.com/claim/invite/0fd8e6a5106594f2,"",""
"Sacramento, Ca","Zephyr Pilot, LLC",CA,US,530-526-9765,,"",sacramento-ca,c9b9c9c15d0a8a25,https://haulcommand.com/claim/invite/c9b9c9c15d0a8a25,"",""
"Long Beach, Ca","",CA,US,951-442-4476,,"",long-beach-ca,436e8af5021f2343,https://haulcommand.com/claim/invite/436e8af5021f2343,"",""
"Bellingham, Wa","",CA,US,360-820-8388,,"",bellingham-wa,abd33f7ec117ba41,https://haulcommand.com/claim/invite/abd33f7ec117ba41,"","OR;WA"
"Sacramento, Ca/Reno, Nv","",CA,US,916-459-7079,,"",sacramento-careno-nv,167c0e4f6c636c82,https://haulcommand.com/claim/invite/167c0e4f6c636c82,"","NV"
"Bakersfield, Ca","",CA,US,760-223-2397,,"",bakersfield-ca,fe4a972127d3ea7e,https://haulcommand.com/claim/invite/fe4a972127d3ea7e,"",""
"Stockton, Ca","",CA,US,209-901-6130,,"",stockton-ca,03f912218b09a445,https://haulcommand.com/claim/invite/03f912218b09a445,"",""
"Cripple Creek/Victor, Co","All State Pilot Cars",CO,US,719-465-4643,,"",cripple-creekvictor-co,c7bc534eb97c016f,https://haulcommand.com/claim/invite/c7bc534eb97c016f,"",""
"Fort Collins, Co","",CO,US,970-217-1334,,"",fort-collins-co,3dbb60cd393a2f59,https://haulcommand.com/claim/invite/3dbb60cd393a2f59,"","KS;NE;WY"
"Peoria, Az","",CO,US,623-910-3236,,"",peoria-az,eda143aabecf14ba,https://haulcommand.com/claim/invite/eda143aabecf14ba,"","NM"
"Fort Morgan, Co","",CO,US,308-249-4899,,"",fort-morgan-co,8db9db3eaf701874,https://haulcommand.com/claim/invite/8db9db3eaf701874,"","KS;NE;WY"
"Pueblo, Co","Roadrunner Pilot Car",CO,US,719-281-0806,,"",pueblo-co,56d5f27c2905afb2,https://haulcommand.com/claim/invite/56d5f27c2905afb2,"","KS;NM;WY"
"Cheyenne, Wy","",CO,US,307-632-6409,,"",cheyenne-wy,2bc26cba6175d336,https://haulcommand.com/claim/invite/2bc26cba6175d336,"","KS;MT;NE;UT;WY"
"Odessa, Tx","Hunters Pilot Car LLC",CO,US,432-924-2289,,"",odessa-tx,67549073a4c138e5,https://haulcommand.com/claim/invite/67549073a4c138e5,"","KS;OK;TX"
"Denver/Pueblo, Co","",CO,US,626-278-7545,,"",denverpueblo-co,83d4178c292c85ad,https://haulcommand.com/claim/invite/83d4178c292c85ad,"",""
"Aurora, Co","",CO,US,303-550-1452,,"",aurora-co,5a9bbf77e5ea34c9,https://haulcommand.com/claim/invite/5a9bbf77e5ea34c9,"","KS;UT;WY"
"Rifle, Co","",CO,US,970-274-1337,,"",rifle-co,ceaf380b0eb55311,https://haulcommand.com/claim/invite/ceaf380b0eb55311,"","KS;NM;UT;WY"
"Burns /Cheyenne, Wy","",CO,US,307-477-7771,,"",burns-cheyenne-wy,75927f0bcd6fa351,https://haulcommand.com/claim/invite/75927f0bcd6fa351,"","MT;SD"
"Vernal, Ut","",CO,US,435-790-1226,,"",vernal-ut,e368b91174335602,https://haulcommand.com/claim/invite/e368b91174335602,"","NV;UT;WY"
"Cheyenne, Wy","Professional Oversize Escort Svcs.",CO,US,307-275-6814,,"",cheyenne-wy,6b09fa4b63423a8f,https://haulcommand.com/claim/invite/6b09fa4b63423a8f,"","NE;NM;WY"
"Limon, Co","",CO,US,719-330-6080,,"",limon-co,abadff8b15178c12,https://haulcommand.com/claim/invite/abadff8b15178c12,"",""
"Canon City, Co","",CO,US,719-371-5700,,"",canon-city-co,7aee28055d29a573,https://haulcommand.com/claim/invite/7aee28055d29a573,"","KS;UT;WY"
"Canon City, Co","",CO,US,719-429-9617,,"",canon-city-co,8b68dc30f5c1e566,https://haulcommand.com/claim/invite/8b68dc30f5c1e566,"",""
"Brighton/ Fort Collins, Co","",CO,US,720-810-6155,,"",brighton-fort-collins-co,f3feb6481730f593,https://haulcommand.com/claim/invite/f3feb6481730f593,"","KS;SD;TX;WY"
"Farmington, Nm","",CO,US,505-486-9835,,"",farmington-nm,c369f568464431bd,https://haulcommand.com/claim/invite/c369f568464431bd,"","NM;TX;UT"
"Burns/Cheyenne, Wy| East West Pilot Car Service, LLC","",CO,US,307-477-7771,,"",burnscheyenne-wy-east-west-pilot-car-service-llc,ff7e8462df417357,https://haulcommand.com/claim/invite/ff7e8462df417357,"",""
"Nyc/Long Island, Ny","",CT,US,918-886-0992,,"",nyclong-island-ny,1d24f1f6590d6c50,https://haulcommand.com/claim/invite/1d24f1f6590d6c50,"","NJ;NY;PA"
"Mile Makers Pilot Car Services","",CT,US,301-305-7563,,"",mile-makers-pilot-car-services,91bc4f1c5aa822bb,https://haulcommand.com/claim/invite/91bc4f1c5aa822bb,"","FL"
"Baltimore, Md","",DE,US,240-818-6454,,"",baltimore-md,79f76fe052f3a672,https://haulcommand.com/claim/invite/79f76fe052f3a672,"","MD;PA;VA"
"Workers","Program",FL,US,801-262-3525,,"",workers,b6f7e4b26e82f1c7,https://haulcommand.com/claim/invite/b6f7e4b26e82f1c7,"",""
"Alachua, Fl | Amber Pilot Cars","",FL,US,919-809-2313,,"",alachua-fl-amber-pilot-cars,30f74b88b6169c38,https://haulcommand.com/claim/invite/30f74b88b6169c38,"",""
"Houston, Tx","",FL,US,832-594-9306,,"",houston-tx,5884730b49023770,https://haulcommand.com/claim/invite/5884730b49023770,"","MI"
"Alachua, Fl","",FL,US,919-809-2313,,"",alachua-fl,454c360cf2cad297,https://haulcommand.com/claim/invite/454c360cf2cad297,"",""
"Seminary, Ms","",FL,US,601-517-3789,,"",seminary-ms,60edad2e228d412f,https://haulcommand.com/claim/invite/60edad2e228d412f,"","LA"
"Coldwater, Mi","",IL,US,269-209-3698,,"",coldwater-mi,70c6b5e580a09537,https://haulcommand.com/claim/invite/70c6b5e580a09537,"","IN;MI;OH"
"Menominee, Mi","",IL,US,715-587-0554,,"",menominee-mi,31d95ee3490644bf,https://haulcommand.com/claim/invite/31d95ee3490644bf,"","MI;MN;WI"
"Fort Wayne/Fremont/Gary/ Indy, In","",IL,US,574-835-8743,,"",fort-waynefremontgary-indy-in,aaf45bc0723c22e5,https://haulcommand.com/claim/invite/aaf45bc0723c22e5,"","MI;OH"
"Indianapolis, In 47331","",IL,US,308-529-8800,,"",indianapolis-in-47331,5c27bafd527c2bcb,https://haulcommand.com/claim/invite/5c27bafd527c2bcb,"","KY"
"Rockwood, Mi","",IL,US,734-799-6833,,"",rockwood-mi,1ff394de0e6a6225,https://haulcommand.com/claim/invite/1ff394de0e6a6225,"","IN;MI;PA"
"Holland, Mi","",IL,US,616-836-2283,,"",holland-mi,41099c81dd2153ab,https://haulcommand.com/claim/invite/41099c81dd2153ab,"","IN;MI;WI"
"Fort Wayne/Fremont/Gary, In","",IN,US,574-835-8743,,"",fort-waynefremontgary-in,a18c7b94a999a46c,https://haulcommand.com/claim/invite/a18c7b94a999a46c,"",""
"Southfield, Mi","",IN,US,248-761-5343,,"",southfield-mi,7d04212452da5e99,https://haulcommand.com/claim/invite/7d04212452da5e99,"","MI;OH;ON"
"Sheridan, In","",IN,US,317-371-4228,,"",sheridan-in,bd9c456407e4506e,https://haulcommand.com/claim/invite/bd9c456407e4506e,"",""
"Indianapolis","",IN,US,317-694-4444,,"",indianapolis,7577ded845e11719,https://haulcommand.com/claim/invite/7577ded845e11719,"","KY;MI;OH"
"Indianapolis, In","",IN,US,308-529-8800,,"",indianapolis-in,d9db55f899d80b96,https://haulcommand.com/claim/invite/d9db55f899d80b96,"","MI;WI"
"Anderson, In","Taylor Piloting",IN,US,765-620-7438,,"",anderson-in,4fb9b93aa0bd8cea,https://haulcommand.com/claim/invite/4fb9b93aa0bd8cea,"","KY;TX"
"Indianapolis, In","",IN,US,765-389-3168,,"",indianapolis-in,e5802811fa29cb55,https://haulcommand.com/claim/invite/e5802811fa29cb55,"",""
"Murray, Ne |Towering Oak Pilot Cars","",IA,US,402-718-0698,,"",murray-ne-towering-oak-pilot-cars,0a52e812199913ac,https://haulcommand.com/claim/invite/0a52e812199913ac,"","KS;MO;NE"
"Springfield, Mo","",IA,US,479-670-2176,,"",springfield-mo,294970a18ad7b0a2,https://haulcommand.com/claim/invite/294970a18ad7b0a2,"","KS;OK"
"Greater Kansas City Area","",IA,US,913-485-3813,,"",greater-kansas-city-area,67322bb795a5a474,https://haulcommand.com/claim/invite/67322bb795a5a474,"","OK"
"Wahpeton, Nd/St. Paul, Mn/Council Bluffs, Ia","",IA,US,701-899-0173,,"",wahpeton-ndst-paul-mncouncil-bluffs-ia,a753b801112a17c1,https://haulcommand.com/claim/invite/a753b801112a17c1,"","KS"
"Chester & Alma, Ne/Yankton, Sd","",IA,US,402-366-0730,,"",chester-alma-neyankton-sd,6de6e333d250e024,https://haulcommand.com/claim/invite/6de6e333d250e024,"",""
"Council Bluffs, Ia","County Line Pilot Car, LLC",IA,US,402-984-0976,,"",council-bluffs-ia,191490f3a5cf8ca9,https://haulcommand.com/claim/invite/191490f3a5cf8ca9,"",""
"Kansas City, Ks","",IA,US,816-560-0906,,"",kansas-city-ks,25de82933dbe6fff,https://haulcommand.com/claim/invite/25de82933dbe6fff,"Djs Pilot Cars, LLC","KS;OK"
"York, Ne","",IA,US,402-366-2028,,"",york-ne,cc569a1ef1fa4c1f,https://haulcommand.com/claim/invite/cc569a1ef1fa4c1f,"","KS;NE;OK"
"Grand Island, Ne","",IA,US,308-940-3251,,"",grand-island-ne,852c61ea971a3f76,https://haulcommand.com/claim/invite/852c61ea971a3f76,"","KS;NE;SD"
"Murray, Ne","",IA,US,402-718-0698,,"",murray-ne,f4090f9134142b2a,https://haulcommand.com/claim/invite/f4090f9134142b2a,"","KS;NE"
"Fort Wayne/Fremont, In","",KS,US,260-336-2412,,"",fort-waynefremont-in,1276f98491570f9e,https://haulcommand.com/claim/invite/1276f98491570f9e,"",""
"Wichita, Ks","",KS,US,903-744-3166,,"",wichita-ks,b9ce3982a8761aaf,https://haulcommand.com/claim/invite/b9ce3982a8761aaf,"",""
"Woodward, Ok","",KS,US,580-216-7881,,"",woodward-ok,3e9f9dfd30d00cff,https://haulcommand.com/claim/invite/3e9f9dfd30d00cff,"","NE;TX"
"Chester, Ne/Yankton, Sd","",KS,US,402-366-0730,,"",chester-neyankton-sd,373b623c50d6ad2d,https://haulcommand.com/claim/invite/373b623c50d6ad2d,"","NE;SD"
"Johnson City, Tn","",KS,US,907-957-0107,,"",johnson-city-tn,06ab7e47936abbdd,https://haulcommand.com/claim/invite/06ab7e47936abbdd,"","MD;OH"
"Salina, Ks","County Line Pilot Car, LLC",KS,US,402-984-0976,,"",salina-ks,545ab06e33cd3a85,https://haulcommand.com/claim/invite/545ab06e33cd3a85,"",""
"Kansas City, Ks","",KS,US,913-485-3813,,"",kansas-city-ks,bcb0bf043deb652f,https://haulcommand.com/claim/invite/bcb0bf043deb652f,"",""
"Blue Springs, Mo","",KS,US,816-674-3253,,"",blue-springs-mo,c0b34bf4c8d9be42,https://haulcommand.com/claim/invite/c0b34bf4c8d9be42,"","OK"
"So. Charleston, Wv","",KY,US,304-437-0403,,"",so-charleston-wv,cd7f096a0fd11e5b,https://haulcommand.com/claim/invite/cd7f096a0fd11e5b,"","MD;OH;PA;VA;WV"
"Hamlin, Wv","Almost Heaven Pilot Cars",KY,US,304-360-4102,,"",hamlin-wv,4cfdf71af9e27f55,https://haulcommand.com/claim/invite/4cfdf71af9e27f55,"","OH;VA;WV"
"Bowling Green, Ky","",KY,US,270-407-8412,,"",bowling-green-ky,10427a9916622c7b,https://haulcommand.com/claim/invite/10427a9916622c7b,"",""
"Cards","All Credit",LA,US,337-551-3983,http://www.louisianafrog.com/,"",cards,1e02a78df6a42f56,https://haulcommand.com/claim/invite/1e02a78df6a42f56,"",""
"Waskom, Tx","Bama Pilot Cars",LA,US,469-223-4620,,"",waskom-tx,b734065556227d3d,https://haulcommand.com/claim/invite/b734065556227d3d,"","OK;TX"
"Monmouth, Me","",ME,US,207-240-7876,,"",monmouth-me,e363a401c1b466a6,https://haulcommand.com/claim/invite/e363a401c1b466a6,"",""
"Hertford, Nc","R & C Pilot Cars",MD,US,252-340-0879,,"",hertford-nc,0204d59c8ec11b82,https://haulcommand.com/claim/invite/0204d59c8ec11b82,"",""
"Wheeling, Wv","",MD,US,304-639-6410,,"",wheeling-wv,0b29a25e7052ab97,https://haulcommand.com/claim/invite/0b29a25e7052ab97,"",""
"Callao, Va","",MD,US,804-238-8216,,"",callao-va,bd98e659957dd864,https://haulcommand.com/claim/invite/bd98e659957dd864,"","NC;PA;VA"
"Woodbridge, Va","",MD,US,703-898-8718,,"",woodbridge-va,f538f2548ade9cf4,https://haulcommand.com/claim/invite/f538f2548ade9cf4,"","NC;VA;WV"
"Baltimore, Md","Coast-To-Coast Pilot Cars",MD,US,330-610-2492,,"",baltimore-md,620e0d67f77d0ee8,https://haulcommand.com/claim/invite/620e0d67f77d0ee8,"",""
"Fort Mill, Sc/Washington, Dc","",MD,US,704-492-3643,,"",fort-mill-scwashington-dc,8fb48bb78f000403,https://haulcommand.com/claim/invite/8fb48bb78f000403,"",""
"Nationwide Services","",MD,US,301-458-0111,,"",nationwide-services,3cad8ab1d4350f2d,https://haulcommand.com/claim/invite/3cad8ab1d4350f2d,"","PA;VA;WV"
"Harrisburg, Pa","",MD,US,570-516-4112,,"",harrisburg-pa,5cf463b4bca46b3f,https://haulcommand.com/claim/invite/5cf463b4bca46b3f,"","OH;PA;WV"
"Pittsfield, Ma","",MA,US,413-441-0542,,"",pittsfield-ma,cca0583cd159e8b2,https://haulcommand.com/claim/invite/cca0583cd159e8b2,"",""
"Springfield, Ma","",MA,US,217-860-2201,,"",springfield-ma,3f90b58cf260d8b2,https://haulcommand.com/claim/invite/3f90b58cf260d8b2,"",""
"Northeast Us","",MA,US,203-994-2620,,"",northeast-us,ec56484fecadf224,https://haulcommand.com/claim/invite/ec56484fecadf224,"",""
"Red Wing, Mn","",MN,US,651-380-5578,,"",red-wing-mn,80990c1a18d4ab5e,https://haulcommand.com/claim/invite/80990c1a18d4ab5e,"",""
"Jamestown, Nd","",MN,US,701-368-2415,,"",jamestown-nd,2d51250fcc8adfc3,https://haulcommand.com/claim/invite/2d51250fcc8adfc3,"","MT;ND;SD"
"Fargo, Nd","",MN,US,701-532-0252,,"",fargo-nd,29b1033d9a5bc8f3,https://haulcommand.com/claim/invite/29b1033d9a5bc8f3,"","MT;ND;SD"
"Granville, Nd","",MN,US,701-240-4969,,"",granville-nd,849ee6ccbde16ed2,https://haulcommand.com/claim/invite/849ee6ccbde16ed2,"","MT;ND;SD;WY;SK"
"Fargo, Nd","Tri-State Piloting LLC",MN,US,701-552-3404,,"",fargo-nd,58c543bb4a14a3dd,https://haulcommand.com/claim/invite/58c543bb4a14a3dd,"","MT;ND;SD"
"Tcb Escorts LLC","All Credit   
   Cards   
 
 
  Jackson",MS,US,601-612-0106,,"",tcb-escorts-llc,c586e99d5658692c,https://haulcommand.com/claim/invite/c586e99d5658692c,"",""
"Rapid City, Sd","Dalaines Pilotcar",MT,US,605-545-2930,,"",rapid-city-sd,5b8e896a0fc47221,https://haulcommand.com/claim/invite/5b8e896a0fc47221,"","NE;ND;SD;WY"
"Spokane, Wa","",MT,US,509-994-6690,,"",spokane-wa,fe730d4c9bb08bfb,https://haulcommand.com/claim/invite/fe730d4c9bb08bfb,"","OR;WA"
"Billings, Mt","",MT,US,406-697-5909,,"",billings-mt,6ac01ebe8cf0a087,https://haulcommand.com/claim/invite/6ac01ebe8cf0a087,"","ND;SD"
"Moorcroft, Wy","",MT,US,307-351-2322,,"",moorcroft-wy,ad3f0c1f69628d56,https://haulcommand.com/claim/invite/ad3f0c1f69628d56,"Rogue Hotshots PCS LLC Witpac","NE;SD;WY"
"Post Falls, Id","",MT,US,208-449-1011,,"",post-falls-id,8dfcb192ec86c474,https://haulcommand.com/claim/invite/8dfcb192ec86c474,"","OR;WA"
"Miles City, Mt","",MT,US,406-853-1024,,"",miles-city-mt,317ed53899edba43,https://haulcommand.com/claim/invite/317ed53899edba43,"",""
"Casper. Wy","",MT,US,307-389-7285,,"",casper-wy,ed12d88c0238663b,https://haulcommand.com/claim/invite/ed12d88c0238663b,"","SD;UT;WY"
"Big Sky Pilots  &Nbsp;","Billings",MT,US,406-697-5909,,"",big-sky-pilots-nbsp,9cfc5e1fbd54a240,https://haulcommand.com/claim/invite/9cfc5e1fbd54a240,"",""
"Norwalk, Iowa","",NE,US,515-205-7973,,"",norwalk-iowa,77dfeaad221e4205,https://haulcommand.com/claim/invite/77dfeaad221e4205,"",""
"Burns, Wy","",NE,US,307-477-7771,,"",burns-wy,f7d11f2ed1188f16,https://haulcommand.com/claim/invite/f7d11f2ed1188f16,"","WY"
"I-80 & Ne Hwys. 183,281,81,283","County Line Pilot Car, LLC",NE,US,402-984-0976,,"",i-80-ne-hwys-18328181283,0e6ce8cc3506caaf,https://haulcommand.com/claim/invite/0e6ce8cc3506caaf,"",""
"Columbus, Ne","Anstorm Sabre PCS, LLC",NE,US,402-270-2125,,"",columbus-ne,292e196765fd734c,https://haulcommand.com/claim/invite/292e196765fd734c,"",""
"Midwest Pilot Cars","Omaha",NE,US,605-670-9654,http://midwestpilotcars.com/,"height_pole;route_survey;multiple_cars;steering",midwest-pilot-cars,a6f91f89d6afe29f,https://haulcommand.com/claim/invite/a6f91f89d6afe29f,"","TX;VA"
"J &Amp; W Torrence Pilot Car","Neill",NE,US,405-476-8006,,"",j-amp-w-torrence-pilot-car,d2dde70f40dd27ad,https://haulcommand.com/claim/invite/d2dde70f40dd27ad,"",""
"Tammy Bzzz’S Pilot Car Service","York",NE,US,402-366-2028,,"",tammy-bzzzs-pilot-car-service,2c8a84379003e5f4,https://haulcommand.com/claim/invite/2c8a84379003e5f4,"",""
"Ely/Wendover, Nv","",NV,US,702-496-8313,,"",elywendover-nv,df5af8c784f10af8,https://haulcommand.com/claim/invite/df5af8c784f10af8,"",""
"Jerome, Id","",NV,US,208-731-4198,,"",jerome-id,166180a120e60810,https://haulcommand.com/claim/invite/166180a120e60810,"","OR;UT"
"Reno, Nv","",NV,US,775-622-9112,,"",reno-nv,7fa576631e2d686d,https://haulcommand.com/claim/invite/7fa576631e2d686d,"",""
"Dts Pilot Car Service","Reno",NV,US,775-842-2633,http://dtspilotcar.com/,"",dts-pilot-car-service,0d006f1498112b25,https://haulcommand.com/claim/invite/0d006f1498112b25,"",""
"Nashua, Nh","",NH,US,217-860-2201,,"",nashua-nh,b108d7a5fc0356ec,https://haulcommand.com/claim/invite/b108d7a5fc0356ec,"",""
"Albuquerque, Nm","",NM,US,505-330-6188,,"",albuquerque-nm,04ee320b284c3d2c,https://haulcommand.com/claim/invite/04ee320b284c3d2c,"",""
"Rio Rancho, Nm","",NM,US,206-293-2672,,"",rio-rancho-nm,9ca4b55976af831d,https://haulcommand.com/claim/invite/9ca4b55976af831d,"",""
"Pueblo, Co","",NM,US,877-333-0115,,"",pueblo-co,a679562de1292d2b,https://haulcommand.com/claim/invite/a679562de1292d2b,"",""
"Albuquerque, Nm/Phoenix, Az","",NM,US,626-278-7545,,"",albuquerque-nmphoenix-az,d977d95915103ba7,https://haulcommand.com/claim/invite/d977d95915103ba7,"",""
"Abuquerque. Nm","Anstorm Sabre PCS, LLC",NM,US,402-270-2125,,"",abuquerque-nm,bfde73782ab5ead0,https://haulcommand.com/claim/invite/bfde73782ab5ead0,"",""
"Albuquerque, Nm","",NM,US,505-377-5773,,"",albuquerque-nm,0898adbf39e58d26,https://haulcommand.com/claim/invite/0898adbf39e58d26,"",""
"Midland/Lubbock/Pecos, Tx","",NM,US,432-250-5865,,"",midlandlubbockpecos-tx,0269745f0183d0b3,https://haulcommand.com/claim/invite/0269745f0183d0b3,"",""
"Rifle, Co","Twin Guns Transport. & Heavy Haul",NM,US,970-456-2169,,"",rifle-co,1d0d75630ff14cb4,https://haulcommand.com/claim/invite/1d0d75630ff14cb4,"",""
"Socorro, Nm","",NM,US,480-239-7887,,"",socorro-nm,53192688a347444f,https://haulcommand.com/claim/invite/53192688a347444f,"",""
"Socorro, Nm","",NM,US,719-641-9158,,"",socorro-nm,daf474c0b142d5f9,https://haulcommand.com/claim/invite/daf474c0b142d5f9,"",""
"Pocatello. Id/Farmington, Nm","",NM,US,208-479-7290,,"",pocatello-idfarmington-nm,c77650db6a9b6816,https://haulcommand.com/claim/invite/c77650db6a9b6816,"",""
"Jamestown, Ny","Coast-To-Coast Pilot Cars",NY,US,330-610-2492,,"",jamestown-ny,509b10e34dec5e01,https://haulcommand.com/claim/invite/509b10e34dec5e01,"",""
"Buffalo, Ny","",NY,US,716-222-2658,,"",buffalo-ny,4b36cd18d2f4eec4,https://haulcommand.com/claim/invite/4b36cd18d2f4eec4,"","OH;VA"
"Ny Metro Area","",NY,US,631-669-3742,,"",ny-metro-area,d579393ed0538d48,https://haulcommand.com/claim/invite/d579393ed0538d48,"",""
"Savannah, Ga","",NC,US,912-401-9545,,"",savannah-ga,3b1249ce4de84488,https://haulcommand.com/claim/invite/3b1249ce4de84488,"","PA;SC"
"Johnson City, Tn","",NC,US,407-310-1035,,"",johnson-city-tn,40a351d01d4141ed,https://haulcommand.com/claim/invite/40a351d01d4141ed,"","SC;VA"
"Fort Mill, Sc","",NC,US,704-492-3643,,"",fort-mill-sc,15bb1a9e66081511,https://haulcommand.com/claim/invite/15bb1a9e66081511,"","SC"
"Greenville/ Columbia, Sc","",NC,US,916-955-8647,,"",greenville-columbia-sc,dcca2cdf654716a5,https://haulcommand.com/claim/invite/dcca2cdf654716a5,"","SC"
"Charlotte, Nc","",NC,US,704-202-3127,,"",charlotte-nc,8b100544a8e6e33f,https://haulcommand.com/claim/invite/8b100544a8e6e33f,"","SC;VA"
"Milwaukee, Wi | Aumor Inc..","",ND,US,262-666-2266,,"",milwaukee-wi-aumor-inc,299582db07905ced,https://haulcommand.com/claim/invite/299582db07905ced,"","OH;SD;TN"
"Blaine, Mn","",ND,US,612-978-9393,,"",blaine-mn,5826863dd217a192,https://haulcommand.com/claim/invite/5826863dd217a192,"","WI"
"Milwaukee, Wi","",ND,US,262-666-2266,,"",milwaukee-wi,33fd37c66cf01995,https://haulcommand.com/claim/invite/33fd37c66cf01995,"","OH;SD"
"Youngstown, Oh","",OH,US,330-770-2779,,"",youngstown-oh,fedaaae226057218,https://haulcommand.com/claim/invite/fedaaae226057218,"",""
"Charleston, Wv","",OH,US,304-549-8743,,"",charleston-wv,dad487af79fd01bb,https://haulcommand.com/claim/invite/dad487af79fd01bb,"","VA;WV"
"Oklahoma City, Ok","",OK,US,918-856-6160,,"",oklahoma-city-ok,e6e388bf80d548d2,https://haulcommand.com/claim/invite/e6e388bf80d548d2,"",""
"Del City, Ok","Akn Trucking & Pilot Car Svcs. LLC.",OK,US,405-882-7001,,"",del-city-ok,1f606d31c7de9190,https://haulcommand.com/claim/invite/1f606d31c7de9190,"",""
"Idabel, Ok","",OK,US,318-469-3748,,"",idabel-ok,24a3c7f107e5d363,https://haulcommand.com/claim/invite/24a3c7f107e5d363,"",""
"Oklahoma City, Ok","Midwest Pilot Cars",OK,US,605-670-9654,,"",oklahoma-city-ok,6b740b4cae8c098a,https://haulcommand.com/claim/invite/6b740b4cae8c098a,"",""
"Oklahoma City, Ok","Anstorm Sabre PCS, LLC",OK,US,402-270-2125,,"",oklahoma-city-ok,81fc532e8da2b3b5,https://haulcommand.com/claim/invite/81fc532e8da2b3b5,"","TX"
"Ba’S Pilot Car Service","",OK,US,903-744-3166,,"",bas-pilot-car-service,4c4315061bb34e2a,https://haulcommand.com/claim/invite/4c4315061bb34e2a,"","TX"
"Jim’S Pilot Car Service","Sallisaw",OK,US,918-682-9636,http://www.jimpilotcar.com/,"",jims-pilot-car-service,66057f2559813164,https://haulcommand.com/claim/invite/66057f2559813164,"",""
"Ashland, Or","A - Plus Pilot Car",OR,US,541-281-3474,,"",ashland-or,7f676643e9555346,https://haulcommand.com/claim/invite/7f676643e9555346,"",""
"Salem, Oregon","Choice Pilot Cars",OR,US,503-303-8552,,"",salem-oregon,70da6922661139e1,https://haulcommand.com/claim/invite/70da6922661139e1,"",""
"Beaverton/Portland/Salem, Or","",OR,US,503-775-6250,,"",beavertonportlandsalem-or,93d407dda71c1e29,https://haulcommand.com/claim/invite/93d407dda71c1e29,"",""
"Meridian, Id/Ontario, Or","",OR,US,208-608-2705,,"",meridian-idontario-or,b441857699a9d39a,https://haulcommand.com/claim/invite/b441857699a9d39a,"",""
"Portland, Or","",OR,US,503-857-2556,,"",portland-or,07fb2f381742147d,https://haulcommand.com/claim/invite/07fb2f381742147d,"",""
"Jefferson, Or","",OR,US,503-269-6705,,"",jefferson-or,e77885d0482698b4,https://haulcommand.com/claim/invite/e77885d0482698b4,"",""
"Easton, Pa","Cevo Phoenix PCS",PA,US,610-217-2593,,"",easton-pa,796c5688c547fa27,https://haulcommand.com/claim/invite/796c5688c547fa27,"",""
"Erie, Pa","",PA,US,716-222-2658,,"",erie-pa,03ccce1cdc82c424,https://haulcommand.com/claim/invite/03ccce1cdc82c424,"",""
"Gillett, Pa","Farrell’S PCS Ny Cert. / Witpac",PA,US,570-494-6387,,"",gillett-pa,34ba7eccbf03467a,https://haulcommand.com/claim/invite/34ba7eccbf03467a,"",""
"Elon, Nc","Rocky’S Pilot Cars",SC,US,336-512-8098,,"",elon-nc,003d36e65d362c09,https://haulcommand.com/claim/invite/003d36e65d362c09,"",""
"Sioux Falls, Sd","",SD,US,605-670-9654,,"",sioux-falls-sd,c5ea78387761e26e,https://haulcommand.com/claim/invite/c5ea78387761e26e,"",""
"Yankton, Sd","County Line Pilot Car, LLC",SD,US,402-984-0976,,"",yankton-sd,ea0e2485e8a3763d,https://haulcommand.com/claim/invite/ea0e2485e8a3763d,"",""
"Houston/Killeen/Gainesville, Tx","",TX,US,405-476-8006,,"",houstonkilleengainesville-tx,620926ef21f155ce,https://haulcommand.com/claim/invite/620926ef21f155ce,"",""
"Waskom/Longview/Carthage, Tx","Shumaker Pilot Car",TX,US,903-235-5822,,"",waskomlongviewcarthage-tx,d9a06a794ffe00fc,https://haulcommand.com/claim/invite/d9a06a794ffe00fc,"",""
"Midland/Lubbock/Pecos/Odessa, Tx","",TX,US,432-250-5865,,"",midlandlubbockpecosodessa-tx,0d58bf028a089f87,https://haulcommand.com/claim/invite/0d58bf028a089f87,"",""
"San Antonio/Austin, Tx","",TX,US,210-861-4221,,"",san-antonioaustin-tx,702ca68348051ee5,https://haulcommand.com/claim/invite/702ca68348051ee5,"",""
"Waskom, Tx","",TX,US,318-469-3748,,"",waskom-tx,718487e25d9513df,https://haulcommand.com/claim/invite/718487e25d9513df,"",""
"Cards","All Credit",TX,US,318-432-4270,http://www.louisianafrog.com/,"",cards,fe1bf177fb41525d,https://haulcommand.com/claim/invite/fe1bf177fb41525d,"",""
"Js Pilot Car","San Antonio/Austn",TX,US,210-861-4221,,"",js-pilot-car,5c136eb9c59e0a06,https://haulcommand.com/claim/invite/5c136eb9c59e0a06,"",""
"Hunter&#39;S PilOt Car LLC","T  
  E  
  X  
  A  
  S  
     
     
 
 
  Odessa",TX,US,432-924-2289,http://hunterspilotcar.com/,"",hunter39s-pilot-car-llc,b3a560a93652ea66,https://haulcommand.com/claim/invite/b3a560a93652ea66,"",""
"Cedar City, Ut","",UT,US,435-383-7385,,"",cedar-city-ut,feffd1cebdd22761,https://haulcommand.com/claim/invite/feffd1cebdd22761,"",""
"Phoenix/Casa Grande, Az","",UT,US,480-239-7887,,"",phoenixcasa-grande-az,b487328ada4f93ce,https://haulcommand.com/claim/invite/b487328ada4f93ce,"",""
"Salt Lake City, Ut","",UT,US,385-392-6193,,"",salt-lake-city-ut,838230cb69284e65,https://haulcommand.com/claim/invite/838230cb69284e65,"",""
"Pocatello, Id","",UT,US,530-205-5966,,"",pocatello-id,ac3b8d2496e43823,https://haulcommand.com/claim/invite/ac3b8d2496e43823,"",""
"Slc, Ut/Phoenix,Az","",UT,US,626-278-7545,,"",slc-utphoenixaz,c2549cf1f31c4ea8,https://haulcommand.com/claim/invite/c2549cf1f31c4ea8,"",""
"Brattleboro, Vt","",VT,US,217-860-2201,,"",brattleboro-vt,84ba77086111221c,https://haulcommand.com/claim/invite/84ba77086111221c,"",""
"Washington, Dc/Ft. Mill, Sc","",VA,US,704-492-3643,,"",washington-dcft-mill-sc,9745696e35423650,https://haulcommand.com/claim/invite/9745696e35423650,"",""
"Vancouver, Wa","",WA,US,503-857-2556,,"",vancouver-wa,ff274769d8fe1b59,https://haulcommand.com/claim/invite/ff274769d8fe1b59,"",""
"Tacoma, Wa","Choice Pilot Cars",WA,US,206-414-7405,,"",tacoma-wa,df62a80d02330de8,https://haulcommand.com/claim/invite/df62a80d02330de8,"",""
"Spokane Area, Wa","",WA,US,503-857-2556,,"",spokane-area-wa,ed1194b6a70aecb3,https://haulcommand.com/claim/invite/ed1194b6a70aecb3,"",""
"Vancouver, Wa","",WA,US,503-775-6250,,"",vancouver-wa,ad99a41dcde5d9eb,https://haulcommand.com/claim/invite/ad99a41dcde5d9eb,"",""
"Wenatchee, Wa","",WA,US,509-630-9132,,"",wenatchee-wa,7ae5c465f1916e2c,https://haulcommand.com/claim/invite/7ae5c465f1916e2c,"",""
"Tacoma Area, Wa","",WA,US,503-857-2556,,"",tacoma-area-wa,bd7d0c30836be6e9,https://haulcommand.com/claim/invite/bd7d0c30836be6e9,"",""
"Wheeling, Wv","",WV,US,605-670-9654,,"",wheeling-wv,df1e6a732b6dff58,https://haulcommand.com/claim/invite/df1e6a732b6dff58,"",""
"Clarksburg, Wv","",WV,US,304-677-0685,,"",clarksburg-wv,f563d83cddaa1ec6,https://haulcommand.com/claim/invite/f563d83cddaa1ec6,"",""
"Huntington, Wv","Almost Heaven Pilot Cars",WV,US,304-521-2401,,"",huntington-wv,8f035cbd89b42ffe,https://haulcommand.com/claim/invite/8f035cbd89b42ffe,"",""
"Charleston, Wv","Guerilla Movement",WV,US,888-827-7293,,"",charleston-wv,656edb0419de3167,https://haulcommand.com/claim/invite/656edb0419de3167,"",""
"Adair, Il","",WI,US,309-252-0264,,"",adair-il,0476a83f91e48fdb,https://haulcommand.com/claim/invite/0476a83f91e48fdb,"",""
"Casper, Wy","",WY,US,435-790-7558,,"",casper-wy,855a275fc996ed51,https://haulcommand.com/claim/invite/855a275fc996ed51,"",""
"Gillette, Wy","",WY,US,307-680-4082,,"",gillette-wy,3f847d537d50ec9e,https://haulcommand.com/claim/invite/3f847d537d50ec9e,"",""
"Frontier Pilot Services, LLC","Cars  
     
 
 
     
     
     
     
     
     
     
     
 
 
 
     
         
               
             Cheyenne",WY,US,307-632-6409,,"",frontier-pilot-services-llc,9f3dcf794922a665,https://haulcommand.com/claim/invite/9f3dcf794922a665,"",""
"D/L Pilot Service","Permits, Hp, Steering, Rte Survey, Rte Build, Cdl,Witpac, Twic  
               
               
             Gillette",WY,US,307-680-4082,,"",dl-pilot-service,ffeff43c8f03bc46,https://haulcommand.com/claim/invite/ffeff43c8f03bc46,"",""
"Kitchener, On","",ON,CA,519-574-8914,,"",kitchener-on,9fdf5d322c3b0167,https://haulcommand.com/claim/invite/9fdf5d322c3b0167,"",""